Year,m,d,Time,Time zone,Cloud amount (1/8),Pressure (msl) (hPa),Relative humidity (%),Precipitation intensity (mm/h),Snow depth (cm),Air temperature (degC),Dew-point temperature (degC),Horizontal visibility (m),Wind direction (deg),Gust speed (m/s),Wind speed (m/s)
2019,8,9,00:00,UTC,1,1003.7,90,0,-1,15,13.4,36610,327,2.1,1.6
2019,8,9,00:10,UTC,1,1003.7,91,0,-1,14.9,13.4,32580,321,2.8,1.9
2019,8,9,00:20,UTC,1,1003.8,91,0,-1,14.8,13.4,30230,322,3,2
2019,8,9,00:30,UTC,3,1003.8,91,0,-1,14.6,13.2,26370,323,2.6,1.9
2019,8,9,00:40,UTC,5,1003.8,92,0,-1,14.5,13.1,31970,333,2.6,2.1
2019,8,9,00:50,UTC,3,1003.9,92,0,-1,14.3,13.1,32430,341,2.1,1.8
2019,8,9,01:00,UTC,5,1004,92,0,-1,14.5,13.3,37740,335,2,1.6
2019,8,9,01:10,UTC,5,1004,92,0,-1,14.8,13.5,29590,329,2.4,1.5
2019,8,9,01:20,UTC,7,1003.9,91,0,-1,14.9,13.5,31280,336,2.2,1.4
2019,8,9,01:30,UTC,8,1003.9,91,0,-1,14.7,13.3,26670,327,1.7,1
2019,8,9,01:40,UTC,7,1004,92,0,-1,14.6,13.3,28660,340,1.7,1
2019,8,9,01:50,UTC,7,1003.9,92,0,-1,14.7,13.3,28890,337,2.6,1.3
2019,8,9,02:00,UTC,7,1004,92,0,-1,14.7,13.4,28970,329,2.1,1.5
2019,8,9,02:10,UTC,7,1004,92,0,-1,14.6,13.3,28910,331,2.1,1.3
2019,8,9,02:20,UTC,5,1004.1,91,0,-1,14.6,13.2,32970,324,2.2,1.2
2019,8,9,02:30,UTC,3,1004.2,92,0,-1,14.5,13.2,30830,342,2.7,1.7
2019,8,9,02:40,UTC,5,1004.2,91,0,-1,14.6,13.2,31140,339,2.7,1.6
2019,8,9,02:50,UTC,5,1004.3,91,0,-1,14.5,13,34550,352,2,0.7
2019,8,9,03:00,UTC,5,1004.3,91,0,-1,14.4,13,30870,332,2.9,1.4
2019,8,9,03:10,UTC,1,1004.4,91,0,-1,14.5,13.1,30760,340,2.7,1.9
2019,8,9,03:20,UTC,1,1004.5,90,0,-1,14.6,13,35280,342,2.6,1.6
2019,8,9,03:30,UTC,1,1004.5,91,0,-1,14.5,13.1,29270,348,2.5,1.5
2019,8,9,03:40,UTC,3,1004.6,91,0,-1,14.6,13.1,27720,349,3.2,2
2019,8,9,03:50,UTC,5,1004.5,91,0,-1,14.7,13.2,26640,348,3.4,1.5
2019,8,9,04:00,UTC,7,1004.6,91,0,-1,14.9,13.4,27880,20,3.6,1.5
2019,8,9,04:10,UTC,7,1004.6,89,0,-1,15.1,13.3,26680,5,3,1.5
2019,8,9,04:20,UTC,7,1004.6,89,0,-1,15.1,13.4,27120,18,3.7,1.9
2019,8,9,04:30,UTC,7,1004.7,89,0,-1,15.2,13.5,28710,359,2.8,1.1
2019,8,9,04:40,UTC,7,1004.6,89,0,-1,15.4,13.6,26230,349,1.5,0.8
2019,8,9,04:50,UTC,7,1004.6,87,0,-1,15.6,13.5,28440,29,2.9,1.5
2019,8,9,05:00,UTC,7,1004.7,85,0,-1,15.8,13.3,31360,20,3.6,1.9
2019,8,9,05:10,UTC,7,1004.8,85,0,-1,15.9,13.4,34430,14,3.2,1.7
2019,8,9,05:20,UTC,7,1004.9,85,0,-1,16.1,13.5,31260,18,3.7,2.2
2019,8,9,05:30,UTC,5,1004.8,83,0,-1,16.1,13.3,37910,30,4.1,2.8
2019,8,9,05:40,UTC,5,1004.9,83,0,-1,16.4,13.4,36390,27,4,2.1
2019,8,9,05:50,UTC,7,1005,83,0,-1,16.5,13.5,35070,7,3.4,1.9
2019,8,9,06:00,UTC,7,1005,83,0,-1,16.3,13.4,34360,13,3.5,2
2019,8,9,06:10,UTC,7,1005.1,84,0,-1,16.5,13.7,33960,11,3.1,1.7
2019,8,9,06:20,UTC,7,1005.1,82,0,-1,16.7,13.6,33340,15,3.2,1.8
2019,8,9,06:30,UTC,7,1005.1,81,0,-1,17,13.7,31970,20,3.5,2.2
2019,8,9,06:40,UTC,3,1005.2,78,0,-1,17.9,14,32670,27,3.5,2
2019,8,9,06:50,UTC,5,1005.2,75,0,-1,18.7,14.1,34050,16,3.8,2.3
2019,8,9,07:00,UTC,3,1005.3,74,0,-1,18.3,13.6,34650,44,4.1,2.7
2019,8,9,07:10,UTC,5,1005.3,74,0,-1,18.5,13.7,32800,39,3.1,2
2019,8,9,07:20,UTC,1,1005.3,72,0,-1,19.1,13.9,37250,36,3.6,1.9
2019,8,9,07:30,UTC,1,1005.4,72,0,-1,19.3,14.2,34950,55,4.6,2.7
2019,8,9,07:40,UTC,0,1005.5,72,0,-1,18.9,13.7,33640,48,4.5,2.6
2019,8,9,07:50,UTC,0,1005.5,73,0,-1,19,14,33740,57,4.7,2.7
2019,8,9,08:00,UTC,1,1005.6,72,0,-1,19.2,13.9,37980,72,4.1,2.8
2019,8,9,08:10,UTC,1,1005.7,71,0,-1,19.7,14.4,38630,78,4.7,3.1
2019,8,9,08:20,UTC,3,1005.8,70,0,-1,19.8,14.1,34680,80,4.5,2.8
2019,8,9,08:30,UTC,5,1005.9,68,0,-1,19.7,13.7,35390,52,4.7,2.6
2019,8,9,08:40,UTC,7,1006,69,0,-1,19.8,14,37460,67,4.1,2.8
2019,8,9,08:50,UTC,7,1006.1,71,0,-1,19.5,14.1,40380,48,4,2.1
2019,8,9,09:00,UTC,7,1006.1,69,0,-1,19.8,14,37880,80,4.2,3
2019,8,9,09:10,UTC,7,1006.1,67,0,-1,19.7,13.5,40600,79,4.4,3.4
2019,8,9,09:20,UTC,7,1006.1,68,0,-1,19.8,13.7,34670,68,3.7,2.5
2019,8,9,09:30,UTC,7,1006.2,67,0,-1,19.9,13.6,38090,68,3.9,2
2019,8,9,09:40,UTC,7,1006.2,69,0,-1,20.1,14.2,36300,26,2.8,1.5
2019,8,9,09:50,UTC,7,1006.3,62,0,-1,20.4,13,36540,328,5,2.2
2019,8,9,10:00,UTC,7,1006.3,64,0,-1,20.4,13.3,44520,322,4,2.1
2019,8,9,10:10,UTC,5,1006.3,61,0,-1,20.3,12.5,43350,6,4,1.7
2019,8,9,10:20,UTC,5,1006.4,59,0,-1,20.3,12.1,42480,348,3.8,1.9
2019,8,9,10:30,UTC,5,1006.4,59,0,-1,20.6,12.3,36960,322,4.1,1.8
2019,8,9,10:40,UTC,3,1006.3,59,0,-1,20.8,12.5,42130,21,3.4,1.9
2019,8,9,10:50,UTC,1,1006.4,58,0,-1,20.9,12.2,47020,25,5.1,2.5
2019,8,9,11:00,UTC,3,1006.4,57,0,-1,21.5,12.7,38550,359,5.3,3.6
2019,8,9,11:10,UTC,1,1006.4,56,0,-1,21.2,12.2,40330,351,5.2,2.5
2019,8,9,11:20,UTC,1,1006.4,56,0,-1,21.5,12.3,39180,330,5.4,2.3
2019,8,9,11:30,UTC,1,1006.4,55,0,-1,21.5,12.1,42580,346,6.5,3.2
2019,8,9,11:40,UTC,3,1006.5,56,0,-1,21.1,12.1,45990,24,4.5,2.6
2019,8,9,11:50,UTC,3,1006.5,54,0,-1,21,11.5,45520,37,5.5,2.4
2019,8,9,12:00,UTC,3,1006.5,55,0,-1,21.1,11.6,40560,29,6.4,1.6
2019,8,9,12:10,UTC,5,1006.6,68,0,-1,20.5,14.3,33390,353,2.9,1.4
2019,8,9,12:20,UTC,5,1006.6,67,0,-1,20.2,13.8,30190,212,4.1,1.9
2019,8,9,12:30,UTC,3,1006.7,69,0,-1,20.3,14.4,30300,174,2.8,1.4
2019,8,9,12:40,UTC,5,1006.6,64,0,-1,21,13.9,31750,213,4.6,2.8
2019,8,9,12:50,UTC,5,1006.7,66,0,-1,20.5,13.9,41320,228,4.3,2.9
2019,8,9,13:00,UTC,5,1006.8,67,0,-1,20.3,14.1,35440,166,5.1,2.2
2019,8,9,13:10,UTC,5,1006.9,66,0,-1,20.7,14.1,38820,177,4.8,3.3
2019,8,9,13:20,UTC,5,1007,70,0,-1,19.9,14.3,34860,188,5.1,3.1
2019,8,9,13:30,UTC,5,1007.1,69,0,-1,20.1,14.3,38140,223,5,3.4
2019,8,9,13:40,UTC,3,1007.2,68,0,-1,20.7,14.5,35960,218,4.7,3.7
2019,8,9,13:50,UTC,1,1007.3,68,0,-1,20.3,14.1,38540,212,5.5,4.2
2019,8,9,14:00,UTC,1,1007.4,68,0,-1,20.1,14.1,27550,220,6.6,4.5
2019,8,9,14:10,UTC,1,1007.5,69,0,-1,20.4,14.5,31320,218,6.7,4.7
2019,8,9,14:20,UTC,1,1007.6,71,0,-1,20,14.5,36810,221,6.9,4.6
2019,8,9,14:30,UTC,1,1007.7,73,0,-1,20.1,15.1,29020,219,6.8,5.2
2019,8,9,14:40,UTC,0,1007.7,72,0,-1,20.2,14.9,29550,235,7.4,5.1
2019,8,9,14:50,UTC,3,1007.7,72,0,-1,19.8,14.7,32990,230,6.5,4.7
2019,8,9,15:00,UTC,5,1007.7,74,0,-1,19.9,15.1,30820,233,5.5,3.4
2019,8,9,15:10,UTC,7,1007.9,76,0,-1,20,15.7,29350,229,6.2,3.5
2019,8,9,15:20,UTC,7,1008,75,0,-1,20.1,15.5,32360,222,6,3.8
2019,8,9,15:30,UTC,7,1007.9,73,0,-1,20.3,15.2,35540,227,5.2,3.1
2019,8,9,15:40,UTC,7,1008,74,0,-1,19.8,14.9,37970,249,5.1,3.5
2019,8,9,15:50,UTC,7,1008.1,73,0,-1,19.5,14.6,49500,268,5.5,3.6
2019,8,9,16:00,UTC,7,1008.2,75,0,-1,19.4,14.9,39430,264,4.8,3.7
2019,8,9,16:10,UTC,7,1008.3,75,0,-1,19.1,14.6,37820,259,4.9,3.5
2019,8,9,16:20,UTC,7,1008.4,77,0,-1,18.9,14.8,44180,261,4.3,2.3
2019,8,9,16:30,UTC,7,1008.5,75,0,-1,18.9,14.3,32830,281,5.1,3.1
2019,8,9,16:40,UTC,7,1008.6,74,0,-1,19,14.2,48490,283,4.5,3.6
2019,8,9,16:50,UTC,7,1008.6,70,0,-1,18.7,13.1,43440,284,5.3,3.5
2019,8,9,17:00,UTC,5,1008.7,74,0,-1,18.3,13.5,45750,289,4.5,3.2
2019,8,9,17:10,UTC,5,1008.8,75,0,-1,18.1,13.6,50000,316,3.8,2.1
2019,8,9,17:20,UTC,5,1008.9,73,0,-1,18.5,13.7,37020,2,3.8,2.3
2019,8,9,17:30,UTC,5,1009,71,0,-1,18.5,13.2,50000,340,4.5,2.9
2019,8,9,17:40,UTC,1,1009,72,0,-1,18.4,13.1,50000,351,3.5,1.5
2019,8,9,17:50,UTC,1,1009.1,73,0,-1,18.1,13.2,48250,325,2.5,1.7
2019,8,9,18:00,UTC,1,1009.2,73,0,-1,17.8,13,48120,339,1.6,0.6
2019,8,9,18:10,UTC,3,1009.3,79,0,-1,17.4,13.7,50000,0,0,0
2019,8,9,18:20,UTC,5,1009.4,79,0,-1,17.4,13.7,44700,107,2.2,1
2019,8,9,18:30,UTC,7,1009.6,79,0,-1,17.9,14.1,43920,98,2.8,2.1
2019,8,9,18:40,UTC,7,1009.7,77,0,-1,17.9,13.8,42580,95,2.2,1.4
2019,8,9,18:50,UTC,7,1009.8,81,0,-1,17.4,14.2,40670,118,1.7,1
2019,8,9,19:00,UTC,3,1009.8,80,0,-1,16.9,13.4,36180,144,1.1,0.8
2019,8,9,19:10,UTC,1,1010,84,0,-1,16.7,13.9,46390,0,0,0
2019,8,9,19:20,UTC,1,1010.1,83,0,-1,16.3,13.5,41600,0,0,0
2019,8,9,19:30,UTC,0,1010.2,86,0,-1,16.2,13.8,42580,304,1.5,0.9
2019,8,9,19:40,UTC,1,1010.2,85,0,-1,15.9,13.3,50000,296,1.2,1
2019,8,9,19:50,UTC,1,1010.3,87,0,-1,15.8,13.7,24120,318,1.6,1.3
2019,8,9,20:00,UTC,1,1010.4,87,0,-1,15.6,13.4,40050,337,1.8,1.5
2019,8,9,20:10,UTC,1,1010.5,88,0,-1,15.5,13.5,40130,326,1.8,1.5
2019,8,9,20:20,UTC,0,1010.6,89,0,-1,15.6,13.8,35960,334,2.4,2
2019,8,9,20:30,UTC,0,1010.7,90,0,-1,15.4,13.7,31730,321,2.3,1.8
2019,8,9,20:40,UTC,0,1010.7,90,0,-1,15.2,13.5,30510,311,2.1,1.7
2019,8,9,20:50,UTC,1,1010.8,90,0,-1,15.1,13.5,34170,327,2.3,1.7
2019,8,9,21:00,UTC,1,1010.9,90,0,-1,15,13.4,32780,38,2.1,1
2019,8,9,21:10,UTC,1,1011,90,0,-1,14.8,13.2,37500,53,1.7,0.8
2019,8,9,21:20,UTC,0,1011,91,0,-1,14.6,13.1,34510,0,0,0
2019,8,9,21:30,UTC,0,1011.1,91,0,-1,14.5,13,37170,0,0,0
2019,8,9,21:40,UTC,0,1011.2,91,0,-1,14.4,13,34370,327,1.6,1
2019,8,9,21:50,UTC,0,1011.2,92,0,-1,14.3,13,34910,332,1.8,1.4
2019,8,9,22:00,UTC,0,1011.2,92,0,-1,14.4,13.1,31760,326,1.5,0.9
2019,8,9,22:10,UTC,0,1011.3,92,0,-1,14.1,12.9,31250,0,0,0
2019,8,9,22:20,UTC,0,1011.4,93,0,-1,14.1,12.9,35770,0,0,0
2019,8,9,22:30,UTC,0,1011.5,93,0,-1,14,12.8,30480,83,1.2,0.8
2019,8,9,22:40,UTC,0,1011.5,93,0,-1,13.8,12.7,28750,59,1.7,0.9
2019,8,9,22:50,UTC,0,1011.5,94,0,-1,13.8,12.8,28620,48,1.6,0.8
2019,8,9,23:00,UTC,0,1011.6,93,0,-1,13.7,12.6,29670,38,1.4,0.7
2019,8,9,23:10,UTC,0,1011.7,94,0,-1,13.7,12.6,28160,42,1.5,0.9
2019,8,9,23:20,UTC,0,1011.8,94,0,-1,13.6,12.6,25590,0,0,0
2019,8,9,23:30,UTC,0,1011.8,94,0,-1,13.5,12.5,25490,0,0,0
2019,8,9,23:40,UTC,0,1011.8,95,0,-1,13.5,12.7,22880,33,1.2,0.7
2019,8,9,23:50,UTC,0,1011.9,95,0,-1,13.4,12.6,22990,24,0.8,0.5
2019,8,10,00:00,UTC,0,1012,95,0,-1,13.2,12.4,20530,9,0.8,0.5
2019,8,10,00:10,UTC,0,1012,95,0,-1,13.1,12.4,19550,345,1.4,0.9
2019,8,10,00:20,UTC,0,1012,96,0,-1,13.1,12.5,18670,329,1.5,1
2019,8,10,00:30,UTC,0,1012.1,96,0,-1,13.1,12.5,19660,338,1.3,0.9
2019,8,10,00:40,UTC,0,1012,96,0,-1,13,12.4,16100,350,1.3,0.9
2019,8,10,00:50,UTC,0,1012,96,0,-1,12.9,12.3,19650,38,1.4,0.8
2019,8,10,01:00,UTC,0,1012,96,0,-1,12.8,12.3,18820,37,1.2,0.7
2019,8,10,01:10,UTC,0,1012,96,0,-1,12.7,12.2,18270,33,1.7,0.8
2019,8,10,01:20,UTC,0,1012,96,0,-1,12.7,12.1,21340,69,1.5,0.8
2019,8,10,01:30,UTC,0,1012.1,96,0,-1,12.6,12,20310,51,1.6,1
2019,8,10,01:40,UTC,0,1012.2,97,0,-1,12.6,12.1,17300,41,1.7,0.9
2019,8,10,01:50,UTC,0,1012.2,97,0,-1,12.6,12.1,17260,50,2.1,1.1
2019,8,10,02:00,UTC,0,1012.2,97,0,-1,12.7,12.2,13830,37,1.2,0.6
2019,8,10,02:10,UTC,0,1012.1,97,0,-1,12.5,12.1,17110,38,1.2,0.5
2019,8,10,02:20,UTC,0,1012.3,97,0,-1,12.5,12,15280,73,1.6,0.8
2019,8,10,02:30,UTC,0,1012.3,97,0,-1,12.5,12.1,14710,43,1.2,0.6
2019,8,10,02:40,UTC,0,1012.3,97,0,-1,12.5,12.1,15050,17,1.4,0.9
2019,8,10,02:50,UTC,0,1012.4,97,0,-1,12.6,12.1,16600,28,1.4,0.8
2019,8,10,03:00,UTC,0,1012.5,97,0,-1,12.6,12.2,17320,12,1.1,0.6
2019,8,10,03:10,UTC,0,1012.5,97,0,-1,12.6,12.1,18280,0,0,0
2019,8,10,03:20,UTC,0,1012.6,97,0,-1,12.8,12.3,21080,0,0,0
2019,8,10,03:30,UTC,0,1012.7,97,0,-1,13.1,12.6,27270,132,2.2,1.2
2019,8,10,03:40,UTC,0,1012.8,95,0,-1,13.6,12.8,32000,123,2.3,1.3
2019,8,10,03:50,UTC,0,1012.9,95,0,-1,13.5,12.8,21330,86,1.4,0.7
2019,8,10,04:00,UTC,0,1012.9,94,0,-1,14.2,13.2,27630,89,1.2,0.8
2019,8,10,04:10,UTC,0,1013,92,0,-1,14.6,13.3,32950,71,1.4,1
2019,8,10,04:20,UTC,0,1013.1,89,0,-1,15.9,14.1,29570,0,0,0
2019,8,10,04:30,UTC,0,1013.1,83,0,-1,16.9,14,40040,0,0,0
2019,8,10,04:40,UTC,0,1013.1,79,0,-1,17.1,13.5,36430,69,1,0.6
2019,8,10,04:50,UTC,0,1013.1,81,0,-1,17.5,14.2,38290,0,0,0
2019,8,10,05:00,UTC,0,1013,76,0,-1,18.2,13.9,34640,94,1.8,1.2
2019,8,10,05:10,UTC,0,1013.1,75,0,-1,18.5,13.9,42090,112,2.3,1.7
2019,8,10,05:20,UTC,0,1013.1,74,0,-1,19,14.4,43700,115,2.3,1.7
2019,8,10,05:30,UTC,0,1013.2,74,0,-1,19.6,14.9,38430,114,2.2,1.5
2019,8,10,05:40,UTC,0,1013.4,78,0,-1,19.3,15.3,37730,153,3.3,2.2
2019,8,10,05:50,UTC,0,1013.4,74,0,-1,19.6,15,43960,148,3.1,2
2019,8,10,06:00,UTC,0,1013.5,75,0,-1,19.7,15.2,44280,150,3.4,2.2
2019,8,10,06:10,UTC,0,1013.6,74,0,-1,19.7,15,38570,160,3.4,2.1
2019,8,10,06:20,UTC,0,1013.7,76,0,-1,19.7,15.3,38780,178,4,2
2019,8,10,06:30,UTC,1,1013.7,78,0,-1,19.3,15.3,38500,193,3.9,2.4
2019,8,10,06:40,UTC,1,1013.7,76,0,-1,19.5,15.1,38700,169,3.4,2.3
2019,8,10,06:50,UTC,1,1013.8,73,0,-1,19.7,14.7,36930,172,3.2,2
2019,8,10,07:00,UTC,0,1013.8,71,0,-1,20.4,15,41950,177,3.9,2.3
2019,8,10,07:10,UTC,0,1013.9,70,0,-1,20.3,14.6,40310,184,4.2,2.6
2019,8,10,07:20,UTC,0,1013.8,72,0,-1,19.8,14.6,42140,172,3.6,2.1
2019,8,10,07:30,UTC,0,1013.7,75,0,-1,19.9,15.3,40150,158,3.9,2.3
2019,8,10,07:40,UTC,0,1013.8,70,0,-1,20.8,15.1,35860,197,3.5,2.3
2019,8,10,07:50,UTC,0,1013.9,70,0,-1,20.1,14.4,37260,171,3.7,2
2019,8,10,08:00,UTC,0,1014,68,0,-1,20.3,14.1,35300,172,3.9,2.5
2019,8,10,08:10,UTC,0,1014,64,0,-1,20.1,13.2,43790,198,4.1,2.6
2019,8,10,08:20,UTC,0,1013.9,63,0,-1,20.8,13.5,45780,184,4.5,2.6
2019,8,10,08:30,UTC,0,1013.9,61,0,-1,20.9,13,46030,168,4.4,2.6
2019,8,10,08:40,UTC,0,1013.9,62,0,-1,21.3,13.7,40880,169,4,2.6
2019,8,10,08:50,UTC,0,1013.9,58,0,-1,21.1,12.6,40950,182,4.2,2.3
2019,8,10,09:00,UTC,0,1013.9,58,0,-1,21,12.4,40320,147,4.4,2.7
2019,8,10,09:10,UTC,0,1013.9,62,0,-1,21.1,13.6,36120,130,4.7,3.2
2019,8,10,09:20,UTC,0,1013.9,60,0,-1,21,12.9,37700,135,4.5,3.4
2019,8,10,09:30,UTC,0,1013.9,61,0,-1,21.4,13.6,44880,132,4.7,3.3
2019,8,10,09:40,UTC,0,1013.8,65,0,-1,21,14.2,42800,129,5.2,3.5
2019,8,10,09:50,UTC,0,1013.8,65,0,-1,21.1,14.3,39050,137,5,3.3
2019,8,10,10:00,UTC,0,1013.8,64,0,-1,21.5,14.3,41160,140,4.3,2.7
2019,8,10,10:10,UTC,0,1013.7,61,0,-1,21.6,13.9,34360,138,4.3,2.8
2019,8,10,10:20,UTC,0,1013.7,61,0,-1,21.2,13.4,48030,135,5,3.5
2019,8,10,10:30,UTC,0,1013.7,60,0,-1,21.4,13.4,39680,138,4.8,3.1
2019,8,10,10:40,UTC,0,1013.8,56,0,-1,21.4,12.2,38680,166,4.5,2.8
2019,8,10,10:50,UTC,0,1013.9,63,0,-1,21.7,14.3,37870,177,5.2,3.2
2019,8,10,11:00,UTC,0,1013.9,65,0,-1,21.8,14.9,38570,186,4.9,3.3
2019,8,10,11:10,UTC,0,1013.9,68,0,-1,21.3,15.1,36400,177,4.8,3.1
2019,8,10,11:20,UTC,0,1013.9,71,0,-1,21.2,15.6,36100,163,5.8,3.3
2019,8,10,11:30,UTC,0,1014,66,0,-1,20.9,14.3,33750,165,5.4,3.6
2019,8,10,11:40,UTC,0,1014,65,0,-1,21.5,14.5,37700,169,4.9,3.1
2019,8,10,11:50,UTC,0,1014.1,61,0,-1,21.3,13.5,38700,175,4.8,3.2
2019,8,10,12:00,UTC,0,1014.1,62,0,-1,21.2,13.7,49990,183,5.5,3.1
2019,8,10,12:10,UTC,0,1014,69,0,-1,20.4,14.4,31770,191,4.7,3.3
2019,8,10,12:20,UTC,0,1014,65,0,-1,20.3,13.6,41150,197,4.6,3.2
2019,8,10,12:30,UTC,0,1013.9,66,0,-1,20.1,13.5,43580,199,4.1,3
2019,8,10,12:40,UTC,0,1013.9,66,0,-1,20.2,13.5,45770,204,4.1,3
2019,8,10,12:50,UTC,0,1013.7,63,0,-1,20.3,12.9,42140,198,3.5,2.1
2019,8,10,13:00,UTC,0,1013.6,59,0,-1,20.6,12.2,38850,172,3.7,2.4
2019,8,10,13:10,UTC,1,1013.5,55,0,-1,20.8,11.3,40660,188,3.7,2.2
2019,8,10,13:20,UTC,1,1013.5,54,0,-1,21.3,11.6,36540,219,3.8,2.4
2019,8,10,13:30,UTC,1,1013.4,52,0,-1,21.3,11,47970,212,4.1,2.5
2019,8,10,13:40,UTC,0,1013.4,54,0,-1,21.5,11.7,47870,193,3.6,2.6
2019,8,10,13:50,UTC,0,1013.3,51,0,-1,21.1,10.5,47610,185,3.4,2.2
2019,8,10,14:00,UTC,0,1013.3,51,0,-1,21,10.5,49250,205,3.5,1.9
2019,8,10,14:10,UTC,0,1013.3,52,0,-1,20.8,10.7,37390,209,3.3,2.1
2019,8,10,14:20,UTC,0,1013.2,54,0,-1,20.9,11.2,43250,193,2.8,1.8
2019,8,10,14:30,UTC,1,1013.2,58,0,-1,20.5,11.9,43210,191,3.6,2
2019,8,10,14:40,UTC,0,1013.2,62,0,-1,20.2,12.6,50000,160,3.4,2.3
2019,8,10,14:50,UTC,0,1013.2,61,0,-1,20,12.2,49030,148,3.7,2.4
2019,8,10,15:00,UTC,0,1013.1,60,0,-1,20.1,12.1,48370,157,3.7,2.3
2019,8,10,15:10,UTC,1,1013.1,60,0,-1,20.1,12,50000,165,3.7,2.5
2019,8,10,15:20,UTC,1,1013,60,0,-1,20.1,12,50000,165,4.7,3.1
2019,8,10,15:30,UTC,1,1013.1,72,0,-1,20.1,14.7,41630,159,4.7,3.7
2019,8,10,15:40,UTC,0,1013,73,0,-1,19.4,14.4,50000,152,5.2,3.6
2019,8,10,15:50,UTC,1,1012.9,77,0,-1,18.9,14.9,45440,158,5.4,3.7
2019,8,10,16:00,UTC,1,1012.9,77,0,-1,19.2,15.1,50000,150,4.5,3.2
2019,8,10,16:10,UTC,1,1012.9,77,0,-1,19,14.9,43690,147,5,3.4
2019,8,10,16:20,UTC,1,1012.8,77,0,-1,19,14.9,50000,153,4.4,3.2
2019,8,10,16:30,UTC,,,,,,,,,147,4.8,3.3
2019,8,10,16:40,UTC,0,1012.8,77,0,-1,18.9,14.8,49310,155,5,3.5
2019,8,10,16:50,UTC,0,1012.8,78,0,-1,19,15,40190,144,3.9,2.5
2019,8,10,17:00,UTC,1,1012.8,79,0,-1,18.9,15.2,46970,163,5.1,3.2
2019,8,10,17:10,UTC,0,1012.8,79,0,-1,18.9,15.1,45350,162,4.2,2.6
2019,8,10,17:20,UTC,0,1012.8,78,0,-1,19,14.9,44390,158,4,2.5
2019,8,10,17:30,UTC,1,1012.8,79,0,-1,19,15.2,40430,166,5,3.3
2019,8,10,17:40,UTC,0,1012.8,81,0,-1,18.9,15.6,43110,155,5,2.5
2019,8,10,17:50,UTC,1,1012.8,81,0,-1,18.9,15.5,40370,159,5.1,3.3
2019,8,10,18:00,UTC,3,1012.8,79,0,-1,18.9,15.3,35170,168,5.2,3.2
2019,8,10,18:10,UTC,3,1012.8,78,0,-1,18.9,15.1,41530,169,4.6,2.5
2019,8,10,18:20,UTC,3,1012.7,79,0,-1,18.8,15.2,34730,159,4.2,2.8
2019,8,10,18:30,UTC,1,1012.8,79,0,-1,18.6,14.9,39690,159,3.5,2.3
2019,8,10,18:40,UTC,1,1012.8,80,0,-1,18.7,15.1,38790,164,3.8,2
2019,8,10,18:50,UTC,0,1012.8,80,0,-1,18.7,15.1,42820,156,3.6,2.3
2019,8,10,19:00,UTC,1,1012.8,79,0,-1,18.7,15,39420,161,3.9,2.3
2019,8,10,19:10,UTC,5,1012.8,79,0,-1,18.8,15.1,41850,169,3.7,2.4
2019,8,10,19:20,UTC,7,1012.8,80,0,-1,18.7,15.1,38910,163,3.3,2.3
2019,8,10,19:30,UTC,7,1012.8,81,0,-1,18.8,15.4,37870,178,4.8,2.7
2019,8,10,19:40,UTC,7,1012.7,80,0,-1,18.8,15.2,35820,172,4.5,3
2019,8,10,19:50,UTC,7,1012.7,80,0,-1,18.7,15.2,43280,147,3.8,2.4
2019,8,10,20:00,UTC,7,1012.7,78,0,-1,18.7,14.8,40470,133,3.5,2.5
2019,8,10,20:10,UTC,7,1012.7,75,0,-1,18.8,14.2,40880,125,3.3,2.1
2019,8,10,20:20,UTC,7,1012.6,76,0,-1,18.7,14.3,44470,119,2.9,2.1
2019,8,10,20:30,UTC,8,1012.5,75,0,-1,18.7,14.2,38160,115,3,2.3
2019,8,10,20:40,UTC,7,1012.5,76,0,-1,18.7,14.3,44070,119,3.3,2.5
2019,8,10,20:50,UTC,7,1012.4,77,0,-1,18.5,14.5,36940,127,3.3,2.3
2019,8,10,21:00,UTC,7,1012.3,79,0,-1,18.5,14.7,32560,120,3,2.2
2019,8,10,21:10,UTC,7,1012.1,81,0,-1,18.5,15.1,34740,118,3.4,2.5
2019,8,10,21:20,UTC,7,1012.1,83,0,-1,18.5,15.4,32570,113,2.9,2
2019,8,10,21:30,UTC,7,1012.1,84,0,-1,18.5,15.8,29930,121,2.9,1.8
2019,8,10,21:40,UTC,8,1012.1,86,0,-1,18.6,16.3,29380,139,3.4,2.3
2019,8,10,21:50,UTC,7,1012,87,0,-1,18.7,16.6,31810,165,4.1,2.3
2019,8,10,22:00,UTC,7,1012,87,0,-1,18.8,16.6,29650,167,4.2,2.6
2019,8,10,22:10,UTC,7,1011.9,86,0,-1,18.8,16.5,32800,173,3.9,2
2019,8,10,22:20,UTC,7,1011.8,86,0,-1,18.9,16.4,36770,181,3.4,1.9
2019,8,10,22:30,UTC,7,1011.8,83,0,-1,19,16.1,40860,186,3.7,1.9
2019,8,10,22:40,UTC,7,1011.8,84,0,-1,18.9,16.1,37110,189,3.1,1.9
2019,8,10,22:50,UTC,7,1011.8,83,0,-1,18.9,15.9,36430,188,4.1,2.8
2019,8,10,23:00,UTC,7,1011.7,82,0,-1,19,15.9,42070,183,4.9,2.4
2019,8,10,23:10,UTC,7,1011.6,83,0,-1,18.8,15.8,36430,180,4.8,2.6
2019,8,10,23:20,UTC,8,1011.5,83,0,-1,18.8,15.8,40200,173,4.7,2.8
2019,8,10,23:30,UTC,8,1011.5,83,0,-1,18.8,15.9,36130,181,5,3
2019,8,10,23:40,UTC,8,1011.5,83,0,-1,18.8,15.9,32250,179,4.4,2.8
2019,8,10,23:50,UTC,7,1011.4,85,0,-1,18.6,16,29380,180,4,2.5
2019,8,11,00:00,UTC,7,1011.3,86,0,-1,18.6,16.1,28380,175,4.7,2.8
2019,8,11,00:10,UTC,7,1011.3,87,0,-1,18.5,16.3,23480,178,4.9,2.8
2019,8,11,00:20,UTC,7,1011.2,85,0,-1,18.3,15.8,28850,175,4.5,2.6
2019,8,11,00:30,UTC,7,1011.2,85,0,-1,18.2,15.7,32220,163,4.4,3
2019,8,11,00:40,UTC,5,1011.2,85,0,-1,18.1,15.6,38310,175,4.5,2.8
2019,8,11,00:50,UTC,3,1011.1,86,0,-1,17.9,15.5,38110,165,5.1,3.4
2019,8,11,01:00,UTC,3,1011,83,0,-1,18,15,43180,169,5,3.4
2019,8,11,01:10,UTC,3,1010.9,83,0,-1,18,15,48200,173,5.6,3.1
2019,8,11,01:20,UTC,3,1010.8,84,0,-1,17.9,15.1,40980,169,4.8,2.9
2019,8,11,01:30,UTC,3,1010.7,86,0,-1,17.7,15.3,46310,166,4.1,2.9
2019,8,11,01:40,UTC,1,1010.6,86,0,-1,17.6,15.3,37800,157,3.7,2.3
2019,8,11,01:50,UTC,3,1010.6,87,0,-1,17.6,15.4,36660,160,4,2.7
2019,8,11,02:00,UTC,5,1010.5,82,0,-1,18.1,15,43120,158,4.2,2.8
2019,8,11,02:10,UTC,7,1010.5,81,0,-1,18.1,14.9,45580,160,5.2,3.5
2019,8,11,02:20,UTC,7,1010.4,83,0,-1,18.2,15.2,45220,158,4.6,3
2019,8,11,02:30,UTC,7,1010.4,84,0,-1,18.1,15.3,37670,148,4.7,2.7
2019,8,11,02:40,UTC,5,1010.3,84,0,-1,18.1,15.2,37220,138,4.9,3.2
2019,8,11,02:50,UTC,3,1010.2,83,0,-1,17.9,15.1,37360,130,4.9,3
2019,8,11,03:00,UTC,1,1010.2,83,0,-1,17.9,14.9,42150,128,4.1,2.6
2019,8,11,03:10,UTC,1,1010.1,84,0,-1,17.9,15.2,39920,134,5.5,3.3
2019,8,11,03:20,UTC,3,1010,84,0,-1,18,15.3,46440,129,4.8,3.1
2019,8,11,03:30,UTC,5,1010,84,0,-1,18.1,15.4,40700,137,5,3.3
2019,8,11,03:40,UTC,5,1009.8,85,0,-1,18.1,15.6,41690,132,6.1,3.6
2019,8,11,03:50,UTC,7,1009.8,85,0,-1,18.2,15.7,36110,131,5.6,3.7
2019,8,11,04:00,UTC,7,1009.8,88,0,-1,18.1,16,22410,146,5.8,3.8
2019,8,11,04:10,UTC,7,1009.7,87,0,-1,18.1,16,34270,150,7.5,4.3
2019,8,11,04:20,UTC,7,1009.8,85,0,-1,18.1,15.5,39680,164,8.8,5.5
2019,8,11,04:30,UTC,5,1009.8,86,0,-1,18,15.6,43090,168,8.9,5.3
2019,8,11,04:40,UTC,5,1009.7,85,0,-1,18.1,15.5,37540,168,7.5,5
2019,8,11,04:50,UTC,3,1009.7,84,0,-1,18.1,15.4,40420,165,7.6,5.2
2019,8,11,05:00,UTC,5,1009.7,84,0,-1,18.3,15.6,38460,167,8.3,4.5
2019,8,11,05:10,UTC,5,1009.8,84,0,-1,18.4,15.5,36310,175,6.8,4.5
2019,8,11,05:20,UTC,7,1009.9,84,0,-1,18.3,15.6,42770,180,7.4,5
2019,8,11,05:30,UTC,7,1009.8,85,0,-1,18.1,15.5,36480,179,8,5
2019,8,11,05:40,UTC,7,1009.8,84,0,-1,18,15.3,38690,185,6.7,4.6
2019,8,11,05:50,UTC,7,1009.8,83,0,-1,17.9,15,36410,192,8,4.9
2019,8,11,06:00,UTC,7,1009.8,84,0,-1,18.1,15.3,42380,195,7.3,4.3
2019,8,11,06:10,UTC,7,1009.7,82,0,-1,18.1,15,37850,191,7.5,4.4
2019,8,11,06:20,UTC,7,1009.6,78,0,-1,18.2,14.2,47760,189,7.5,4.4
2019,8,11,06:30,UTC,7,1009.6,77,0,-1,18.2,14.2,50000,181,8.3,4.4
2019,8,11,06:40,UTC,7,1009.6,77,0,-1,18.1,14,42530,176,8.8,5
2019,8,11,06:50,UTC,5,1009.5,77,0,-1,18.1,14,36220,173,9.8,5.5
2019,8,11,07:00,UTC,5,1009.4,78,0,-1,17.6,13.7,26280,166,10.6,6.4
2019,8,11,07:10,UTC,5,1009.4,76,0,-1,17.6,13.3,45340,158,9,5.7
2019,8,11,07:20,UTC,5,1009.4,79,0,-1,17.4,13.6,29490,158,10.5,6.4
2019,8,11,07:30,UTC,7,1009.3,79,0.4,-1,17,13.4,21000,148,9.3,5.3
2019,8,11,07:40,UTC,7,1009.3,83,0.5,-1,16.5,13.7,13920,139,8.5,4.9
2019,8,11,07:50,UTC,7,1009.3,85,0.9,-1,16.4,13.9,10290,133,7.9,4.5
2019,8,11,08:00,UTC,7,1009.3,86,1,-1,16.5,14.1,24240,136,7.7,4.1
2019,8,11,08:10,UTC,7,1009.3,83,0,-1,16.8,13.9,35100,134,8.1,4.8
2019,8,11,08:20,UTC,7,1009.3,81,0,-1,17.2,13.8,50000,143,8.5,4.8
2019,8,11,08:30,UTC,7,1009.3,81,0,-1,17,13.8,50000,142,6.9,4.3
2019,8,11,08:40,UTC,7,1009.2,85,0,-1,16.9,14.2,15390,139,8.8,5.3
2019,8,11,08:50,UTC,7,1009.1,85,0,-1,16.9,14.3,29540,128,8.5,4.9
2019,8,11,09:00,UTC,8,1008.9,85,0,-1,17,14.5,38650,122,8.1,5.3
2019,8,11,09:10,UTC,7,1008.9,85,0,-1,17.1,14.5,48060,120,8.6,5.5
2019,8,11,09:20,UTC,7,1009,87,0.8,-1,16.9,14.6,8860,128,8.7,5.2
2019,8,11,09:30,UTC,8,1008.9,89,1.1,-1,16.8,14.9,13220,143,9.5,5.5
2019,8,11,09:40,UTC,7,1009,90,0.7,-1,16.8,15.2,14590,139,10.6,6
2019,8,11,09:50,UTC,8,1008.9,90,1.1,-1,16.7,15.1,17920,146,8.8,5.7
2019,8,11,10:00,UTC,8,1008.9,90,0,-1,16.7,15,33800,139,9.3,5.2
2019,8,11,10:10,UTC,7,1009,90,0.7,-1,16.7,15.1,16730,146,10.7,5.8
2019,8,11,10:20,UTC,7,1008.6,89,0.2,-1,16.6,14.9,40810,154,11.7,6.7
2019,8,11,10:30,UTC,8,1008.8,90,0.8,-1,16.5,14.9,11950,144,9.5,6.2
2019,8,11,10:40,UTC,7,1008.9,92,1.5,-1,16.3,15,6360,160,10.3,6.3
2019,8,11,10:50,UTC,7,1009,93,1.9,-1,16.3,15.2,14520,158,10.3,6.2
2019,8,11,11:00,UTC,8,1008.9,94,0,-1,16.3,15.3,20340,161,12.3,7.6
2019,8,11,11:10,UTC,7,1008.7,94,0.8,-1,16.4,15.4,12170,159,9.8,6.5
2019,8,11,11:20,UTC,7,1008.8,94,0.4,-1,16.4,15.5,15470,158,10.9,6.1
2019,8,11,11:30,UTC,7,1008.7,94,0.3,-1,16.5,15.6,16530,154,9.9,6
2019,8,11,11:40,UTC,7,1008.7,95,0.3,-1,16.5,15.7,12000,158,10.3,6.8
2019,8,11,11:50,UTC,7,1008.5,96,3.4,-1,16.5,15.8,1450,152,8.6,5.3
2019,8,11,12:00,UTC,7,1008.4,96,10.7,-1,16.5,15.9,2280,144,8.6,4.9
2019,8,11,12:10,UTC,7,1008.5,97,0.1,-1,16.9,16.4,14880,138,7.6,4.5
2019,8,11,12:20,UTC,7,1008.5,96,0,-1,17.5,16.8,16120,167,8.8,4.8
2019,8,11,12:30,UTC,7,1008.4,95,0,-1,18,17.2,16350,187,8.8,5.1
2019,8,11,12:40,UTC,7,1008.6,92,0,-1,18.4,17.1,16080,194,7.6,4.7
2019,8,11,12:50,UTC,7,1008.6,90,0,-1,18.6,17,18260,191,7.8,5.6
2019,8,11,13:00,UTC,5,1008.6,90,0,-1,19.1,17.4,19910,192,8.3,4.8
2019,8,11,13:10,UTC,5,1008.7,86,0,-1,19.1,16.7,18090,200,8.4,5
2019,8,11,13:20,UTC,5,1008.7,87,0,-1,19.1,16.9,17360,205,8.2,5.1
2019,8,11,13:30,UTC,5,1008.7,86,0,-1,19.4,17.1,17630,206,7,4.4
2019,8,11,13:40,UTC,5,1008.7,86,0,-1,19.1,16.7,15600,211,8.1,5.1
2019,8,11,13:50,UTC,5,1008.7,86,0,-1,19.3,16.9,15390,208,8.8,4.7
2019,8,11,14:00,UTC,5,1008.8,86,0,-1,19.3,16.9,15360,213,7.3,4
2019,8,11,14:10,UTC,3,1008.7,85,0,-1,19.3,16.8,16010,210,8.2,4.7
2019,8,11,14:20,UTC,1,1008.7,85,0,-1,19.2,16.5,16800,196,7,3.8
2019,8,11,14:30,UTC,3,1008.6,85,0,-1,19.1,16.5,15540,199,6.8,4.4
2019,8,11,14:40,UTC,5,1008.6,84,0,-1,19.1,16.4,15140,201,7.3,3.8
2019,8,11,14:50,UTC,7,1008.6,83,0,-1,19.6,16.6,18430,207,7.3,4.2
2019,8,11,15:00,UTC,7,1008.6,85,0,-1,19.2,16.5,17990,198,6.5,3.9
2019,8,11,15:10,UTC,7,1008.7,84,0,-1,19.5,16.7,17280,199,6.1,4.1
2019,8,11,15:20,UTC,3,1008.7,85,0,-1,19.1,16.6,16670,193,7.4,4.3
2019,8,11,15:30,UTC,3,1008.7,85,0,-1,18.9,16.4,16760,199,6.3,3.5
2019,8,11,15:40,UTC,5,1008.6,85,0,-1,18.9,16.5,17590,203,5.9,4
2019,8,11,15:50,UTC,7,1008.6,86,0,-1,19,16.6,17740,205,7.5,4.7
2019,8,11,16:00,UTC,7,1008.6,84,0,-1,19.1,16.4,18430,198,6.4,3.8
2019,8,11,16:10,UTC,7,1008.7,85,0,-1,19,16.5,17970,200,5.7,2.9
2019,8,11,16:20,UTC,7,1008.8,85,0,-1,19,16.4,19210,195,4.9,3.1
2019,8,11,16:30,UTC,7,1008.8,86,0,-1,18.9,16.5,19270,193,5.5,3.2
2019,8,11,16:40,UTC,7,1008.8,86,0,-1,18.8,16.4,17490,186,5.6,3.5
2019,8,11,16:50,UTC,7,1008.9,87,0,-1,18.7,16.5,17500,185,7,3.5
2019,8,11,17:00,UTC,7,1009,87,0,-1,18.7,16.5,18060,191,7.9,3.7
2019,8,11,17:10,UTC,7,1008.9,87,0,-1,18.7,16.5,17770,195,7.2,3.8
2019,8,11,17:20,UTC,7,1009,87,0,-1,18.8,16.5,18170,207,6.7,3.7
2019,8,11,17:30,UTC,7,1009,87,0,-1,18.6,16.4,20160,214,7.9,4.4
2019,8,11,17:40,UTC,7,1009.1,87,0,-1,18.6,16.4,22140,213,7.9,4.6
2019,8,11,17:50,UTC,7,1009.2,88,0,-1,18.6,16.5,20210,217,8.6,4.1
2019,8,11,18:00,UTC,7,1009.2,88,0,-1,18.6,16.5,20460,218,8,4.8
2019,8,11,18:10,UTC,7,1009.2,88,0,-1,18.6,16.6,18520,214,7.1,4.4
2019,8,11,18:20,UTC,7,1009.2,88,0,-1,18.5,16.5,19510,212,6.8,4.4
2019,8,11,18:30,UTC,8,1009.2,89,0,-1,18.5,16.6,17880,209,6.5,4.2
2019,8,11,18:40,UTC,8,1009.3,89,0,-1,18.5,16.6,17400,214,7.4,3.7
2019,8,11,18:50,UTC,8,1009.3,89,0,-1,18.4,16.6,17310,211,7.4,4.7
2019,8,11,19:00,UTC,7,1009.3,89,0,-1,18.3,16.4,18020,210,8.4,4.5
2019,8,11,19:10,UTC,7,1009.4,89,0,-1,18.3,16.4,16840,209,6.7,4.4
2019,8,11,19:20,UTC,7,1009.5,88,0,-1,18.3,16.3,18370,208,6.3,4
2019,8,11,19:30,UTC,7,1009.5,88,0,-1,18.3,16.3,17850,212,6,3.8
2019,8,11,19:40,UTC,7,1009.5,88,0,-1,18.3,16.3,16340,211,5.7,3.9
2019,8,11,19:50,UTC,7,1009.5,89,0,-1,18.2,16.4,17630,208,6.3,3.8
2019,8,11,20:00,UTC,7,1009.6,89,0,-1,18.2,16.3,16080,208,6.6,3.5
2019,8,11,20:10,UTC,7,1009.5,88,0,-1,18.2,16.2,17680,208,5.4,3.2
2019,8,11,20:20,UTC,7,1009.6,88,0,-1,18.2,16.2,18860,210,6,4
2019,8,11,20:30,UTC,7,1009.6,88,0,-1,18.2,16.2,18840,211,6.4,3.6
2019,8,11,20:40,UTC,8,1009.7,89,0,-1,18,16.2,17420,211,5.8,3.5
2019,8,11,20:50,UTC,7,1009.7,89,0,-1,18.2,16.3,18220,212,6.3,4.2
2019,8,11,21:00,UTC,3,1009.7,90,0,-1,18,16.3,18390,207,8.1,4.4
2019,8,11,21:10,UTC,1,1009.7,92,0,-1,18,16.7,18440,195,7.2,4
2019,8,11,21:20,UTC,1,1009.7,92,0,-1,18,16.7,17820,193,6.1,3.6
2019,8,11,21:30,UTC,1,1009.7,93,0,-1,17.8,16.7,15730,197,6.6,3.6
2019,8,11,21:40,UTC,1,1009.7,92,0,-1,17.8,16.6,16730,199,7,3.6
2019,8,11,21:50,UTC,1,1009.8,92,0,-1,17.9,16.7,15920,207,7.1,4.7
2019,8,11,22:00,UTC,1,1009.8,92,0,-1,17.8,16.6,14960,209,7.2,4.3
2019,8,11,22:10,UTC,3,1009.9,92,0,-1,18,16.6,15620,214,6.2,4.1
2019,8,11,22:20,UTC,5,1009.9,91,0,-1,18.1,16.6,15290,214,7.8,4.2
2019,8,11,22:30,UTC,7,1009.9,91,0,-1,18.2,16.6,16250,212,7.4,4.4
2019,8,11,22:40,UTC,7,1010,91,0,-1,18.2,16.7,14800,211,7.2,4.3
2019,8,11,22:50,UTC,8,1010.1,91,0,-1,18.2,16.7,15780,210,8.5,5
2019,8,11,23:00,UTC,7,1010,91,0,-1,18.1,16.6,15500,210,9,5.4
2019,8,11,23:10,UTC,7,1010,91,0,-1,18,16.5,16440,211,7.5,5
2019,8,11,23:20,UTC,7,1010.1,91,0,-1,18,16.5,16170,214,8.1,5
2019,8,11,23:30,UTC,7,1010.1,91,0,-1,18,16.5,15540,211,7.4,4.1
2019,8,11,23:40,UTC,7,1010.2,92,0,-1,18,16.7,15050,204,8.1,5
2019,8,11,23:50,UTC,7,1010.2,91,0,-1,18.1,16.7,16270,219,7.1,3.8
2019,8,12,00:00,UTC,7,1010.2,91,0,-1,18.1,16.6,15550,216,8,5.3
2019,8,12,00:10,UTC,7,1010.1,91,0,-1,18.1,16.6,14980,220,8.1,4.7
2019,8,12,00:20,UTC,7,1010.1,91,0,-1,18.1,16.6,14410,221,8.3,4.8
2019,8,12,00:30,UTC,7,1010,90,0,-1,18.1,16.5,14590,221,7.5,4.3
2019,8,12,00:40,UTC,7,1010,91,0,-1,18.1,16.6,14150,221,8,4.8
2019,8,12,00:50,UTC,7,1010,90,0,-1,18.1,16.5,14280,224,7.2,4.5
2019,8,12,01:00,UTC,7,1010.1,91,0,-1,18,16.5,14370,226,7.6,4
2019,8,12,01:10,UTC,7,1010.1,91,0,-1,18,16.6,13550,222,7.9,4.6
2019,8,12,01:20,UTC,7,1010.1,91,0,-1,17.9,16.4,13310,219,8.4,5.6
2019,8,12,01:30,UTC,7,1010.1,90,0,-1,18,16.3,14570,220,7.8,4.8
2019,8,12,01:40,UTC,5,1010,91,0,-1,18,16.4,14570,218,8,5.1
2019,8,12,01:50,UTC,5,1010.1,91,0,-1,17.8,16.3,13660,220,7.6,5
2019,8,12,02:00,UTC,5,1010.1,90,0,-1,17.9,16.2,14350,220,7.9,4.9
2019,8,12,02:10,UTC,5,1010.1,90,0,-1,18,16.3,15200,217,8.4,5.6
2019,8,12,02:20,UTC,7,1010.1,91,0,-1,17.9,16.4,14070,222,7.6,4.7
2019,8,12,02:30,UTC,7,1010,91,0,-1,17.9,16.4,13840,221,6.7,3.9
2019,8,12,02:40,UTC,7,1010,91,0,-1,17.9,16.5,13780,219,7,4.4
2019,8,12,02:50,UTC,7,1009.9,91,0,-1,17.9,16.5,13970,219,6.4,4.1
2019,8,12,03:00,UTC,7,1010,91,0,-1,18,16.6,14370,221,5.4,3.4
2019,8,12,03:10,UTC,7,1010,91,0,-1,18,16.5,15200,226,5.8,2.9
2019,8,12,03:20,UTC,5,1010.1,90,0,-1,18,16.3,17250,231,6.1,3.1
2019,8,12,03:30,UTC,3,1010.2,89,0,-1,18.1,16.3,17160,230,5.4,3
2019,8,12,03:40,UTC,5,1010.3,89,0,-1,18.2,16.4,19670,228,6.1,3.1
2019,8,12,03:50,UTC,5,1010.4,89,0,-1,18.3,16.4,20130,238,7.1,3.7
2019,8,12,04:00,UTC,7,1010.4,89,0,-1,18.3,16.5,21210,249,7.1,4.2
2019,8,12,04:10,UTC,7,1010.4,89,0,-1,18.3,16.6,12670,244,5.4,3.8
2019,8,12,04:20,UTC,7,1010.4,88,0.4,-1,18.1,16.2,19610,236,5.5,3.2
2019,8,12,04:30,UTC,5,1010.5,87,0,-1,18.2,15.9,30430,247,6,2.8
2019,8,12,04:40,UTC,5,1010.5,86,0,-1,18.3,15.8,31990,237,5.2,3
2019,8,12,04:50,UTC,5,1010.5,86,0,-1,18.3,15.9,29280,230,4.4,2.5
2019,8,12,05:00,UTC,7,1010.5,86,0,-1,18.5,16.1,33890,235,4.8,2.5
2019,8,12,05:10,UTC,7,1010.5,87,0,-1,18.7,16.4,29910,233,5.5,2.6
2019,8,12,05:20,UTC,7,1010.6,87,0,-1,18.5,16.2,23050,246,5.6,3.5
2019,8,12,05:30,UTC,7,1010.7,85,0,-1,18.7,16.1,28970,235,5.1,3.2
2019,8,12,05:40,UTC,7,1010.8,82,0,-1,18.9,15.8,31860,232,4.9,2.8
2019,8,12,05:50,UTC,7,1010.9,81,0,-1,18.9,15.6,32170,236,5.7,3.2
2019,8,12,06:00,UTC,7,1010.9,81,0,-1,18.9,15.6,32480,228,4.8,3
2019,8,12,06:10,UTC,7,1010.8,80,0,-1,19.1,15.5,28190,233,4.6,2.7
2019,8,12,06:20,UTC,5,1010.8,87,0,-1,18.8,16.6,22050,225,6.1,3
2019,8,12,06:30,UTC,7,1010.9,86,0,-1,18.9,16.5,20570,219,6.2,3.8
2019,8,12,06:40,UTC,7,1011,85,0,-1,19,16.4,20260,217,7.9,5.3
2019,8,12,06:50,UTC,7,1011.1,86,0,-1,18.9,16.4,19850,218,8.7,5.8
2019,8,12,07:00,UTC,7,1011,85,0,-1,18.9,16.4,17970,217,9.6,6
2019,8,12,07:10,UTC,7,1011.1,85,0,-1,18.9,16.4,19430,219,10.1,7.4
2019,8,12,07:20,UTC,3,1011.2,81,0,-1,19.5,16.2,21210,218,11,6.3
2019,8,12,07:30,UTC,5,1011.4,83,0,-1,19,16,22000,217,10.4,7.1
2019,8,12,07:40,UTC,3,1011.4,85,0,-1,18.8,16.2,19820,219,8.5,6
2019,8,12,07:50,UTC,3,1011.3,84,0,-1,19.4,16.7,17490,216,10.4,6.6
2019,8,12,08:00,UTC,3,1011.4,85,0,-1,19.4,16.8,20180,217,9,6.3
2019,8,12,08:10,UTC,3,1011.4,83,0,-1,19.5,16.5,17890,217,8.3,4.9
2019,8,12,08:20,UTC,5,1011.4,83,0,-1,19.5,16.5,17570,220,10.3,7.2
2019,8,12,08:30,UTC,5,1011.4,83,0,-1,19.2,16.3,19520,221,9.4,5.8
2019,8,12,08:40,UTC,5,1011.5,83,0,-1,19.2,16.2,18950,220,8,5
2019,8,12,08:50,UTC,5,1011.4,82,0,-1,19.8,16.7,21320,224,9.8,6.2
2019,8,12,09:00,UTC,3,1011.5,80,0,-1,19.8,16.2,18480,209,8.2,5.5
2019,8,12,09:10,UTC,5,1011.5,79,0,-1,20,16.2,20940,217,8.5,5
2019,8,12,09:20,UTC,5,1011.5,82,0,-1,19.5,16.3,19020,209,8.7,5.2
2019,8,12,09:30,UTC,7,1011.5,82,0,-1,19.1,16,22760,220,10.2,5.5
2019,8,12,09:40,UTC,7,1011.5,85,0,-1,18.9,16.4,11490,217,7.9,4
2019,8,12,09:50,UTC,7,1011.4,86,0.5,-1,18.9,16.4,15540,200,7.1,4.3
2019,8,12,10:00,UTC,7,1011.2,84,0,-1,19.2,16.4,20290,193,7.1,3.9
2019,8,12,10:10,UTC,5,1011.2,84,0,-1,19.2,16.3,21650,189,7.9,4.6
2019,8,12,10:20,UTC,7,1011.1,82,0,-1,19.5,16.4,18470,194,7.6,5.1
2019,8,12,10:30,UTC,5,1011.2,79,0,-1,20.3,16.4,21580,204,8,5
2019,8,12,10:40,UTC,3,1011.2,75,0,-1,21,16.4,21050,211,9.2,5.8
2019,8,12,10:50,UTC,1,1011.2,74,0,-1,20.6,15.9,21510,221,11,6.6
2019,8,12,11:00,UTC,1,1011.2,77,0,-1,20.4,16.3,21920,223,10,6.3
2019,8,12,11:10,UTC,1,1011,78,0,-1,19.9,16,21600,222,9.1,5.9
2019,8,12,11:20,UTC,1,1011,79,0,-1,19.8,16.1,22370,223,10.4,6.5
2019,8,12,11:30,UTC,3,1011.2,78,0,-1,20.1,16.1,21670,220,10.6,7.3
2019,8,12,11:40,UTC,3,1011,80,0,-1,19.9,16.3,18770,216,11.1,7.3
2019,8,12,11:50,UTC,3,1011,81,0,-1,19.9,16.4,21450,216,10,6
2019,8,12,12:00,UTC,3,1011.1,81,0,-1,19.9,16.6,22060,216,10.2,6.8
2019,8,12,12:10,UTC,1,1011.2,81,0,-1,19.9,16.5,20240,217,9.3,6.4
2019,8,12,12:20,UTC,3,1011.2,81,0,-1,19.8,16.5,19850,221,9.8,5.6
2019,8,12,12:30,UTC,5,1011.1,82,0,-1,19.8,16.6,20420,219,10.1,6.4
2019,8,12,12:40,UTC,7,1011,80,0,-1,19.9,16.3,19570,216,9.6,6.7
2019,8,12,12:50,UTC,7,1010.8,79,0,-1,19.8,16,20700,224,8.6,5.3
2019,8,12,13:00,UTC,7,1010.8,78,0,-1,19.8,15.9,22540,227,8.5,4.8
2019,8,12,13:10,UTC,7,1010.8,75,0,-1,19.7,15.2,22090,228,8.9,4.9
2019,8,12,13:20,UTC,7,1010.8,77,0,-1,19.7,15.4,21550,222,7.3,4.7
2019,8,12,13:30,UTC,7,1010.8,77,0,-1,19.8,15.6,20130,216,10.1,5.4
2019,8,12,13:40,UTC,5,1010.8,78,0,-1,19.5,15.6,20390,223,9,5.7
2019,8,12,13:50,UTC,5,1010.7,80,0,-1,19.7,16.1,19620,228,9.6,5.7
2019,8,12,14:00,UTC,1,1010.6,78,0,-1,19.7,15.8,23540,234,9.4,5
2019,8,12,14:10,UTC,1,1010.7,78,0,-1,19.8,15.9,22150,228,9.4,5
2019,8,12,14:20,UTC,1,1010.6,78,0,-1,19.5,15.6,25280,224,11.6,5.2
2019,8,12,14:30,UTC,1,1010.6,74,0,-1,19.5,14.7,22940,218,11.5,7.6
2019,8,12,14:40,UTC,3,1010.7,71,0,-1,19.4,14.1,29300,219,10.4,6.4
2019,8,12,14:50,UTC,5,1010.7,74,0,-1,19.3,14.6,29570,221,11.3,6.7
2019,8,12,15:00,UTC,5,1010.7,75,0,-1,19.1,14.6,25860,221,11,6.3
2019,8,12,15:10,UTC,5,1010.7,78,0,-1,18.8,14.8,30480,219,12,7.3
2019,8,12,15:20,UTC,5,1010.5,80,0,-1,18.5,15,27920,214,11.6,7
2019,8,12,15:30,UTC,5,1010.6,80,0,-1,18.4,14.8,32600,212,11.9,8.2
2019,8,12,15:40,UTC,5,1010.5,81,0,-1,18.3,15,29410,215,13.3,7.6
2019,8,12,15:50,UTC,5,1010.4,82,0,-1,18.2,15,31270,217,11.3,7.4
2019,8,12,16:00,UTC,7,1010.2,82,0,-1,18.2,15.1,29810,219,10.4,5.4
2019,8,12,16:10,UTC,7,1010.2,80,0,-1,18.2,14.8,31270,222,7.2,4.5
2019,8,12,16:20,UTC,7,1010.2,81,0,-1,18,14.6,28640,217,11.2,6.9
2019,8,12,16:30,UTC,5,1010.1,80,0,-1,18,14.4,31710,217,10.7,6.4
2019,8,12,16:40,UTC,7,1010.2,79,0,-1,17.9,14.2,35430,222,9,5.4
2019,8,12,16:50,UTC,7,1010.2,78,0,-1,17.8,14,33080,225,9,5.2
2019,8,12,17:00,UTC,7,1010.2,78,0,-1,17.8,13.9,31340,220,9.8,5.2
2019,8,12,17:10,UTC,7,1010.2,81,0,-1,17.7,14.4,32650,225,9.4,5.8
2019,8,12,17:20,UTC,7,1010.1,83,0,-1,17.5,14.5,36780,226,8,5
2019,8,12,17:30,UTC,7,1010.1,83,0,-1,17.5,14.5,39230,222,8,4.7
2019,8,12,17:40,UTC,7,1009.9,84,0,-1,17.4,14.6,38910,218,7.9,4.8
2019,8,12,17:50,UTC,7,1010,83,0,-1,17.3,14.5,31620,221,7.6,5.1
2019,8,12,18:00,UTC,7,1010,83,0,-1,17.3,14.4,37330,222,8.3,4.6
2019,8,12,18:10,UTC,5,1010.1,84,0,-1,17.2,14.5,35490,227,7.7,5
2019,8,12,18:20,UTC,3,1010,85,0,-1,17.2,14.6,32810,228,7.8,4
2019,8,12,18:30,UTC,5,1010,85,0,-1,17.2,14.7,31490,225,6.8,4.1
2019,8,12,18:40,UTC,5,1010,85,0,-1,17.2,14.6,39180,220,8.1,4.4
2019,8,12,18:50,UTC,7,1009.9,84,0,-1,17.2,14.4,40140,220,7.2,3.9
2019,8,12,19:00,UTC,7,1009.9,84,0,-1,17.1,14.4,40250,217,7.7,4.9
2019,8,12,19:10,UTC,5,1009.8,85,0,-1,17,14.5,37700,224,7.3,4.5
2019,8,12,19:20,UTC,3,1009.7,85,0,-1,16.9,14.4,35500,215,7,4.3
2019,8,12,19:30,UTC,1,1009.8,85,0,-1,16.8,14.3,36810,227,6.7,4
2019,8,12,19:40,UTC,3,1009.9,85,0,-1,16.9,14.4,34330,224,6.2,3.6
2019,8,12,19:50,UTC,3,1009.9,85,0,-1,16.9,14.3,34190,224,7.2,3.9
2019,8,12,20:00,UTC,5,1009.9,85,0,-1,16.9,14.3,30900,226,7.4,3.5
2019,8,12,20:10,UTC,5,1009.9,85,0,-1,16.9,14.4,30150,223,5.9,3.4
2019,8,12,20:20,UTC,5,1009.9,86,0,-1,16.9,14.6,32150,225,5.8,3.5
2019,8,12,20:30,UTC,5,1009.8,86,0,-1,16.9,14.5,30610,219,5.9,3.5
2019,8,12,20:40,UTC,7,1009.8,86,0,-1,16.8,14.5,31160,220,5.9,3.6
2019,8,12,20:50,UTC,7,1009.7,87,0,-1,16.8,14.6,30340,222,6,3.6
2019,8,12,21:00,UTC,5,1009.6,88,0,-1,16.7,14.6,30420,232,5.5,3.4
2019,8,12,21:10,UTC,3,1009.6,87,0,-1,16.8,14.5,30090,236,4.8,2.9
2019,8,12,21:20,UTC,3,1009.6,87,0,-1,16.7,14.5,34390,243,5.2,3.2
2019,8,12,21:30,UTC,3,1009.6,86,0,-1,16.8,14.5,29270,242,5.2,2.9
2019,8,12,21:40,UTC,1,1009.7,86,0,-1,16.8,14.5,33700,249,5.8,3.6
2019,8,12,21:50,UTC,1,1009.7,86,0,-1,16.8,14.6,31780,242,6.8,3.9
2019,8,12,22:00,UTC,1,1009.7,87,0,-1,16.8,14.6,32000,245,6.8,3.9
2019,8,12,22:10,UTC,1,1009.7,86,0,-1,16.8,14.5,34440,249,5.7,3
2019,8,12,22:20,UTC,0,1009.7,86,0,-1,16.8,14.4,30970,243,4.9,3.1
2019,8,12,22:30,UTC,0,1009.7,86,0,-1,16.8,14.4,28220,238,4.5,2.4
2019,8,12,22:40,UTC,0,1009.5,87,0,-1,16.6,14.5,28690,224,4.5,2.8
2019,8,12,22:50,UTC,3,1009.6,90,0,-1,16.8,15,25690,216,4.7,2.7
2019,8,12,23:00,UTC,5,1009.6,89,0,-1,16.9,15.1,27680,221,5.5,3.1
2019,8,12,23:10,UTC,7,1009.5,89,0,-1,16.9,15.1,24690,225,5.9,3.3
2019,8,12,23:20,UTC,8,1009.6,89,0,-1,16.9,15.2,25980,222,4.6,2.4
2019,8,12,23:30,UTC,7,1009.6,89,0,-1,17,15.1,25620,213,5.9,3.2
2019,8,12,23:40,UTC,7,1009.6,90,0,-1,16.9,15.2,22460,212,7,4.3
2019,8,12,23:50,UTC,7,1009.5,90,0,-1,16.9,15.2,23750,212,5.9,3.8
2019,8,13,00:00,UTC,7,1009.4,90,0,-1,16.8,15.2,22790,210,5.8,3.3
2019,8,13,00:10,UTC,7,1009.3,89,0,-1,16.8,15,24580,209,5.4,3.1
2019,8,13,00:20,UTC,7,1009.2,89,0,-1,16.8,15,25540,211,6.4,3.5
2019,8,13,00:30,UTC,7,1009.1,89,0,-1,16.8,15,24130,209,5.5,3.5
2019,8,13,00:40,UTC,7,1009,89,0,-1,16.8,14.9,21330,213,4.8,2.9
2019,8,13,00:50,UTC,7,1008.9,89,0,-1,16.8,15,24170,210,4.7,2.9
2019,8,13,01:00,UTC,7,1008.9,88,0,-1,16.9,14.9,26960,212,5.2,3.4
2019,8,13,01:10,UTC,5,1008.9,89,0,-1,16.7,14.9,25070,215,6.7,3.5
2019,8,13,01:20,UTC,5,1008.9,91,0,-1,16.7,15.1,21790,204,6.7,4
2019,8,13,01:30,UTC,5,1008.9,90,0,-1,16.6,15,23200,208,5.7,3.8
2019,8,13,01:40,UTC,7,1008.7,90,0,-1,16.6,15,25810,206,6.3,3.3
2019,8,13,01:50,UTC,5,1008.7,89,0,-1,16.5,14.8,24170,209,6.1,3.9
2019,8,13,02:00,UTC,5,1008.5,90,0,-1,16.5,14.8,21670,208,5.9,3.9
2019,8,13,02:10,UTC,5,1008.4,90,0,-1,16.4,14.8,24230,208,6.5,4.2
2019,8,13,02:20,UTC,5,1008.3,91,0,-1,16.6,15.1,24100,207,7.2,4.3
2019,8,13,02:30,UTC,7,1008.3,90,0,-1,16.6,15,21420,209,4.9,3
2019,8,13,02:40,UTC,7,1008.4,90,0,-1,16.7,15.1,20860,206,6,3.6
2019,8,13,02:50,UTC,7,1008.3,91,0,-1,16.6,15,22710,208,5.9,3.9
2019,8,13,03:00,UTC,8,1008.3,90,0,-1,16.6,15,23530,206,6.1,4.3
2019,8,13,03:10,UTC,8,1008.5,90,0,-1,16.6,14.9,22290,206,6,4.3
2019,8,13,03:20,UTC,8,1008.5,89,0,-1,16.5,14.7,25640,200,6.1,3.2
2019,8,13,03:30,UTC,7,1008.4,89,0,-1,16.6,14.8,22620,206,6.8,4.3
2019,8,13,03:40,UTC,7,1008.4,89,0,-1,16.6,14.7,22880,206,6.8,4.2
2019,8,13,03:50,UTC,7,1008.5,88,0,-1,16.6,14.6,24400,200,6.3,4
2019,8,13,04:00,UTC,7,1008.4,88,0,-1,16.6,14.6,24810,207,5.9,3.2
2019,8,13,04:10,UTC,8,1008.3,87,0,-1,16.8,14.7,26180,214,5.3,2.7
2019,8,13,04:20,UTC,8,1008.2,88,0,-1,16.9,14.8,22630,198,6.2,3.6
2019,8,13,04:30,UTC,7,1008.2,86,0,-1,17,14.6,26400,202,8,5
2019,8,13,04:40,UTC,7,1008.2,88,0,-1,16.9,14.9,23430,205,7.2,3.8
2019,8,13,04:50,UTC,8,1008.3,87,0,-1,16.9,14.9,20550,207,6.8,3.8
2019,8,13,05:00,UTC,8,1008.4,88,0,-1,16.9,14.9,20140,221,6.6,4.3
2019,8,13,05:10,UTC,8,1008.3,86,0,-1,16.8,14.5,22700,211,7.6,4.6
2019,8,13,05:20,UTC,8,1008.2,86,0,-1,16.7,14.5,24430,206,7.4,4.9
2019,8,13,05:30,UTC,7,1008.4,87,0,-1,16.7,14.6,22910,214,7.3,4.7
2019,8,13,05:40,UTC,7,1008.4,86,0,-1,16.8,14.4,26560,209,7.7,4.7
2019,8,13,05:50,UTC,8,1008.3,88,0,-1,16.8,14.7,24880,217,7.2,4.8
2019,8,13,06:00,UTC,8,1008.3,88,0,-1,16.7,14.7,22620,225,6.3,4.4
2019,8,13,06:10,UTC,8,1008.2,88,0,-1,16.9,14.8,21790,226,6.5,3.8
2019,8,13,06:20,UTC,8,1008.2,88,0,-1,17.1,15.1,25750,215,6.4,4.4
2019,8,13,06:30,UTC,7,1008.3,88,0,-1,17.1,15.1,19540,217,5.8,3.6
2019,8,13,06:40,UTC,7,1008.4,88,0,-1,17.1,15.1,19450,209,5.8,4.2
2019,8,13,06:50,UTC,7,1008.3,87,0,-1,17.3,15.1,19930,209,5.5,3.5
2019,8,13,07:00,UTC,7,1008.3,86,0,-1,17.4,15.1,23410,214,6.5,3.8
2019,8,13,07:10,UTC,8,1008.3,86,0,-1,17.5,15.1,27100,223,6.7,4
2019,8,13,07:20,UTC,7,1008.3,87,0,-1,17.8,15.6,21660,217,5.7,4
2019,8,13,07:30,UTC,7,1008.3,85,0,-1,17.9,15.4,21880,222,6.3,4.2
2019,8,13,07:40,UTC,7,1008.3,85,0,-1,18.1,15.6,24750,214,7.2,3.7
2019,8,13,07:50,UTC,7,1008.2,83,0,-1,18.1,15.3,21290,214,6.6,3.6
2019,8,13,08:00,UTC,7,1008.1,80,0,-1,18.3,14.8,20080,223,7.8,4.9
2019,8,13,08:10,UTC,7,1008.1,80,0,-1,18.4,15,26440,216,7.6,5.7
2019,8,13,08:20,UTC,7,1007.9,83,0,-1,18,15.1,28570,218,6.9,4.7
2019,8,13,08:30,UTC,5,1007.8,78,0,-1,18.9,14.9,24420,217,7.1,4.2
2019,8,13,08:40,UTC,3,1007.9,77,0,-1,19.1,15,29930,215,8.5,5.6
2019,8,13,08:50,UTC,5,1007.8,78,0,-1,19.3,15.3,24680,225,7.9,5.4
2019,8,13,09:00,UTC,5,1007.7,80,0,-1,19.5,16.1,24250,218,7.4,3.8
2019,8,13,09:10,UTC,7,1007.7,79,0,-1,19.6,15.9,24470,215,7.4,4
2019,8,13,09:20,UTC,7,1007.6,80,0,-1,19.1,15.6,19660,217,7.1,5.1
2019,8,13,09:30,UTC,7,1007.6,82,0,-1,18.5,15.4,26010,211,6.9,3.7
2019,8,13,09:40,UTC,7,1007.5,81,0,-1,18.6,15.3,22180,213,7.9,5.2
2019,8,13,09:50,UTC,7,1007.5,81,0,-1,18.7,15.3,24530,204,8.4,5.5
2019,8,13,10:00,UTC,7,1007.4,81,0,-1,18.8,15.6,26250,205,7.4,4.7
2019,8,13,10:10,UTC,7,1007.4,82,0,-1,18.7,15.6,23070,205,7.1,4.6
2019,8,13,10:20,UTC,7,1007.3,79,0,-1,19.2,15.6,21020,199,7.7,4.6
2019,8,13,10:30,UTC,5,1007.3,80,0,-1,19.2,15.7,23460,198,7.2,4.4
2019,8,13,10:40,UTC,5,1007.4,80,0,-1,18.9,15.4,24280,201,8.2,5
2019,8,13,10:50,UTC,5,1007.4,79,0,-1,18.8,15.2,26590,207,8.7,5.5
2019,8,13,11:00,UTC,7,1007.3,76,0,-1,19.4,15.1,23130,200,8.5,5.7
2019,8,13,11:10,UTC,7,1007.3,78,0,-1,19,15,27540,200,8.3,5.5
2019,8,13,11:20,UTC,5,1007.4,74,0,-1,19.7,15,27310,216,8.4,4.7
2019,8,13,11:30,UTC,7,1007.4,76,0,-1,19.3,15,23370,217,9.7,6.3
2019,8,13,11:40,UTC,7,1007.4,73,0,-1,19.6,14.6,27320,210,8.2,5.3
2019,8,13,11:50,UTC,3,1007.4,72,0,-1,19.7,14.4,25810,208,8.5,5.6
2019,8,13,12:00,UTC,1,1007.4,72,0,-1,19.6,14.5,27190,206,9.1,6.4
2019,8,13,12:10,UTC,1,1007.4,74,0,-1,19.5,14.8,24130,213,9,5.8
2019,8,13,12:20,UTC,1,1007.4,75,0,-1,19.4,15,23330,211,9.9,6.6
2019,8,13,12:30,UTC,1,1007.3,77,0,-1,19.2,15,23860,218,9.3,6
2019,8,13,12:40,UTC,1,1007.3,78,0,-1,19.2,15.2,25800,215,8.4,4.8
2019,8,13,12:50,UTC,1,1007.2,76,0,-1,19.7,15.2,27970,223,8.9,5.5
2019,8,13,13:00,UTC,1,1007.1,72,0,-1,19.9,14.8,31110,216,8.6,5.2
2019,8,13,13:10,UTC,1,1007,71,0,-1,20.2,14.8,29180,215,9.4,5.8
2019,8,13,13:20,UTC,0,1006.9,71,0,-1,20.1,14.8,34820,219,10.1,7
2019,8,13,13:30,UTC,0,1006.9,72,0,-1,20.2,14.9,35670,218,10,6.2
2019,8,13,13:40,UTC,1,1006.8,78,0,-1,19.5,15.5,28490,222,9,5.7
2019,8,13,13:50,UTC,1,1006.8,78,0,-1,19.5,15.5,31390,223,8.6,5.1
2019,8,13,14:00,UTC,1,1006.8,78,0,-1,19.4,15.5,25450,207,7.6,5.1
2019,8,13,14:10,UTC,1,1006.8,77,0,-1,19.7,15.6,29440,202,6.6,4
2019,8,13,14:20,UTC,0,1006.7,77,0,-1,19.6,15.6,28550,222,8,4.9
2019,8,13,14:30,UTC,0,1006.8,79,0,-1,19.7,15.9,24560,222,8.9,5.9
2019,8,13,14:40,UTC,0,1006.8,79,0,-1,19.5,15.8,27630,206,5.5,3.5
2019,8,13,14:50,UTC,0,1006.8,77,0,-1,19.4,15.3,29720,198,6.7,4.3
2019,8,13,15:00,UTC,0,1006.8,81,0,-1,19.6,16.2,26820,195,8,4.4
2019,8,13,15:10,UTC,0,1006.9,79,0,-1,19.3,15.6,27540,195,7.8,5.2
2019,8,13,15:20,UTC,0,1007,81,0,-1,18.9,15.7,34020,200,8,5.1
2019,8,13,15:30,UTC,0,1006.9,81,0,-1,19,15.7,30920,206,9.6,6.6
2019,8,13,15:40,UTC,1,1006.9,76,0,-1,19.4,15,34900,212,7.6,4.5
2019,8,13,15:50,UTC,3,1006.9,77,0,-1,19.2,15,35830,221,8.6,5.8
2019,8,13,16:00,UTC,5,1006.8,77,0,-1,19.4,15.2,40280,217,9,5.9
2019,8,13,16:10,UTC,3,1006.8,76,0,-1,19.5,15.1,41750,211,8.2,5.6
2019,8,13,16:20,UTC,1,1006.8,74,0,-1,19.2,14.4,36290,221,6.9,4.5
2019,8,13,16:30,UTC,0,1006.8,75,0,-1,19.1,14.6,35360,216,7.9,5.1
2019,8,13,16:40,UTC,0,1006.9,72,0,-1,19.1,13.9,38450,218,6.6,4.3
2019,8,13,16:50,UTC,0,1006.9,68,0,-1,19,13.1,34140,220,6.6,4.3
2019,8,13,17:00,UTC,0,1006.9,71,0,-1,18.9,13.6,39250,223,7.6,4.6
2019,8,13,17:10,UTC,0,1006.9,71,0,-1,18.8,13.3,37570,222,7.2,4.4
2019,8,13,17:20,UTC,0,1006.9,71,0,-1,18.8,13.4,35760,224,7,4.6
2019,8,13,17:30,UTC,0,1006.9,72,0,-1,18.5,13.3,35270,227,8.2,4
2019,8,13,17:40,UTC,0,1006.9,71,0,-1,18.5,13.2,37430,224,7.4,4.6
2019,8,13,17:50,UTC,0,1006.9,74,0,-1,18.3,13.6,31750,232,7.9,3.9
2019,8,13,18:00,UTC,0,1006.9,77,0,-1,18.1,14,32430,228,7.6,4.7
2019,8,13,18:10,UTC,0,1006.9,77,0,-1,18,13.8,31980,238,7.9,4.2
2019,8,13,18:20,UTC,0,1006.9,78,0,-1,17.8,13.9,30660,240,8.6,3.9
2019,8,13,18:30,UTC,0,1006.8,78,0,-1,17.7,13.9,26960,244,8.7,4.9
2019,8,13,18:40,UTC,0,1006.8,79,0,-1,17.7,14,28500,244,8.5,4.7
2019,8,13,18:50,UTC,0,1006.8,80,0,-1,17.6,14,27200,243,7.2,4.3
2019,8,13,19:00,UTC,0,1006.8,79,0,-1,17.5,13.9,31830,246,6.3,4
2019,8,13,19:10,UTC,0,1006.8,80,0,-1,17.5,14,30500,242,6.4,4.2
2019,8,13,19:20,UTC,0,1006.8,81,0,-1,17.3,14.1,30560,241,5.5,3.5
2019,8,13,19:30,UTC,0,1006.7,81,0,-1,17.3,14.1,29130,237,6.7,3.6
2019,8,13,19:40,UTC,0,1006.8,82,0,-1,17.3,14.2,34930,240,6.3,4
2019,8,13,19:50,UTC,0,1006.9,82,0,-1,17.2,14.1,38790,243,6.2,3.9
2019,8,13,20:00,UTC,0,1007,81,0,-1,17.2,14,27120,245,5.8,3.5
2019,8,13,20:10,UTC,0,1007.1,82,0,-1,17.2,14.1,38650,248,6,3.3
2019,8,13,20:20,UTC,0,1007.2,82,0,-1,17.2,14.1,41590,242,5.9,3.4
2019,8,13,20:30,UTC,0,1007.2,82,0,-1,17.2,14.1,44470,244,5.3,3.3
2019,8,13,20:40,UTC,0,1007.2,82,0,-1,17.2,14.2,39800,238,6.3,3.8
2019,8,13,20:50,UTC,0,1007.3,83,0,-1,17.2,14.2,39440,240,6.5,3.7
2019,8,13,21:00,UTC,0,1007.4,83,0,-1,17.2,14.3,39700,235,6.5,3.7
2019,8,13,21:10,UTC,0,1007.4,83,0,-1,17.2,14.3,38740,234,6.2,3.8
2019,8,13,21:20,UTC,0,1007.4,82,0,-1,17.2,14.1,40960,239,7.3,3.8
2019,8,13,21:30,UTC,0,1007.4,81,0,-1,17.2,13.9,35420,243,6.2,3.7
2019,8,13,21:40,UTC,0,1007.4,81,0,-1,17.2,13.8,32330,244,6.9,3.7
2019,8,13,21:50,UTC,0,1007.2,79,0,-1,17.2,13.6,34180,242,8.3,4
2019,8,13,22:00,UTC,1,1007.2,80,0,-1,17.1,13.7,33180,244,8.2,4.4
2019,8,13,22:10,UTC,1,1007.2,80,0,-1,17.1,13.7,30120,237,4.9,2.7
2019,8,13,22:20,UTC,1,1007.2,81,0,-1,17.1,13.8,29640,238,6.7,3.5
2019,8,13,22:30,UTC,1,1007.1,82,0,-1,17.2,14.1,24780,242,5.7,3.2
2019,8,13,22:40,UTC,1,1007.1,82,0,-1,17.3,14.1,26520,231,4,2.4
2019,8,13,22:50,UTC,1,1007.1,82,0,-1,17.2,14,31910,226,7,2.8
2019,8,13,23:00,UTC,1,1007.1,81,0,-1,17.2,13.9,28400,228,6.5,3.7
2019,8,13,23:10,UTC,3,1007,82,0,-1,17.3,14.2,35980,232,5.5,2.9
2019,8,13,23:20,UTC,1,1007,84,0,-1,17.3,14.6,29080,230,6.4,3.2
2019,8,13,23:30,UTC,1,1006.9,83,0,-1,17.3,14.4,29920,224,6.3,3.3
2019,8,13,23:40,UTC,1,1006.9,84,0,-1,17.2,14.4,28160,225,6,3.7
2019,8,13,23:50,UTC,1,1006.9,84,0,-1,17.2,14.5,25820,223,7.1,3.9
2019,8,14,00:00,UTC,3,1006.8,84,0,-1,17.3,14.6,28500,227,7.3,3.9
2019,8,14,00:10,UTC,5,1006.7,85,0,-1,17.3,14.8,26580,227,6.6,3.5
2019,8,14,00:20,UTC,5,1006.6,86,0,-1,17.1,14.7,25410,214,8.2,4.4
2019,8,14,00:30,UTC,3,1006.6,87,0,-1,16.9,14.8,24680,204,6.2,4.1
2019,8,14,00:40,UTC,5,1006.6,87,0,-1,16.9,14.8,26040,207,6.5,4.2
2019,8,14,00:50,UTC,5,1006.5,86,0,-1,17,14.7,26530,204,6.7,4.3
2019,8,14,01:00,UTC,5,1006.5,88,0,-1,16.8,14.8,25560,206,9,5.2
2019,8,14,01:10,UTC,5,1006.4,87,0,-1,16.9,14.8,24680,211,7.1,3.8
2019,8,14,01:20,UTC,5,1006.3,88,0,-1,16.8,14.8,24890,207,8.1,4.9
2019,8,14,01:30,UTC,7,1006.4,89,0,-1,16.7,14.8,25610,207,7.4,5.1
2019,8,14,01:40,UTC,7,1006.4,88,0,-1,16.8,14.9,25830,208,6.9,4.5
2019,8,14,01:50,UTC,7,1006.3,91,1.7,-1,16.6,15.1,4940,207,7.3,4.3
2019,8,14,02:00,UTC,7,1006.2,92,1.3,-1,16.5,15.2,17920,211,7.9,4
2019,8,14,02:10,UTC,7,1006.1,91,0,-1,16.4,15,23230,213,7.9,4.5
2019,8,14,02:20,UTC,7,1006.2,89,0,-1,16.2,14.5,20320,211,6,3.8
2019,8,14,02:30,UTC,7,1006.2,89,0,-1,16.3,14.5,24890,205,6.9,4.2
2019,8,14,02:40,UTC,7,1006.2,89,0,-1,16.4,14.6,35490,213,7.1,4.5
2019,8,14,02:50,UTC,7,1006.2,87,0,-1,16.3,14.1,32250,219,6.8,4.6
2019,8,14,03:00,UTC,7,1006.2,87,0,-1,16.2,14,42870,218,7.1,4.7
2019,8,14,03:10,UTC,3,1006.3,86,0,-1,16.3,13.9,45270,215,5.6,3.7
2019,8,14,03:20,UTC,5,1006.3,87,0,-1,16.3,14.2,31630,219,7.5,4.2
2019,8,14,03:30,UTC,3,1006.3,88,0,-1,16.5,14.6,22570,215,8.5,4.5
2019,8,14,03:40,UTC,7,1006.3,88,0,-1,16.6,14.5,21550,219,8.4,5.3
2019,8,14,03:50,UTC,7,1006.3,88,0,-1,16.6,14.5,36390,220,8,4.9
2019,8,14,04:00,UTC,7,1006.2,87,0,-1,16.8,14.7,35060,214,7.1,4
2019,8,14,04:10,UTC,5,1006.2,86,0,-1,16.8,14.4,31600,217,7.3,4.3
2019,8,14,04:20,UTC,5,1006.2,86,0,-1,16.8,14.4,41190,207,8.8,6
2019,8,14,04:30,UTC,5,1006.2,85,0,-1,16.9,14.4,39760,209,9.5,5.7
2019,8,14,04:40,UTC,5,1006.1,86,0,-1,16.9,14.6,37770,208,9.9,5
2019,8,14,04:50,UTC,5,1006.2,87,0,-1,16.8,14.6,36900,210,8.7,5.2
2019,8,14,05:00,UTC,5,1006,86,0,-1,16.9,14.6,37890,213,9.2,5
2019,8,14,05:10,UTC,7,1006.2,84,0,-1,17.2,14.5,37170,211,10.6,6
2019,8,14,05:20,UTC,7,1006.3,85,0,-1,17.1,14.5,36190,207,8.6,5
2019,8,14,05:30,UTC,7,1006.1,84,0,-1,17.3,14.7,33510,204,9.3,5.9
2019,8,14,05:40,UTC,7,1006.3,86,0,-1,17.3,14.8,37300,211,9.6,5.4
2019,8,14,05:50,UTC,7,1006.4,83,0,-1,17.1,14.1,33520,219,12.6,6.9
2019,8,14,06:00,UTC,7,1006.5,81,0,-1,16.7,13.5,31070,227,11.1,6.7
2019,8,14,06:10,UTC,7,1006.3,79,0,-1,16.3,12.7,26010,238,12,6.5
2019,8,14,06:20,UTC,7,1006.2,75,0,-1,16.5,12,48680,251,7.8,3.9
2019,8,14,06:30,UTC,7,1006.1,74,0,-1,17,12.2,50000,246,6.5,3.2
2019,8,14,06:40,UTC,5,1006.1,71,0,-1,17.3,12.1,50000,251,6.9,3.9
2019,8,14,06:50,UTC,5,1006.2,70,0,-1,17.4,11.8,50000,262,5.7,3.6
2019,8,14,07:00,UTC,5,1006.1,68,0,-1,17.8,11.8,42880,247,6.9,3.8
2019,8,14,07:10,UTC,7,1006.3,68,0,-1,17.7,11.7,50000,254,7.4,4.8
2019,8,14,07:20,UTC,7,1006.5,64,0,-1,17.8,10.9,46630,245,7.5,4.7
2019,8,14,07:30,UTC,3,1006.5,67,0,-1,17.5,11.2,48150,234,7.5,4.2
2019,8,14,07:40,UTC,1,1006.7,68,0,-1,17.7,11.8,48850,228,8.4,5
2019,8,14,07:50,UTC,1,1006.7,66,0,-1,18.2,11.7,50000,242,8.8,5.4
2019,8,14,08:00,UTC,1,1006.7,69,0,-1,17.7,11.8,49270,234,8.9,6.1
2019,8,14,08:10,UTC,1,1006.8,65,0,-1,18.5,11.9,42390,230,9.3,5.1
2019,8,14,08:20,UTC,1,1007,66,0,-1,18.3,11.9,49430,224,9.7,6.6
2019,8,14,08:30,UTC,1,1006.9,67,0,-1,18.3,12.1,48320,233,8.4,5.7
2019,8,14,08:40,UTC,1,1006.9,69,0,-1,18.3,12.5,50000,230,9.4,5.8
2019,8,14,08:50,UTC,3,1006.9,69,0,-1,18.7,12.8,42050,237,9.5,5.3
2019,8,14,09:00,UTC,3,1007,70,0,-1,18.6,13,41470,237,10,6.3
2019,8,14,09:10,UTC,5,1007,71,0,-1,18.6,13.1,31760,227,8.6,5.6
2019,8,14,09:20,UTC,5,1007.1,70,0,-1,18.3,12.7,42640,227,8.7,5.9
2019,8,14,09:30,UTC,5,1007.2,71,0,-1,18.6,13.3,46280,227,9.2,5.3
2019,8,14,09:40,UTC,3,1007.2,69,0,-1,18.7,13,36950,218,10,6.8
2019,8,14,09:50,UTC,1,1007.2,66,0,-1,18.8,12.4,34550,216,9.7,7.1
2019,8,14,10:00,UTC,1,1007.2,60,0,-1,18.9,11,35490,229,9.7,5.9
2019,8,14,10:10,UTC,0,1007.3,61,0,-1,19.1,11.4,30080,231,9.9,6.1
2019,8,14,10:20,UTC,0,1007.4,62,0,-1,18.7,11.3,40930,233,9.6,5.8
2019,8,14,10:30,UTC,0,1007.2,63,0,-1,19.7,12.6,30820,219,10.3,6.4
2019,8,14,10:40,UTC,0,1007.3,58,0,-1,19.8,11.4,37380,219,13.6,7.9
2019,8,14,10:50,UTC,0,1007.2,62,0,-1,19.4,12.1,38750,238,12.3,6.6
2019,8,14,11:00,UTC,1,1007.3,66,0,-1,19.2,12.6,32880,223,10.6,7
2019,8,14,11:10,UTC,3,1007.3,62,0,-1,19.2,11.7,31520,221,13.2,8.2
2019,8,14,11:20,UTC,1,1007.3,51,0,-1,19.6,9.3,44160,241,12.6,7.7
2019,8,14,11:30,UTC,1,1007.4,55,0,-1,19.6,10.4,40460,244,12.8,7.2
2019,8,14,11:40,UTC,0,1007.4,59,0,-1,19.2,11,44950,232,11.5,6.6
2019,8,14,11:50,UTC,1,1007.5,58,0,-1,19.1,10.6,42450,231,11.7,7.2
2019,8,14,12:00,UTC,1,1007.5,61,0,-1,18.7,11.2,39010,228,12.4,7.3
2019,8,14,12:10,UTC,1,1007.4,52,0,-1,19,9,44170,244,9.5,5.6
2019,8,14,12:20,UTC,1,1007.3,56,0,-1,19.2,10.2,39100,242,10.7,6.9
2019,8,14,12:30,UTC,1,1007.3,57,0,-1,19.1,10.5,44060,245,10.6,6
2019,8,14,12:40,UTC,0,1007.4,60,0,-1,18.8,10.8,41530,239,12.1,7.5
2019,8,14,12:50,UTC,1,1007.3,60,0,-1,19.1,11,37380,234,12.5,7
2019,8,14,13:00,UTC,1,1007.3,61,0,-1,19.1,11.4,42170,236,12.5,6.7
2019,8,14,13:10,UTC,1,1007.3,58,0,-1,19.6,11.1,46390,236,13,7.2
2019,8,14,13:20,UTC,1,1007.3,57,0,-1,19.1,10.4,43340,235,11.9,6.4
2019,8,14,13:30,UTC,1,1007.3,55,0,-1,19.2,9.9,38030,235,11.9,6.7
2019,8,14,13:40,UTC,1,1007.3,58,0,-1,19.1,10.5,39300,236,11.1,6.8
2019,8,14,13:50,UTC,0,1007.4,57,0,-1,19.4,10.6,39720,229,11,6.8
2019,8,14,14:00,UTC,0,1007.3,60,0,-1,18.9,11.1,42200,230,12.5,7.2
2019,8,14,14:10,UTC,0,1007.4,61,0,-1,18.8,11,36810,225,11.9,7.2
2019,8,14,14:20,UTC,0,1007.4,59,0,-1,18.9,10.8,35610,225,11.4,6.6
2019,8,14,14:30,UTC,0,1007.6,60,0,-1,18.9,11,44340,233,10.7,7.1
2019,8,14,14:40,UTC,0,1007.6,62,0,-1,18.8,11.2,37140,222,11,6.1
2019,8,14,14:50,UTC,1,1007.5,63,0,-1,18.6,11.5,44580,227,12.4,6.6
2019,8,14,15:00,UTC,1,1007.6,59,0,-1,18.6,10.4,45280,230,10.9,6.8
2019,8,14,15:10,UTC,1,1007.7,61,0,-1,18.2,10.6,41720,234,11.7,6.5
2019,8,14,15:20,UTC,0,1007.7,61,0,-1,18.7,10.9,41900,227,11.3,6.6
2019,8,14,15:30,UTC,0,1007.7,61,0,-1,18.4,10.6,42250,232,10.1,5.8
2019,8,14,15:40,UTC,0,1007.7,61,0,-1,18,10.4,44810,230,10.3,5.1
2019,8,14,15:50,UTC,1,1007.7,63,0,-1,17.8,10.7,44590,241,10.5,6.7
2019,8,14,16:00,UTC,3,1007.7,65,0,-1,17.6,11,39680,238,10.2,5.7
2019,8,14,16:10,UTC,5,1007.8,67,0,-1,17,10.8,32440,243,12.2,7
2019,8,14,16:20,UTC,7,1007.7,69,0,-1,17,11.3,31530,238,11.3,6
2019,8,14,16:30,UTC,3,1007.8,66,0,-1,17.3,10.9,48270,246,9.7,6.2
2019,8,14,16:40,UTC,1,1007.8,61,0,-1,17.5,9.9,48430,244,8.1,5.3
2019,8,14,16:50,UTC,0,1007.9,60,0,-1,17.5,9.7,48010,241,11.3,5.7
2019,8,14,17:00,UTC,0,1008.1,59,0,-1,17.4,9.4,50000,245,12,7.4
2019,8,14,17:10,UTC,0,1008.1,60,0,-1,17.2,9.3,48320,244,10.8,6.4
2019,8,14,17:20,UTC,0,1008,62,0,-1,17,9.6,47270,242,9.5,6
2019,8,14,17:30,UTC,0,1008,62,0,-1,16.9,9.5,47680,245,9.5,6.1
2019,8,14,17:40,UTC,0,1008.1,62,0,-1,17,9.6,45220,242,12.2,6.2
2019,8,14,17:50,UTC,0,1008.1,62,0,-1,16.8,9.5,50000,241,12.4,5.8
2019,8,14,18:00,UTC,0,1008,63,0,-1,16.7,9.7,48220,240,10.6,5.5
2019,8,14,18:10,UTC,0,1008,64,0,-1,16.6,9.7,50000,243,9.3,5.8
2019,8,14,18:20,UTC,0,1008,63,0,-1,16.6,9.5,50000,247,10.7,5.3
2019,8,14,18:30,UTC,0,1008,63,0,-1,16.5,9.6,48870,249,8.7,5.5
2019,8,14,18:40,UTC,0,1007.9,65,0,-1,16.4,9.9,49030,247,8.6,5.4
2019,8,14,18:50,UTC,0,1007.9,64,0,-1,16.3,9.5,49590,240,7.6,4.6
2019,8,14,19:00,UTC,0,1007.7,65,0,-1,16.2,9.7,49650,247,7.8,4.7
2019,8,14,19:10,UTC,0,1007.6,66,0,-1,16.1,9.8,50000,248,7.8,4.5
2019,8,14,19:20,UTC,0,1007.6,66,0,-1,16,9.6,49360,250,8.4,4.4
2019,8,14,19:30,UTC,0,1007.7,67,0,-1,16,9.8,50000,243,5.6,3.7
2019,8,14,19:40,UTC,0,1007.6,68,0,-1,16,10,48590,245,7,4.1
2019,8,14,19:50,UTC,0,1007.6,68,0,-1,16,10.1,49010,246,6.8,4.3
2019,8,14,20:00,UTC,0,1007.5,69,0,-1,16,10.2,46200,244,7.2,4.5
2019,8,14,20:10,UTC,1,1007.4,69,0,-1,16.1,10.5,48750,250,6.9,4
2019,8,14,20:20,UTC,1,1007.4,71,0,-1,16,10.7,49150,254,7,3.5
2019,8,14,20:30,UTC,1,1007.4,71,0,-1,16,10.8,40760,247,6.1,3.7
2019,8,14,20:40,UTC,1,1007.4,72,0,-1,16.1,10.9,46450,242,6.8,4
2019,8,14,20:50,UTC,1,1007.5,71,0,-1,16.1,10.9,46560,244,6.4,3.8
2019,8,14,21:00,UTC,1,1007.5,70,0,-1,16.2,10.8,45170,251,4.9,3.5
2019,8,14,21:10,UTC,3,1007.4,71,0,-1,16.2,10.8,48760,247,6.7,4.2
2019,8,14,21:20,UTC,1,1007.4,70,0,-1,16.1,10.7,50000,252,5.4,3.4
2019,8,14,21:30,UTC,1,1007.4,71,0,-1,16.1,10.8,50000,254,6.1,3.5
2019,8,14,21:40,UTC,0,1007.4,70,0,-1,16.1,10.7,50000,253,5.6,3.1
2019,8,14,21:50,UTC,1,1007.3,70,0,-1,16.1,10.6,50000,249,6.1,3.4
2019,8,14,22:00,UTC,1,1007.3,70,0,-1,16.1,10.6,50000,247,5.1,3
2019,8,14,22:10,UTC,1,1007.3,70,0,-1,16.2,10.7,50000,241,6,3.2
2019,8,14,22:20,UTC,1,1007.2,71,0,-1,16.1,10.9,49710,240,4.3,2.7
2019,8,14,22:30,UTC,0,1007.1,71,0,-1,16.2,10.9,40780,243,4.6,2.6
2019,8,14,22:40,UTC,0,1007,72,0,-1,16.2,11,50000,238,4.3,2.7
2019,8,14,22:50,UTC,0,1007.1,74,0,-1,15.7,11.1,45670,232,4.5,2.5
2019,8,14,23:00,UTC,1,1007,76,0,-1,15.5,11.3,45230,234,3.9,2.2
2019,8,14,23:10,UTC,3,1006.9,76,0,-1,15.7,11.5,49470,223,4.3,2.1
2019,8,14,23:20,UTC,5,1007,73,0,-1,16.3,11.4,48150,225,3.8,2.1
2019,8,14,23:30,UTC,5,1007,74,0,-1,16.4,11.7,50000,216,5.3,2.8
2019,8,14,23:40,UTC,3,1007.1,75,0,-1,16.4,11.9,50000,223,5,2.9
2019,8,14,23:50,UTC,5,1007,78,0,-1,16.2,12.3,1950,224,5.7,2.8
2019,8,15,00:00,UTC,5,1006.8,77,0.4,-1,16,12.1,32440,222,7.9,3.8
2019,8,15,00:10,UTC,3,1006.6,75,0,-1,16.2,11.7,42250,243,7.2,3.8
2019,8,15,00:20,UTC,3,1006.6,75,0,-1,16.1,11.6,45560,241,7.2,3.5
2019,8,15,00:30,UTC,1,1006.7,72,0,-1,16.2,11.2,31200,236,5.1,2.7
2019,8,15,00:40,UTC,5,1006.7,70,0,-1,16.3,10.9,44840,236,5.6,3.2
2019,8,15,00:50,UTC,5,1006.8,73,0,-1,16.5,11.6,40960,231,6.6,3.2
2019,8,15,01:00,UTC,7,1006.8,75,0,-1,15.9,11.4,32380,222,7.6,4.7
2019,8,15,01:10,UTC,7,1006.7,71,0,-1,15.8,10.5,41350,221,7.6,4.7
2019,8,15,01:20,UTC,7,1006.6,72,0,-1,15.8,10.8,50000,231,5.4,3.3
2019,8,15,01:30,UTC,8,1006.7,72,0,-1,15.7,10.8,48980,226,6.4,3.4
2019,8,15,01:40,UTC,7,1006.5,72,0,-1,15.6,10.6,39900,215,6.5,4.2
2019,8,15,01:50,UTC,7,1006.4,74,0,-1,15.5,10.9,44190,219,5.4,3.5
2019,8,15,02:00,UTC,3,1006.5,76,0,-1,15.3,11.2,41530,223,5.4,3.4
2019,8,15,02:10,UTC,3,1006.4,76,0,-1,15.5,11.3,42660,224,3.4,2.3
2019,8,15,02:20,UTC,1,1006.5,77,0,-1,15.4,11.5,46290,234,4.8,2.6
2019,8,15,02:30,UTC,1,1006.4,75,0,-1,15.8,11.3,50000,233,5,2.5
2019,8,15,02:40,UTC,1,1006.5,75,0,-1,15.8,11.3,50000,237,5.9,3.3
2019,8,15,02:50,UTC,3,1006.6,72,0,-1,16,11,48120,232,5.3,3.2
2019,8,15,03:00,UTC,5,1006.5,71,0,-1,16,10.7,39390,238,4.7,2.6
2019,8,15,03:10,UTC,7,1006.6,73,0,-1,15.9,10.9,44900,249,4.6,2.8
2019,8,15,03:20,UTC,5,1006.6,70,0,-1,15.9,10.6,50000,242,4.9,3
2019,8,15,03:30,UTC,5,1006.7,71,0,-1,15.9,10.6,49980,244,6.8,3.7
2019,8,15,03:40,UTC,5,1006.9,70,0,-1,15.9,10.3,50000,245,8.2,4.2
2019,8,15,03:50,UTC,7,1006.8,69,0,-1,15.7,9.9,50000,247,7.8,4.6
2019,8,15,04:00,UTC,7,1006.8,68,0,-1,15.6,9.6,50000,244,7.6,3.8
2019,8,15,04:10,UTC,7,1006.7,67,0,-1,15.5,9.5,50000,239,5.7,3.1
2019,8,15,04:20,UTC,7,1006.7,67,0,-1,15.5,9.3,50000,240,4.8,2.9
2019,8,15,04:30,UTC,5,1006.7,67,0,-1,15.5,9.3,50000,247,5.3,3.3
2019,8,15,04:40,UTC,3,1006.6,67,0,-1,15.4,9.2,49910,244,5.6,3.3
2019,8,15,04:50,UTC,1,1006.6,67,0,-1,15.4,9.4,50000,247,4.7,3.1
2019,8,15,05:00,UTC,1,1006.6,68,0,-1,15.4,9.5,50000,249,4.7,2.7
2019,8,15,05:10,UTC,0,1006.6,69,0,-1,15.5,10,50000,262,4.9,3.3
2019,8,15,05:20,UTC,0,1006.7,67,0,-1,15.8,9.6,49800,265,6.2,3.7
2019,8,15,05:30,UTC,0,1006.8,68,0,-1,15.6,9.6,50000,267,6.2,4.3
2019,8,15,05:40,UTC,0,1006.8,67,0,-1,16,10,50000,262,6.2,4.3
2019,8,15,05:50,UTC,0,1006.8,66,0,-1,16.1,9.8,50000,266,5.9,3.9
2019,8,15,06:00,UTC,0,1006.8,66,0,-1,16.4,10.2,50000,263,6.4,4.4
2019,8,15,06:10,UTC,0,1007,69,0,-1,16.2,10.4,50000,256,6.6,4.4
2019,8,15,06:20,UTC,0,1007,70,0,-1,16.3,10.7,50000,258,5.8,4
2019,8,15,06:30,UTC,1,1007.1,70,0,-1,16,10.6,50000,260,5.9,4.2
2019,8,15,06:40,UTC,1,1007,71,0,-1,16.3,11.1,39010,257,5.1,3.4
2019,8,15,06:50,UTC,3,1007,69,0,-1,16.9,11.3,45950,243,5.2,3.8
2019,8,15,07:00,UTC,3,1007,67,0,-1,17,10.9,47110,244,5.5,3.6
2019,8,15,07:10,UTC,5,1006.9,69,0,-1,16.8,11.2,50000,262,5.6,3.6
2019,8,15,07:20,UTC,5,1006.8,64,0,-1,17.8,10.9,46450,273,5.3,4
2019,8,15,07:30,UTC,5,1006.8,65,0,-1,17.8,11,46680,279,5.3,3.4
2019,8,15,07:40,UTC,5,1006.8,64,0,-1,17.5,10.6,42310,271,5.5,3.8
2019,8,15,07:50,UTC,5,1006.9,64,0,-1,17,10,46080,270,5.7,4.1
2019,8,15,08:00,UTC,7,1007,70,0,-1,16.3,10.8,8810,253,7.4,4.3
2019,8,15,08:10,UTC,7,1007.3,86,6.6,-1,14.5,12.2,2480,264,8.5,5.4
2019,8,15,08:20,UTC,7,1007.3,87,0.8,-1,14.5,12.4,25800,291,7.1,4
2019,8,15,08:30,UTC,5,1007.3,84,0,-1,15.2,12.5,48980,286,6.8,4.1
2019,8,15,08:40,UTC,5,1007.3,81,0,-1,16,12.8,46590,294,7.9,3.6
2019,8,15,08:50,UTC,3,1007.4,72,0,-1,16.7,11.6,47340,295,7.4,5.2
2019,8,15,09:00,UTC,3,1007.4,65,0,-1,17.1,10.4,40540,288,6.6,4.3
2019,8,15,09:10,UTC,1,1007.4,64,0,-1,17.2,10.3,49420,288,7.6,5
2019,8,15,09:20,UTC,3,1007.5,64,0,-1,16.9,10,50000,289,8,4.9
2019,8,15,09:30,UTC,1,1007.6,62,0,-1,17.7,10.2,41770,287,6.9,4.5
2019,8,15,09:40,UTC,3,1007.6,60,0,-1,17.5,9.6,50000,269,6.9,4.7
2019,8,15,09:50,UTC,5,1007.6,57,0,-1,17.9,9.1,43040,278,7.6,4.7
2019,8,15,10:00,UTC,3,1007.6,58,0,-1,17.5,9.3,50000,295,7.4,3.7
2019,8,15,10:10,UTC,1,1007.6,57,0,-1,17.6,9,48490,292,6.8,4.5
2019,8,15,10:20,UTC,1,1007.7,52,0,-1,18.1,8.1,50000,285,8.8,5.6
2019,8,15,10:30,UTC,1,1007.7,50,0,-1,18.7,8,42200,281,8.3,5.8
2019,8,15,10:40,UTC,5,1007.8,48,0,-1,18.5,7.4,49530,281,11.6,6.7
2019,8,15,10:50,UTC,5,1007.8,48,0,-1,18.9,7.7,41220,277,9.2,5.5
2019,8,15,11:00,UTC,7,1007.8,49,0,-1,18.6,7.8,50000,266,8.8,6
2019,8,15,11:10,UTC,3,1007.9,51,0,-1,18.8,8.3,50000,260,8.1,4.8
2019,8,15,11:20,UTC,3,1007.9,50,0,-1,19.2,8.4,40530,276,8.2,5.5
2019,8,15,11:30,UTC,3,1008,50,0,-1,19.4,8.6,41420,277,8.2,5.1
2019,8,15,11:40,UTC,5,1008,51,0,-1,19.8,9.3,46180,256,9.5,6.3
2019,8,15,11:50,UTC,3,1008.2,47,0,-1,19.6,8.1,43420,250,9.8,5.8
2019,8,15,12:00,UTC,1,1008.2,51,0,-1,19.4,9,50000,260,12.2,7.6
2019,8,15,12:10,UTC,1,1008.3,47,0,-1,19.5,7.9,42510,244,9.8,5.9
2019,8,15,12:20,UTC,0,1008.3,48,0,-1,19.4,8.1,46300,241,10.7,7.2
2019,8,15,12:30,UTC,0,1008.4,49,0,-1,18.8,7.9,50000,243,10.5,6.1
2019,8,15,12:40,UTC,1,1008.4,48,0,-1,19.3,8,49800,244,10.1,6.2
2019,8,15,12:50,UTC,3,1008.5,50,0,-1,19.6,8.9,50000,243,10,6.3
2019,8,15,13:00,UTC,5,1008.5,50,0,-1,19.6,9.1,50000,250,8.5,6.1
2019,8,15,13:10,UTC,5,1008.6,52,0,-1,19.8,9.6,50000,259,11,7
2019,8,15,13:20,UTC,3,1008.6,51,0,-1,19.5,9.2,47450,257,9.8,6.5
2019,8,15,13:30,UTC,1,1008.6,52,0,-1,19.5,9.3,50000,262,9.2,5.8
2019,8,15,13:40,UTC,1,1008.7,52,0,-1,19.3,9.2,50000,270,8.9,5.6
2019,8,15,13:50,UTC,1,1008.9,61,0,-1,18.8,11,42060,254,9.1,5.3
2019,8,15,14:00,UTC,1,1008.8,57,0,-1,19.1,10.5,48540,222,8.7,5.2
2019,8,15,14:10,UTC,3,1008.9,46,0,-1,20.4,8.3,48740,237,11.1,4.8
2019,8,15,14:20,UTC,1,1008.9,43,0,-1,19.9,6.8,43840,285,11.5,7.5
2019,8,15,14:30,UTC,1,1009,40,0,-1,20.4,6.4,46220,276,11.1,7.6
2019,8,15,14:40,UTC,0,1009.1,41,0,-1,20,6.3,47680,269,10.3,7.5
2019,8,15,14:50,UTC,0,1009.2,41,0,-1,20,6.2,47360,260,11.4,6.7
2019,8,15,15:00,UTC,0,1009.2,39,0,-1,19.9,5.7,50000,267,9.6,6.4
2019,8,15,15:10,UTC,0,1009.3,41,0,-1,20,6.5,50000,263,9,6.2
2019,8,15,15:20,UTC,0,1009.3,41,0,-1,19.9,6.2,50000,262,9.4,6.5
2019,8,15,15:30,UTC,0,1009.3,41,0,-1,19.7,6.1,50000,278,9.1,5.6
2019,8,15,15:40,UTC,0,1009.5,42,0,-1,19.9,6.6,50000,273,10.8,6.7
2019,8,15,15:50,UTC,0,1009.6,42,0,-1,19.7,6.2,50000,280,10.5,6.2
2019,8,15,16:00,UTC,0,1009.7,42,0,-1,19.5,6.1,50000,285,9.5,6
2019,8,15,16:10,UTC,0,1009.7,42,0,-1,19.5,6.4,49240,278,9.6,6.1
2019,8,15,16:20,UTC,0,1009.9,42,0,-1,19.3,6.2,50000,281,9.7,5.8
2019,8,15,16:30,UTC,0,1009.9,43,0,-1,19.3,6.2,50000,281,9,5.4
2019,8,15,16:40,UTC,0,1010,43,0,-1,19.1,6.1,50000,270,7.7,5
2019,8,15,16:50,UTC,0,1010.1,43,0,-1,19,6,50000,269,8.6,5.6
2019,8,15,17:00,UTC,0,1010.2,43,0,-1,18.8,5.8,50000,271,9.4,6.2
2019,8,15,17:10,UTC,0,1010.3,43,0,-1,18.7,5.7,50000,265,9.1,5.6
2019,8,15,17:20,UTC,0,1010.4,44,0,-1,18.5,6,50000,274,9.3,5.7
2019,8,15,17:30,UTC,0,1010.5,45,0,-1,18.3,6.2,50000,270,8.4,5.8
2019,8,15,17:40,UTC,0,1010.6,45,0,-1,18.2,6,50000,275,9.2,5.6
2019,8,15,17:50,UTC,0,1010.7,46,0,-1,18.1,6.3,49720,277,7.8,4.7
2019,8,15,18:00,UTC,0,1010.9,47,0,-1,17.9,6.5,50000,268,7.5,4.7
2019,8,15,18:10,UTC,0,1011,47,0,-1,17.8,6.4,50000,270,7.4,4.7
2019,8,15,18:20,UTC,0,1011.1,49,0,-1,17.7,6.7,50000,269,7,4.3
2019,8,15,18:30,UTC,0,1011.1,50,0,-1,17.5,6.9,50000,260,6.1,4.1
2019,8,15,18:40,UTC,0,1011.2,52,0,-1,17.3,7.4,50000,263,8.2,5.1
2019,8,15,18:50,UTC,0,1011.3,56,0,-1,17.1,8.3,50000,260,6.9,4.8
2019,8,15,19:00,UTC,0,1011.5,59,0,-1,16.9,8.8,50000,261,7.3,4.7
2019,8,15,19:10,UTC,0,1011.6,61,0,-1,16.8,9.3,49530,262,8.4,5.1
2019,8,15,19:20,UTC,0,1011.7,64,0,-1,16.6,9.7,50000,262,8.2,4.8
2019,8,15,19:30,UTC,0,1011.9,64,0,-1,16.6,9.8,50000,259,7.6,4.9
2019,8,15,19:40,UTC,0,1012,65,0,-1,16.4,9.8,50000,266,9.2,5.6
2019,8,15,19:50,UTC,0,1012,66,0,-1,16.2,9.8,50000,267,7.3,4.6
2019,8,15,20:00,UTC,0,1012.1,66,0,-1,16.2,9.8,50000,261,7,4.7
2019,8,15,20:10,UTC,0,1012.2,67,0,-1,16.1,9.9,50000,261,7.7,4.6
2019,8,15,20:20,UTC,0,1012.3,68,0,-1,16,10.2,50000,261,6.8,4.2
2019,8,15,20:30,UTC,0,1012.4,70,0,-1,16,10.4,50000,262,7.1,4.3
2019,8,15,20:40,UTC,0,1012.5,71,0,-1,15.8,10.5,50000,264,8.2,4
2019,8,15,20:50,UTC,0,1012.6,72,0,-1,15.5,10.6,50000,263,6,4.1
2019,8,15,21:00,UTC,0,1012.7,71,0,-1,15.7,10.5,46220,261,5.8,3
2019,8,15,21:10,UTC,0,1012.7,72,0,-1,15.7,10.6,50000,262,4.6,2.6
2019,8,15,21:20,UTC,0,1012.7,72,0,-1,15.6,10.7,50000,264,5.1,3
2019,8,15,21:30,UTC,0,1012.7,74,0,-1,15.5,10.8,50000,275,4.1,2.5
2019,8,15,21:40,UTC,0,1012.7,75,0,-1,15.2,10.8,50000,273,4.7,2.8
2019,8,15,21:50,UTC,0,1012.8,74,0,-1,15.3,10.6,50000,265,4.7,2.7
2019,8,15,22:00,UTC,0,1012.8,75,0,-1,15,10.6,50000,263,5,3.1
2019,8,15,22:10,UTC,0,1012.9,75,0,-1,15.2,10.8,50000,263,4.6,3
2019,8,15,22:20,UTC,0,1013,75,0,-1,15.2,10.9,50000,257,3.6,2.6
2019,8,15,22:30,UTC,0,1013.1,77,0,-1,14.9,10.9,50000,261,3.4,2.1
2019,8,15,22:40,UTC,0,1013.2,79,0,-1,14.5,10.9,50000,250,3.8,2.4
2019,8,15,22:50,UTC,0,1013.1,79,0,-1,14.6,11.1,50000,255,3.8,2.5
2019,8,15,23:00,UTC,0,1013.1,82,0,-1,14.1,11.1,50000,260,3.5,2.3
2019,8,15,23:10,UTC,0,1013.2,83,0,-1,14.1,11.3,50000,260,3.8,2.2
2019,8,15,23:20,UTC,0,1013.1,87,0,-1,13.4,11.2,50000,259,2.9,2
2019,8,15,23:30,UTC,0,1013.2,88,0,-1,13.3,11.4,50000,263,3.2,2.2
2019,8,15,23:40,UTC,0,1013.2,89,0,-1,13.1,11.4,46370,258,3.4,2.1
2019,8,15,23:50,UTC,0,1013.2,90,0,-1,13.1,11.6,47700,262,3.1,1.9
2019,8,16,00:00,UTC,0,1013.2,91,0,-1,13.2,11.8,50000,246,2.4,1.5
2019,8,16,00:10,UTC,0,1013.2,91,0,-1,13.1,11.6,50000,243,2.1,1.4
2019,8,16,00:20,UTC,0,1013.3,92,0,-1,13.1,11.8,50000,242,3.7,2.3
2019,8,16,00:30,UTC,0,1013.3,92,0,-1,13.2,11.9,47680,251,3.6,2.2
2019,8,16,00:40,UTC,0,1013.3,93,0,-1,13.2,12.1,45660,257,3.5,2.3
2019,8,16,00:50,UTC,0,1013.4,93,0,-1,13.1,12,42960,257,3.2,1.9
2019,8,16,01:00,UTC,0,1013.4,88,0,-1,14,11.9,47190,244,3.1,2.1
2019,8,16,01:10,UTC,0,1013.3,90,0,-1,13.5,12,38960,246,2.7,1.8
2019,8,16,01:20,UTC,0,1013.3,92,0,-1,13.3,12,44430,248,1.8,1
2019,8,16,01:30,UTC,0,1013.3,92,0,-1,13.1,11.8,43850,254,2.6,1.1
2019,8,16,01:40,UTC,0,1013.4,93,0,-1,13,11.8,39430,254,2,1
2019,8,16,01:50,UTC,0,1013.4,93,0,-1,12.9,11.7,40690,251,2.4,1.2
2019,8,16,02:00,UTC,0,1013.4,93,0,-1,12.8,11.7,45730,238,2.6,1.6
2019,8,16,02:10,UTC,0,1013.5,92,0,-1,12.9,11.6,48550,241,2.8,1.8
2019,8,16,02:20,UTC,0,1013.5,92,0,-1,12.8,11.5,45740,239,2.8,2
2019,8,16,02:30,UTC,0,1013.5,92,0,-1,12.7,11.4,47550,233,3.8,2.1
2019,8,16,02:40,UTC,0,1013.5,92,0,-1,12.8,11.5,43290,236,3.2,2.2
2019,8,16,02:50,UTC,0,1013.6,91,0,-1,12.9,11.5,50000,237,3.1,2
2019,8,16,03:00,UTC,0,1013.6,92,0,-1,12.8,11.5,46000,238,3.8,2.1
2019,8,16,03:10,UTC,0,1013.6,92,0,-1,12.9,11.6,50000,247,3,1.8
2019,8,16,03:20,UTC,0,1013.7,92,0,-1,13.1,11.8,46240,251,2.9,1.6
2019,8,16,03:30,UTC,0,1013.7,91,0,-1,13.3,11.8,49110,241,2.9,1.7
2019,8,16,03:40,UTC,0,1013.8,90,0,-1,13.6,12,48360,237,2.4,1.4
2019,8,16,03:50,UTC,0,1013.8,88,0,-1,14.1,12.1,43280,236,3.1,1.6
2019,8,16,04:00,UTC,0,1013.8,80,0,-1,15.6,12.2,45990,229,3.2,1.7
2019,8,16,04:10,UTC,0,1013.9,80,0,-1,15.8,12.4,50000,225,3.8,2.5
2019,8,16,04:20,UTC,0,1014,79,0,-1,16,12.5,48930,223,4.4,2.4
2019,8,16,04:30,UTC,0,1014,78,0,-1,16.4,12.4,46300,227,4.4,2.3
2019,8,16,04:40,UTC,0,1014,77,0,-1,16.6,12.5,46850,222,4.3,2.5
2019,8,16,04:50,UTC,0,1014.2,76,0,-1,16.7,12.4,43010,228,4.7,2.6
2019,8,16,05:00,UTC,0,1014.2,77,0,-1,16.9,12.8,45870,231,4.2,2.5
2019,8,16,05:10,UTC,0,1014.2,76,0,-1,17,12.7,47500,231,6.4,3.7
2019,8,16,05:20,UTC,0,1014.3,75,0,-1,17.1,12.7,42650,227,5.2,3.5
2019,8,16,05:30,UTC,0,1014.3,76,0,-1,17.2,12.9,44810,222,6.4,3.6
2019,8,16,05:40,UTC,0,1014.3,76,0,-1,17.1,12.8,48280,218,6.4,4.4
2019,8,16,05:50,UTC,0,1014.3,77,0,-1,17.2,13.1,45440,218,6.8,4.8
2019,8,16,06:00,UTC,1,1014.4,77,0,-1,17.7,13.6,46930,222,6.8,4.7
2019,8,16,06:10,UTC,1,1014.5,79,0,-1,17.7,14,35970,225,7,4.1
2019,8,16,06:20,UTC,1,1014.5,80,0,-1,17.4,13.9,41950,222,7.9,4.1
2019,8,16,06:30,UTC,1,1014.5,81,0,-1,17.1,13.8,49350,224,8,5.1
2019,8,16,06:40,UTC,1,1014.5,84,0,-1,16.7,14,46090,220,7.7,4.9
2019,8,16,06:50,UTC,3,1014.6,82,0,-1,17.2,14.1,43120,211,7.2,4.4
2019,8,16,07:00,UTC,5,1014.7,84,0,-1,17,14.2,47830,222,8.2,4.9
2019,8,16,07:10,UTC,7,1014.7,82,0,-1,17.3,14.3,40020,225,7.5,4.2
2019,8,16,07:20,UTC,7,1014.7,84,0,-1,17.5,14.7,31830,229,8.2,4.5
2019,8,16,07:30,UTC,7,1014.7,81,0,-1,17.7,14.4,39890,224,7.2,4.6
2019,8,16,07:40,UTC,7,1014.8,79,0,-1,17.9,14.2,31690,218,9.2,5.6
2019,8,16,07:50,UTC,7,1014.8,81,0,-1,17.8,14.5,34570,220,8.2,5.7
2019,8,16,08:00,UTC,7,1014.8,82,0,-1,17.5,14.4,39940,223,8.3,5.8
2019,8,16,08:10,UTC,5,1014.8,84,0,-1,17.6,14.8,35810,223,8.2,4.7
2019,8,16,08:20,UTC,3,1014.8,81,0,-1,18.3,15,31270,223,8.1,5.8
2019,8,16,08:30,UTC,1,1014.9,80,0,-1,18.1,14.5,34750,227,7.1,4.4
2019,8,16,08:40,UTC,1,1014.9,79,0,-1,18,14.3,36720,223,7.7,5.1
2019,8,16,08:50,UTC,3,1015,81,0,-1,18,14.7,30030,219,7.9,4.8
2019,8,16,09:00,UTC,5,1014.9,83,0,-1,18,15,37500,215,8,5.5
2019,8,16,09:10,UTC,7,1015,82,0,-1,17.6,14.6,37370,221,8.5,6.2
2019,8,16,09:20,UTC,7,1015.1,80,0,-1,17.6,14.1,31340,220,8.2,6.4
2019,8,16,09:30,UTC,7,1015.2,81,0,-1,17.9,14.7,33540,226,8.3,5.6
2019,8,16,09:40,UTC,7,1015.1,80,0,-1,17.8,14.3,32770,223,7.9,5.5
2019,8,16,09:50,UTC,7,1015.1,78,0,-1,18.1,14.3,40450,221,7.2,5.3
2019,8,16,10:00,UTC,5,1015.1,73,0,-1,19,14,34230,220,7.6,5.3
2019,8,16,10:10,UTC,5,1015.1,73,0,-1,19.4,14.3,13980,225,7,5
2019,8,16,10:20,UTC,5,1015.2,73,0,-1,19.1,14.2,36050,221,7.4,5.5
2019,8,16,10:30,UTC,5,1015.1,71,0,-1,18.6,13.2,32690,222,7.3,4.9
2019,8,16,10:40,UTC,7,1015.1,73,0,-1,19.1,14.1,35480,223,7.9,5.1
2019,8,16,10:50,UTC,7,1015.2,77,0,-1,18.5,14.3,34370,223,7.4,4.8
2019,8,16,11:00,UTC,7,1015.1,75,0,-1,18.3,13.9,30960,213,7.4,4.4
2019,8,16,11:10,UTC,7,1015.1,72,0,-1,19,13.9,41960,202,7,4
2019,8,16,11:20,UTC,7,1015.2,75,0,-1,19,14.4,31600,226,8.6,4.8
2019,8,16,11:30,UTC,7,1015.2,70,0,-1,19,13.4,33370,228,10,6.7
2019,8,16,11:40,UTC,7,1015.2,67,0,-1,19.4,13.1,31220,221,8.4,3.8
2019,8,16,11:50,UTC,7,1015.3,68,0,-1,20.1,14,35540,223,7.9,4.5
2019,8,16,12:00,UTC,7,1015.3,74,0,-1,19.3,14.5,37810,226,8.2,5
2019,8,16,12:10,UTC,3,1015.3,75,0,-1,19.2,14.6,35380,228,9.2,5.4
2019,8,16,12:20,UTC,3,1015.2,70,0,-1,19.8,14.3,33370,227,8.8,5.5
2019,8,16,12:30,UTC,5,1015.2,74,0,-1,19.3,14.5,45860,222,10.7,5.8
2019,8,16,12:40,UTC,5,1015.3,73,0,-1,19,13.9,39040,219,8.9,6.4
2019,8,16,12:50,UTC,7,1015.2,73,0,-1,19.3,14.2,38670,217,10.2,7.4
2019,8,16,13:00,UTC,7,1015.2,70,0,-1,19.3,13.6,34980,222,9,6.3
2019,8,16,13:10,UTC,7,1015.2,71,0,-1,18.8,13.4,46910,217,8.8,6.9
2019,8,16,13:20,UTC,5,1015.3,74,0,-1,18.8,14.1,36080,221,9,6.5
2019,8,16,13:30,UTC,7,1015.3,72,0,-1,18.5,13.3,37930,219,8,5.4
2019,8,16,13:40,UTC,7,1015.4,71,0,-1,18.7,13.3,36720,215,7.6,5.7
2019,8,16,13:50,UTC,3,1015.4,70,0,-1,18.7,13.1,37370,215,8,5.2
2019,8,16,14:00,UTC,5,1015.3,68,0,-1,18.7,12.7,49590,217,6.4,4.2
2019,8,16,14:10,UTC,5,1015.3,68,0,-1,18.9,12.9,43230,231,6.3,3.6
2019,8,16,14:20,UTC,7,1015.4,67,0,-1,18.9,12.6,47150,238,5.7,3.2
2019,8,16,14:30,UTC,7,1015.3,67,0,-1,18.9,12.6,42870,241,5.5,3.4
2019,8,16,14:40,UTC,7,1015.2,66,0,-1,18.9,12.5,39660,233,4.1,2.4
2019,8,16,14:50,UTC,7,1015.2,63,0,-1,19,11.7,47040,217,4,2.8
2019,8,16,15:00,UTC,7,1015.1,63,0,-1,18.8,11.6,43480,222,5,3.5
2019,8,16,15:10,UTC,7,1015.1,71,0,-1,18.6,13.3,36280,222,4.2,2.8
2019,8,16,15:20,UTC,7,1015.1,68,0,-1,18.5,12.5,41920,222,4.6,3.2
2019,8,16,15:30,UTC,7,1015.1,66,0,-1,18.7,12.3,43660,218,4.2,2.5
2019,8,16,15:40,UTC,7,1015.1,67,0,-1,18.7,12.5,41810,219,3.9,2.4
2019,8,16,15:50,UTC,7,1015.1,68,0,-1,18.6,12.6,42590,216,4.3,3
2019,8,16,16:00,UTC,7,1015.1,69,0,-1,18.4,12.6,40160,217,4.9,3.4
2019,8,16,16:10,UTC,7,1015.1,70,0,-1,18.3,12.6,40890,212,3.5,2.2
2019,8,16,16:20,UTC,7,1015.1,69,0,-1,18.2,12.4,38410,206,3.8,2.8
2019,8,16,16:30,UTC,7,1015.1,74,0,-1,18.2,13.5,38990,205,3.4,2.3
2019,8,16,16:40,UTC,7,1015.1,77,0,-1,17.9,13.8,41440,193,3.4,2.3
2019,8,16,16:50,UTC,7,1015.2,76,0,-1,17.8,13.4,39390,181,4,2.6
2019,8,16,17:00,UTC,7,1015.2,75,0,-1,17.7,13.2,43410,190,4.1,2.7
2019,8,16,17:10,UTC,7,1015.2,73,0,-1,17.7,12.8,47390,197,4,2.8
2019,8,16,17:20,UTC,7,1015.3,74,0,-1,17.7,13,42990,197,3.2,2.4
2019,8,16,17:30,UTC,7,1015.3,75,0,-1,17.6,13.2,40870,182,3.4,2
2019,8,16,17:40,UTC,7,1015.2,73,0,-1,17.6,12.7,47120,178,3.6,2.2
2019,8,16,17:50,UTC,7,1015.2,75,0,-1,17.5,12.9,39940,175,4.2,2.7
2019,8,16,18:00,UTC,7,1015.2,74,0,-1,17.5,12.8,37250,164,4,2.8
2019,8,16,18:10,UTC,7,1015.2,78,0,-1,17.4,13.5,37680,156,4.6,3.1
2019,8,16,18:20,UTC,7,1015.3,78,0,-1,17.4,13.6,42480,164,4.5,2.9
2019,8,16,18:30,UTC,8,1015.2,79,0,-1,17.4,13.7,38140,163,4,2.6
2019,8,16,18:40,UTC,8,1015.2,81,0,-1,17.3,14,36190,153,3.8,2.6
2019,8,16,18:50,UTC,5,1015.3,80,0,-1,17.3,13.7,40920,156,4.3,2.5
2019,8,16,19:00,UTC,5,1015.2,80,0,-1,17.2,13.6,39810,150,4.4,2.8
2019,8,16,19:10,UTC,5,1015.2,81,0,-1,17.1,13.7,46400,138,4.7,3.3
2019,8,16,19:20,UTC,7,1015.2,80,0,-1,17.2,13.6,38770,143,4.9,3.3
2019,8,16,19:30,UTC,7,1015.3,82,0,-1,17.1,14,40180,144,4.7,2.8
2019,8,16,19:40,UTC,7,1015.3,82,0,-1,17.1,14,41120,139,4.6,3
2019,8,16,19:50,UTC,7,1015.3,81,0,-1,17.1,13.8,39440,138,4.6,3.1
2019,8,16,20:00,UTC,7,1015.2,79,0,-1,17.3,13.7,37980,132,4.7,3.2
2019,8,16,20:10,UTC,8,1015.2,80,0,-1,17.3,13.9,39750,124,4.8,3.3
2019,8,16,20:20,UTC,7,1015.2,82,0,-1,17.3,14.1,49750,126,5,3.4
2019,8,16,20:30,UTC,7,1015.3,82,0,-1,17.2,14.1,43990,131,4.8,2.8
2019,8,16,20:40,UTC,7,1015.3,83,0,-1,17.3,14.4,42060,132,4.2,2.9
2019,8,16,20:50,UTC,7,1015.4,85,0,-1,17.3,14.6,46200,131,4.8,3.2
2019,8,16,21:00,UTC,7,1015.3,85,0,-1,17.3,14.7,39320,138,4.7,2.9
2019,8,16,21:10,UTC,7,1015.4,84,0,-1,17.3,14.7,48850,135,4.3,2.9
2019,8,16,21:20,UTC,7,1015.4,84,0,-1,17.3,14.6,42670,138,4.1,2.6
2019,8,16,21:30,UTC,7,1015.3,83,0,-1,17.3,14.5,41360,142,4,2.8
2019,8,16,21:40,UTC,7,1015.3,82,0,-1,17.4,14.3,46780,145,4.4,2.8
2019,8,16,21:50,UTC,7,1015.2,81,0,-1,17.4,14.2,50000,149,4.9,3
2019,8,16,22:00,UTC,7,1015.2,80,0,-1,17.5,14,46370,148,5.2,3
2019,8,16,22:10,UTC,7,1015.2,80,0,-1,17.5,14,48800,145,4.6,3
2019,8,16,22:20,UTC,7,1015.2,80,0,-1,17.5,14,45780,138,4.4,3.1
2019,8,16,22:30,UTC,7,1015.2,81,0,-1,17.5,14.2,44770,134,5,3.2
2019,8,16,22:40,UTC,7,1015.2,80,0,-1,17.4,14,48620,137,4.4,2.9
2019,8,16,22:50,UTC,7,1015.2,80,0,-1,17.3,13.7,50000,141,3.9,2.5
2019,8,16,23:00,UTC,5,1015.2,79,0,-1,17.3,13.6,50000,141,4.4,2.9
2019,8,16,23:10,UTC,7,1015.1,78,0,-1,17.5,13.6,46500,142,3.9,2.6
2019,8,16,23:20,UTC,7,1015.1,78,0,-1,17.4,13.6,48900,143,4.7,3.1
2019,8,16,23:30,UTC,7,1015.2,78,0,-1,17.5,13.7,47270,145,5,3.1
2019,8,16,23:40,UTC,7,1015.1,79,0,-1,17.3,13.6,50000,152,5.7,3
2019,8,16,23:50,UTC,5,1015.1,79,0,-1,17.2,13.6,48580,149,5.7,3.5
2019,8,17,00:00,UTC,1,1015,80,0,-1,17,13.6,50000,147,5.5,3.3
2019,8,17,00:10,UTC,1,1015,81,0,-1,16.9,13.6,44500,145,5.3,3.3
2019,8,17,00:20,UTC,1,1015,82,0,-1,16.8,13.7,48260,140,5,3.3
2019,8,17,00:30,UTC,3,1015,82,0,-1,16.8,13.8,50000,140,5.5,3.2
2019,8,17,00:40,UTC,5,1014.9,82,0,-1,16.9,13.9,50000,141,5.1,3.3
2019,8,17,00:50,UTC,7,1014.9,83,0,-1,16.9,13.9,41480,146,5.4,3.1
2019,8,17,01:00,UTC,7,1014.8,82,0,-1,17,13.9,45500,140,4.9,3.1
2019,8,17,01:10,UTC,8,1014.8,82,0,-1,17,13.9,48220,138,4.9,3.1
2019,8,17,01:20,UTC,7,1014.8,82,0,-1,17,13.9,44170,142,5.1,3.2
2019,8,17,01:30,UTC,7,1014.7,82,0,-1,17.1,14,48290,144,5.7,3.3
2019,8,17,01:40,UTC,7,1014.6,82,0,-1,17.1,14,50000,142,5.9,3.5
2019,8,17,01:50,UTC,7,1014.7,82,0,-1,17.1,13.9,48950,143,5.4,3.2
2019,8,17,02:00,UTC,7,1014.6,82,0,-1,17,13.9,50000,145,6,3.4
2019,8,17,02:10,UTC,7,1014.5,82,0,-1,17,13.9,47360,150,6,3.2
2019,8,17,02:20,UTC,7,1014.5,82,0,-1,17,14,50000,146,5.2,3.2
2019,8,17,02:30,UTC,7,1014.5,81,0,-1,17.1,13.8,43850,151,5.9,3
2019,8,17,02:40,UTC,7,1014.4,80,0,-1,17.2,13.7,48720,153,5.6,3.4
2019,8,17,02:50,UTC,7,1014.4,80,0,-1,17.2,13.7,44660,156,6.6,4
2019,8,17,03:00,UTC,7,1014.5,80,0,-1,17.1,13.6,47000,159,5.9,3.5
2019,8,17,03:10,UTC,7,1014.5,80,0,-1,17.1,13.6,48620,162,6,4.1
2019,8,17,03:20,UTC,7,1014.6,81,0,-1,17.1,13.8,43590,164,5.7,3.9
2019,8,17,03:30,UTC,7,1014.6,80,0,-1,17.2,13.6,48000,165,5.1,3.2
2019,8,17,03:40,UTC,7,1014.5,78,0,-1,17.2,13.3,43710,173,5.5,3.6
2019,8,17,03:50,UTC,7,1014.5,78,0,-1,17.2,13.3,45810,170,7,4.3
2019,8,17,04:00,UTC,7,1014.6,78,0,-1,17.3,13.4,42880,174,6.2,3.6
2019,8,17,04:10,UTC,7,1014.6,78,0,-1,17.2,13.4,48160,176,7.8,4.4
2019,8,17,04:20,UTC,7,1014.6,78,0,-1,17.2,13.3,46120,176,6.5,4.1
2019,8,17,04:30,UTC,7,1014.7,78,0,-1,17.2,13.3,41980,176,6.1,3.9
2019,8,17,04:40,UTC,7,1014.7,79,0,-1,17.3,13.6,46940,178,7.1,4
2019,8,17,04:50,UTC,7,1014.8,80,0,-1,17.1,13.6,42500,177,5.7,3.8
2019,8,17,05:00,UTC,7,1014.8,80,0,-1,17.1,13.7,49020,181,4.7,3.1
2019,8,17,05:10,UTC,7,1014.8,81,0,-1,17.1,13.7,41710,177,5.6,3.2
2019,8,17,05:20,UTC,7,1014.8,81,0,-1,17.2,13.8,42830,185,6.3,3.3
2019,8,17,05:30,UTC,7,1014.8,79,0,-1,17.3,13.7,40000,188,6.6,3.5
2019,8,17,05:40,UTC,7,1014.8,79,0,-1,17.4,13.7,47130,189,6.4,3.9
2019,8,17,05:50,UTC,7,1014.9,79,0,-1,17.2,13.5,41830,185,5.2,3.2
2019,8,17,06:00,UTC,7,1014.9,81,0,-1,17.3,13.9,42620,184,5.6,3.3
2019,8,17,06:10,UTC,7,1014.9,80,0,-1,17.9,14.4,42540,181,5.6,3.6
2019,8,17,06:20,UTC,7,1015,79,0,-1,17.8,14.1,42710,187,5.8,3.5
2019,8,17,06:30,UTC,7,1015,80,0,-1,17.6,14.2,37610,191,6.8,4.2
2019,8,17,06:40,UTC,7,1015,81,0,-1,17.7,14.4,40620,191,6.1,3.7
2019,8,17,06:50,UTC,3,1014.9,82,0,-1,17.5,14.3,37120,192,6.9,4.5
2019,8,17,07:00,UTC,1,1014.9,79,0,-1,18.2,14.6,38670,185,5.8,3.5
2019,8,17,07:10,UTC,,,,,,,,,190,5.3,3.2
2019,8,17,07:20,UTC,3,1015.1,80,0,-1,17.9,14.4,37760,188,6.9,4.4
2019,8,17,07:30,UTC,3,1015.1,80,0,-1,17.7,14.3,34860,183,7,4.5
2019,8,17,07:40,UTC,1,1015.1,80,0,-1,18.2,14.7,34430,178,6.5,3.9
2019,8,17,07:50,UTC,1,1015.1,80,0,-1,18.4,14.8,39380,173,5.7,3.7
2019,8,17,08:00,UTC,0,1015.2,76,0,-1,18.5,14.1,34740,176,6,3.8
2019,8,17,08:10,UTC,0,1015.2,77,0,-1,18.3,14.2,33220,180,6.7,4.2
2019,8,17,08:20,UTC,0,1015.3,76,0,-1,18.5,14.2,39220,171,7,4.4
2019,8,17,08:30,UTC,0,1015.3,75,0,-1,18.7,14.2,33710,170,7,4.5
2019,8,17,08:40,UTC,0,1015.3,73,0,-1,19.1,14.2,31960,177,7,4.5
2019,8,17,08:50,UTC,0,1015.4,75,0,-1,18.8,14.2,31420,175,6.1,4.2
2019,8,17,09:00,UTC,0,1015.4,75,0,-1,18.6,14,30700,172,6.3,3.6
2019,8,17,09:10,UTC,1,1015.5,75,0,-1,18.4,14,43990,177,6.5,4.3
2019,8,17,09:20,UTC,1,1015.5,73,0,-1,19,14.1,37540,180,6,3.8
2019,8,17,09:30,UTC,3,1015.5,76,0,-1,18.8,14.4,35880,184,5.4,3.7
2019,8,17,09:40,UTC,5,1015.5,75,0,-1,18.9,14.3,36780,187,6,3.6
2019,8,17,09:50,UTC,7,1015.4,75,0,-1,18.9,14.3,31960,188,6.3,3.8
2019,8,17,10:00,UTC,5,1015.4,74,0,-1,19.2,14.4,36430,174,5.7,3.8
2019,8,17,10:10,UTC,5,1015.4,70,0,-1,19.5,14,40490,165,5.9,3.9
2019,8,17,10:20,UTC,5,1015.4,70,0,-1,19.7,14,36810,162,6.7,4.7
2019,8,17,10:30,UTC,7,1015.4,69,0,-1,19.4,13.5,32180,169,5.8,3.7
2019,8,17,10:40,UTC,7,1015.5,68,0,-1,19.4,13.3,31880,161,5.8,3.7
2019,8,17,10:50,UTC,5,1015.5,66,0,-1,20.1,13.4,34910,177,4.8,2.8
2019,8,17,11:00,UTC,3,1015.4,65,0,-1,20.5,13.6,30490,174,5.1,3.3
2019,8,17,11:10,UTC,5,1015.3,62,0,-1,21.1,13.7,40360,178,4.5,3.1
2019,8,17,11:20,UTC,5,1015.2,63,0,-1,21.6,14.3,33120,178,5.1,3.2
2019,8,17,11:30,UTC,5,1015.2,61,0,-1,21.3,13.5,31870,173,4.7,3.1
2019,8,17,11:40,UTC,3,1015.2,61,0,-1,21.3,13.5,35780,173,5.7,4
2019,8,17,11:50,UTC,3,1015.2,62,0,-1,21,13.5,33660,166,5.4,3.8
2019,8,17,12:00,UTC,3,1015.1,62,0,-1,21.4,13.8,36630,207,5.7,2.7
2019,8,17,12:10,UTC,3,1014.9,62,0,-1,21.9,14.4,29120,158,4.9,3.3
2019,8,17,12:20,UTC,1,1014.9,60,0,-1,21.4,13.4,36700,164,4.4,3.1
2019,8,17,12:30,UTC,1,1014.9,62,0,-1,21.1,13.5,41440,170,5.4,3.3
2019,8,17,12:40,UTC,3,1014.7,62,0,-1,21.4,13.7,40860,177,4.4,2.9
2019,8,17,12:50,UTC,5,1014.7,61,0,-1,21.6,13.8,43890,169,4.7,3.1
2019,8,17,13:00,UTC,3,1014.7,63,0,-1,21.4,14.1,36760,165,5.3,2.6
2019,8,17,13:10,UTC,5,1014.7,64,0,-1,20.9,13.8,39920,179,4.8,2.8
2019,8,17,13:20,UTC,5,1014.6,65,0,-1,20.7,13.9,41530,138,4.5,2.4
2019,8,17,13:30,UTC,7,1014.6,66,0,-1,20.7,14.2,38290,124,4.2,2.9
2019,8,17,13:40,UTC,7,1014.6,66,0,-1,20.5,13.9,44170,128,4.7,3.4
2019,8,17,13:50,UTC,7,1014.5,67,0,-1,20.1,13.8,43330,132,4.2,2.9
2019,8,17,14:00,UTC,7,1014.5,70,0,-1,19.9,14.3,39980,139,4.6,3
2019,8,17,14:10,UTC,7,1014.4,70,0,-1,20.4,14.7,40190,127,3.8,2.6
2019,8,17,14:20,UTC,7,1014.3,70,0,-1,20,14.4,41990,115,5,3.7
2019,8,17,14:30,UTC,5,1014.3,71,0,-1,20,14.7,39150,129,4.7,3.3
2019,8,17,14:40,UTC,5,1014.3,72,0,-1,20,14.8,38410,122,5,3.4
2019,8,17,14:50,UTC,1,1014.3,69,0,-1,19.9,14,39680,118,6.2,4.3
2019,8,17,15:00,UTC,1,1014.2,69,0,-1,19.8,13.9,43270,120,5.6,3.9
2019,8,17,15:10,UTC,0,1014.2,70,0,-1,19.8,14.1,45590,120,5,3.7
2019,8,17,15:20,UTC,0,1014.1,69,0,-1,19.8,14,43390,119,4.8,3.6
2019,8,17,15:30,UTC,1,1014.1,69,0,-1,20.2,14.4,43260,115,4.6,3.6
2019,8,17,15:40,UTC,3,1014.1,68,0,-1,20.1,13.9,43970,115,4.8,3.6
2019,8,17,15:50,UTC,3,1014,68,0,-1,20,13.8,41850,114,4.5,3.1
2019,8,17,16:00,UTC,1,1014,68,0,-1,20,13.9,38230,115,3.3,2.6
2019,8,17,16:10,UTC,1,1014,68,0,-1,19.9,13.8,46820,117,3.1,2.4
2019,8,17,16:20,UTC,3,1014,69,0,-1,19.9,14,43010,135,3.3,2.1
2019,8,17,16:30,UTC,5,1014,69,0,-1,19.8,14,42130,137,2.8,2
2019,8,17,16:40,UTC,7,1014,71,0,-1,19.7,14.3,46650,138,2.8,1.9
2019,8,17,16:50,UTC,7,1014,72,0,-1,19.6,14.3,43700,143,2.9,1.7
2019,8,17,17:00,UTC,5,1014,72,0,-1,19.6,14.5,42270,123,2.3,1.3
2019,8,17,17:10,UTC,5,1014,72,0,-1,19.6,14.5,40070,129,2.3,1.7
2019,8,17,17:20,UTC,5,1014,72,0,-1,19.6,14.4,47710,131,2.2,1.5
2019,8,17,17:30,UTC,5,1014,74,0,-1,19.4,14.7,40820,115,2.5,1.7
2019,8,17,17:40,UTC,3,1013.9,75,0,-1,19.3,14.7,44840,117,3.7,2.7
2019,8,17,17:50,UTC,1,1013.9,76,0,-1,19.1,14.8,50000,115,3.1,2.1
2019,8,17,18:00,UTC,0,1013.8,79,0,-1,18.8,15.1,43030,111,3.1,2.3
2019,8,17,18:10,UTC,0,1013.9,81,0,-1,18.5,15.1,41480,115,3.3,2.7
2019,8,17,18:20,UTC,0,1013.9,82,0,-1,18.4,15.2,41730,115,3.6,2.8
2019,8,17,18:30,UTC,0,1013.9,83,0,-1,18.1,15.1,42840,114,3.4,2.6
2019,8,17,18:40,UTC,0,1013.8,84,0,-1,17.7,15,43300,116,2.7,2.1
2019,8,17,18:50,UTC,0,1013.8,86,0,-1,17.4,15,37430,116,2.5,1.8
2019,8,17,19:00,UTC,0,1013.7,84,0,-1,17.7,15,39100,118,3.7,2.2
2019,8,17,19:10,UTC,1,1013.7,83,0,-1,17.9,15,44020,120,3.8,2.4
2019,8,17,19:20,UTC,3,1013.7,79,0,-1,18.3,14.6,42380,125,3.7,2.3
2019,8,17,19:30,UTC,3,1013.6,77,0,-1,18.6,14.5,46020,146,4.3,2.3
2019,8,17,19:40,UTC,5,1013.8,77,0,-1,18.8,14.6,46900,150,3.2,2
2019,8,17,19:50,UTC,5,1013.7,74,0,-1,19,14.3,47430,142,6,3.2
2019,8,17,20:00,UTC,7,1013.7,73,0,-1,18.9,13.9,47390,143,4.2,2.1
2019,8,17,20:10,UTC,7,1013.6,74,0,-1,19,14.2,50000,155,5.5,2.1
2019,8,17,20:20,UTC,7,1013.6,76,0,-1,18.9,14.6,45510,154,6,3.5
2019,8,17,20:30,UTC,7,1013.6,77,0,-1,18.7,14.6,46180,161,6.8,3.8
2019,8,17,20:40,UTC,7,1013.6,77,0,-1,18.8,14.6,49070,162,6.1,3.4
2019,8,17,20:50,UTC,7,1013.5,76,0,-1,18.8,14.4,45780,162,7.5,3.9
2019,8,17,21:00,UTC,5,1013.5,75,0,-1,18.8,14.2,42760,162,8.7,4.3
2019,8,17,21:10,UTC,3,1013.6,75,0,-1,18.7,14.2,43460,162,7.2,4.5
2019,8,17,21:20,UTC,1,1013.6,76,0,-1,18.5,14.2,47480,157,8.8,5.1
2019,8,17,21:30,UTC,1,1013.6,77,0,-1,18.3,14.3,49450,157,7.9,4.6
2019,8,17,21:40,UTC,1,1013.5,77,0,-1,18.3,14.2,44710,158,7.4,4.3
2019,8,17,21:50,UTC,1,1013.5,76,0,-1,18.3,14,50000,154,7.4,4.9
2019,8,17,22:00,UTC,1,1013.5,76,0,-1,18.2,13.9,45460,156,7.9,4.5
2019,8,17,22:10,UTC,1,1013.5,76,0,-1,18.2,13.8,46910,159,7.3,4.7
2019,8,17,22:20,UTC,3,1013.5,76,0,-1,18.2,13.8,50000,160,7.3,5
2019,8,17,22:30,UTC,5,1013.6,75,0,-1,18.3,13.7,50000,170,6.5,3.7
2019,8,17,22:40,UTC,7,1013.5,76,0,-1,18.2,13.8,47300,194,5.4,2.3
2019,8,17,22:50,UTC,7,1013.4,77,0,-1,18.1,14,43440,163,5.2,2.3
2019,8,17,23:00,UTC,7,1013.4,76,0,-1,18.1,13.9,50000,153,5.7,3.5
2019,8,17,23:10,UTC,7,1013.6,75,0,-1,18.2,13.7,45710,179,6.1,3.2
2019,8,17,23:20,UTC,5,1013.5,77,0,-1,18,13.9,46850,230,5.2,2.7
2019,8,17,23:30,UTC,5,1013.5,79,0,-1,17.8,14,47100,176,5,2.5
2019,8,17,23:40,UTC,5,1013.4,78,0,-1,17.8,13.8,49930,165,5,3.2
2019,8,17,23:50,UTC,3,1013.3,77,0,-1,17.6,13.6,44120,164,6.4,3.3
2019,8,18,00:00,UTC,1,1013.3,78,0,-1,17.4,13.5,46980,167,4.2,2.5
2019,8,18,00:10,UTC,1,1013.3,78,0,-1,17.5,13.5,46530,181,5.5,2.8
2019,8,18,00:20,UTC,0,1013.4,80,0,-1,16.9,13.5,44520,203,4.2,2.3
2019,8,18,00:30,UTC,0,1013.3,78,0,-1,17.2,13.4,47430,184,6.3,3.5
2019,8,18,00:40,UTC,0,1013.3,77,0,-1,17.4,13.4,49970,169,5.9,3.4
2019,8,18,00:50,UTC,1,1013.2,78,0,-1,17.3,13.5,41710,165,7.2,3.8
2019,8,18,01:00,UTC,3,1013.2,77,0,-1,17.4,13.4,42980,162,6.7,3.4
2019,8,18,01:10,UTC,3,1013.1,78,0,-1,17.3,13.4,49410,152,5.8,3.6
2019,8,18,01:20,UTC,1,1013.1,78,0,-1,17.3,13.4,44190,150,6.8,4
2019,8,18,01:30,UTC,1,1013,77,0,-1,17.3,13.2,49010,149,7,4.4
2019,8,18,01:40,UTC,1,1012.9,76,0,-1,17.2,13,50000,157,7.4,4.1
2019,8,18,01:50,UTC,1,1012.8,76,0,-1,17.3,12.9,49180,161,8.2,4.1
2019,8,18,02:00,UTC,1,1012.8,76,0,-1,17.1,12.9,46090,164,7.9,4.7
2019,8,18,02:10,UTC,1,1012.7,76,0,-1,17.2,12.9,44460,161,7.1,4.1
2019,8,18,02:20,UTC,0,1012.7,76,0,-1,17.1,12.8,49100,162,7,4.1
2019,8,18,02:30,UTC,3,1012.7,77,0,-1,17.1,13,47310,162,7,4.1
2019,8,18,02:40,UTC,5,1012.7,76,0,-1,17.2,12.9,44680,160,5,3.4
2019,8,18,02:50,UTC,7,1012.7,76,0,-1,17.1,12.8,45960,161,5.8,3.5
2019,8,18,03:00,UTC,7,1012.7,76,0,-1,17.1,12.9,48400,166,5.6,3.3
2019,8,18,03:10,UTC,5,1012.7,78,0,-1,17,13,48820,156,5.2,3
2019,8,18,03:20,UTC,1,1012.7,80,0,-1,16.9,13.4,42840,146,4.3,2.6
2019,8,18,03:30,UTC,1,1012.8,80,0,-1,16.8,13.3,42370,155,5.3,3
2019,8,18,03:40,UTC,0,1012.8,80,0,-1,16.7,13.2,46920,168,5.1,3.2
2019,8,18,03:50,UTC,0,1012.8,79,0,-1,16.9,13.2,48870,164,5.5,3.1
2019,8,18,04:00,UTC,0,1012.8,80,0,-1,16.8,13.4,42460,152,5,3.3
2019,8,18,04:10,UTC,0,1012.8,80,0,-1,16.9,13.4,50000,158,5.5,3.7
2019,8,18,04:20,UTC,0,1012.7,79,0,-1,17.1,13.4,43630,158,6.3,3.6
2019,8,18,04:30,UTC,0,1012.7,78,0,-1,17.3,13.4,50000,154,5.7,3.5
2019,8,18,04:40,UTC,0,1012.6,76,0,-1,17.7,13.4,44660,156,6,3.4
2019,8,18,04:50,UTC,0,1012.6,76,0,-1,17.7,13.3,50000,157,6.4,4
2019,8,18,05:00,UTC,0,1012.6,74,0,-1,18,13.3,44310,159,6.6,4.5
2019,8,18,05:10,UTC,0,1012.5,74,0,-1,18.2,13.4,46290,160,7.5,4.5
2019,8,18,05:20,UTC,0,1012.5,73,0,-1,18.3,13.3,41390,161,6.4,4.4
2019,8,18,05:30,UTC,0,1012.5,71,0,-1,18.4,13.1,49750,160,7.6,5.1
2019,8,18,05:40,UTC,0,1012.5,71,0,-1,18.3,12.9,42260,156,8.5,5.5
2019,8,18,05:50,UTC,0,1012.6,70,0,-1,18.3,12.7,46210,158,7.5,4.5
2019,8,18,06:00,UTC,0,1012.6,70,0,-1,18.3,12.8,44740,158,7.6,4.7
2019,8,18,06:10,UTC,0,1012.6,71,0,-1,18.3,13,38820,144,8.3,5.1
2019,8,18,06:20,UTC,1,1012.7,68,0,-1,18.7,12.8,45040,148,7.8,5.5
2019,8,18,06:30,UTC,3,1012.7,66,0,-1,19.1,12.6,37570,147,8.3,6
2019,8,18,06:40,UTC,5,1012.7,65,0,-1,19.2,12.5,43800,152,8.4,5.4
2019,8,18,06:50,UTC,7,1012.7,65,0,-1,19.2,12.4,39750,148,8.1,5.4
2019,8,18,07:00,UTC,7,1012.6,66,0,-1,18.4,11.9,42350,145,7.7,5.2
2019,8,18,07:10,UTC,7,1012.6,65,0,-1,18.7,12.1,47950,150,9.2,5.3
2019,8,18,07:20,UTC,7,1012.5,64,0,-1,18.9,11.9,40200,151,7.2,4.3
2019,8,18,07:30,UTC,7,1012.5,62,0,-1,19.4,12,48110,145,5.5,3.4
2019,8,18,07:40,UTC,7,1012.3,60,0,-1,19.7,11.6,46900,138,5.9,4
2019,8,18,07:50,UTC,7,1012.3,61,0,-1,19.6,11.9,47500,134,7.1,4.7
2019,8,18,08:00,UTC,5,1012.2,62,0,-1,19.7,12.1,37250,132,8.3,5
2019,8,18,08:10,UTC,7,1012.2,61,0,-1,19.7,11.9,44760,132,9.6,5.6
2019,8,18,08:20,UTC,5,1012.2,64,0,-1,19.3,12.3,45360,132,8.9,6
2019,8,18,08:30,UTC,5,1012.2,65,0,-1,19.8,13,46010,130,9.7,5.5
2019,8,18,08:40,UTC,5,1012.3,64,0,-1,19.6,12.6,45360,131,8,4.9
2019,8,18,08:50,UTC,7,1012.2,62,0,-1,20,12.6,43560,132,8.4,4.8
2019,8,18,09:00,UTC,8,1012.2,64,0,-1,19.5,12.6,49140,128,8.4,5.2
2019,8,18,09:10,UTC,8,1012.2,62,0,-1,19.8,12.3,46550,130,8.7,5.7
2019,8,18,09:20,UTC,7,1012.2,62,0,-1,19.6,12.2,45850,124,8.6,4.9
2019,8,18,09:30,UTC,7,1012.2,61,0,-1,19.8,12,44610,129,7.8,5
2019,8,18,09:40,UTC,7,1012.2,65,0,-1,19.6,12.9,45800,118,9,5.9
2019,8,18,09:50,UTC,7,1012.2,67,0,-1,19.2,13,45160,115,9.7,5.7
2019,8,18,10:00,UTC,7,1012.1,66,0,-1,19.5,13,41390,116,9.1,5.8
2019,8,18,10:10,UTC,7,1012.2,65,0,-1,19.4,12.7,49300,114,9.4,6.7
2019,8,18,10:20,UTC,7,1012.3,65,0,-1,19.4,12.6,44150,118,8.9,6
2019,8,18,10:30,UTC,7,1012.2,66,0,-1,19.2,12.6,47720,119,8.5,5.6
2019,8,18,10:40,UTC,7,1012.2,66,0,-1,19.1,12.6,48790,118,9.9,6.1
2019,8,18,10:50,UTC,7,1012.1,64,0,-1,19.4,12.3,50000,116,9.4,5.4
2019,8,18,11:00,UTC,7,1012,62,0,-1,20,12.6,46970,112,9.1,6.4
2019,8,18,11:10,UTC,7,1011.9,62,0,-1,20,12.6,37040,113,9.8,7.1
2019,8,18,11:20,UTC,7,1011.9,64,0,-1,19.8,12.7,42620,112,9.9,7.4
2019,8,18,11:30,UTC,7,1011.9,63,0,-1,19.7,12.5,42710,113,9.9,7.7
2019,8,18,11:40,UTC,7,1011.8,62,0,-1,20.8,13.2,38980,112,10.2,7.9
2019,8,18,11:50,UTC,5,1011.8,57,0,-1,20.7,11.9,45010,113,10.3,8
2019,8,18,12:00,UTC,3,1011.8,58,0,-1,20.7,12.1,41330,113,10.7,7.3
2019,8,18,12:10,UTC,3,1011.9,56,0,-1,21.1,12,42910,113,11.6,8.7
2019,8,18,12:20,UTC,3,1012,56,0,-1,21.1,12,34000,114,10.5,8.2
2019,8,18,12:30,UTC,5,1012,56,0,-1,21.2,12.1,35740,114,10.5,7.8
2019,8,18,12:40,UTC,3,1011.8,57,0,-1,20.7,11.8,39480,112,10.4,8.4
2019,8,18,12:50,UTC,5,1011.8,59,0,-1,20.2,11.8,46250,113,11.1,8.4
2019,8,18,13:00,UTC,3,1011.7,56,0,-1,20.7,11.7,47770,113,10.8,8.2
2019,8,18,13:10,UTC,1,1011.7,56,0,-1,20.3,11.4,49210,113,11.1,8.2
2019,8,18,13:20,UTC,1,1011.5,58,0,-1,20.4,11.8,49860,113,11.2,8.7
2019,8,18,13:30,UTC,0,1011.5,57,0,-1,20,11.3,49100,114,11.6,8.7
2019,8,18,13:40,UTC,1,1011.5,58,0,-1,20.1,11.5,40910,114,12,8.9
2019,8,18,13:50,UTC,1,1011.5,60,0,-1,19.9,11.9,48570,115,11.6,8.3
2019,8,18,14:00,UTC,3,1011.6,60,0,-1,19.7,11.7,44750,116,10.9,8.2
2019,8,18,14:10,UTC,5,1011.5,61,0,-1,19.7,12,47790,114,11.1,8.5
2019,8,18,14:20,UTC,7,1011.4,61,0,-1,19.6,11.9,46980,116,11.3,7.8
2019,8,18,14:30,UTC,7,1011.2,60,0,-1,19.8,11.9,43960,114,8.8,6
2019,8,18,14:40,UTC,7,1011.1,59,0,-1,19.9,11.7,46550,112,9.8,6.9
2019,8,18,14:50,UTC,5,1010.9,60,0,-1,19.6,11.6,50000,111,9.3,5.8
2019,8,18,15:00,UTC,3,1010.9,60,0,-1,19.7,11.6,40330,114,9.1,6.5
2019,8,18,15:10,UTC,3,1010.9,59,0,-1,19.5,11.4,50000,112,10.7,6
2019,8,18,15:20,UTC,5,1011,61,0,-1,19.3,11.6,50000,112,9.1,6.1
2019,8,18,15:30,UTC,5,1010.9,62,0,-1,19.2,11.7,50000,113,8.9,5.9
2019,8,18,15:40,UTC,7,1010.8,63,0,-1,19.2,11.9,50000,112,8.4,5.9
2019,8,18,15:50,UTC,5,1010.8,65,0,-1,19,12.2,49970,113,8.9,6
2019,8,18,16:00,UTC,7,1010.8,66,0,-1,19,12.5,50000,112,9,6.3
2019,8,18,16:10,UTC,7,1010.8,66,0,-1,19,12.6,50000,111,9.6,6.4
2019,8,18,16:20,UTC,7,1010.8,67,0,-1,19,12.7,47050,113,9.3,6.4
2019,8,18,16:30,UTC,7,1010.8,68,0,-1,18.9,12.8,47770,113,9.1,6.5
2019,8,18,16:40,UTC,7,1010.8,69,0,-1,18.8,12.9,49900,113,9.5,6.3
2019,8,18,16:50,UTC,7,1010.7,69,0,-1,18.8,13,50000,114,8.9,6
2019,8,18,17:00,UTC,7,1010.6,71,0,-1,18.7,13.3,50000,112,8.4,6.4
2019,8,18,17:10,UTC,7,1010.5,71,0,-1,18.8,13.3,50000,113,8.6,6.2
2019,8,18,17:20,UTC,7,1010.5,71,0,-1,18.8,13.4,46390,113,8.9,6.5
2019,8,18,17:30,UTC,7,1010.5,72,0,-1,18.8,13.5,46400,113,8.7,6.6
2019,8,18,17:40,UTC,7,1010.3,72,0,-1,18.7,13.6,50000,114,8.3,6.1
2019,8,18,17:50,UTC,7,1010.2,73,0,-1,18.8,13.8,46150,113,8.3,5.9
2019,8,18,18:00,UTC,7,1010.1,74,0,-1,18.7,14,50000,113,7.6,5.6
2019,8,18,18:10,UTC,7,1010,74,0,-1,18.8,14,48120,112,6.9,5.2
2019,8,18,18:20,UTC,7,1009.9,72,0,-1,19,13.8,50000,113,7.2,4.9
2019,8,18,18:30,UTC,7,1009.9,72,0,-1,19,13.8,50000,115,5.6,4.1
2019,8,18,18:40,UTC,7,1010,72,0,-1,19,13.9,50000,128,7.3,4.2
2019,8,18,18:50,UTC,7,1009.9,73,0,-1,18.9,14,45280,127,6.5,4.2
2019,8,18,19:00,UTC,5,1009.7,74,0,-1,18.7,14,48380,129,8.9,5.1
2019,8,18,19:10,UTC,5,1009.8,74,0,-1,18.7,14,49860,129,7.5,4.5
2019,8,18,19:20,UTC,7,1009.8,73,0,-1,18.8,13.9,50000,131,7.1,3.7
2019,8,18,19:30,UTC,7,1009.7,73,0,-1,18.8,13.9,50000,132,8,4.8
2019,8,18,19:40,UTC,7,1009.5,71,0,-1,19,13.7,50000,133,8,4.8
2019,8,18,19:50,UTC,7,1009.3,71,0,-1,18.9,13.6,42030,128,8.4,4.6
2019,8,18,20:00,UTC,7,1009.4,71,0,-1,18.8,13.5,48180,133,8.7,4.9
2019,8,18,20:10,UTC,7,1009.5,72,0,-1,18.8,13.5,50000,137,8.5,5.1
2019,8,18,20:20,UTC,7,1009.5,71,0,-1,18.8,13.3,50000,135,7.9,5.3
2019,8,18,20:30,UTC,7,1009.4,70,0,-1,18.8,13.3,48990,131,7.7,4.6
2019,8,18,20:40,UTC,7,1009.3,71,0,-1,18.7,13.3,50000,129,7.6,5
2019,8,18,20:50,UTC,7,1009.1,70,0,-1,18.7,13.2,42090,131,8.4,4.5
2019,8,18,21:00,UTC,7,1009.2,71,0,-1,18.7,13.3,49760,128,7.6,4.6
2019,8,18,21:10,UTC,7,1009.2,70,0,-1,18.7,13.1,49310,131,7.3,4.9
2019,8,18,21:20,UTC,7,1009.2,69,0,-1,18.7,12.9,48920,133,8,4.8
2019,8,18,21:30,UTC,7,1009.1,66,0,-1,18.9,12.5,46120,136,6.3,3.9
2019,8,18,21:40,UTC,7,1009,66,0,-1,19,12.5,49040,139,8.9,4
2019,8,18,21:50,UTC,7,1008.9,66,0,-1,19,12.4,50000,136,8,4.5
2019,8,18,22:00,UTC,7,1008.9,65,0,-1,19,12.3,45900,140,8.4,3.8
2019,8,18,22:10,UTC,7,1008.9,65,0,-1,19.1,12.3,49810,139,6.7,3.9
2019,8,18,22:20,UTC,8,1008.8,65,0,-1,19,12.3,50000,138,7.4,4.3
2019,8,18,22:30,UTC,7,1008.7,65,0,-1,19,12.3,46520,140,9.4,4.6
2019,8,18,22:40,UTC,7,1008.6,66,0,-1,19,12.4,50000,139,7.6,4.6
2019,8,18,22:50,UTC,7,1008.5,66,0,-1,18.9,12.5,50000,136,7.5,4.6
2019,8,18,23:00,UTC,7,1008.5,66,0,-1,19,12.5,50000,141,7.5,4.7
2019,8,18,23:10,UTC,7,1008.4,69,0,-1,18.8,12.9,24970,145,7,4.4
2019,8,18,23:20,UTC,7,1008.2,71,0,-1,18.5,13.1,50000,142,7.3,4.2
2019,8,18,23:30,UTC,7,1008.1,69,0,-1,18.5,12.8,47480,136,8.8,4.4
2019,8,18,23:40,UTC,7,1008,69,0,-1,18.5,12.8,48410,133,7.8,4.6
2019,8,18,23:50,UTC,7,1007.9,69,0,-1,18.5,12.7,50000,137,8.2,4.6
2019,8,19,00:00,UTC,7,1007.8,68,0,-1,18.6,12.6,50000,142,8.1,4.8
2019,8,19,00:10,UTC,7,1007.7,69,0,-1,18.6,12.7,50000,142,8,4.8
2019,8,19,00:20,UTC,7,1007.6,69,0,-1,18.5,12.7,48080,140,8.4,5
2019,8,19,00:30,UTC,7,1007.5,69,0,-1,18.6,12.7,50000,143,9.3,5.4
2019,8,19,00:40,UTC,7,1007.3,69,0,-1,18.5,12.8,42940,146,9.3,5.4
2019,8,19,00:50,UTC,7,1007.2,69,0,-1,18.6,12.8,50000,146,8.7,4.8
2019,8,19,01:00,UTC,7,1007.3,71,0,-1,18.4,13.1,35210,149,8.5,4.9
2019,8,19,01:10,UTC,7,1007,73,0,-1,18.2,13.2,37910,151,9.7,6
2019,8,19,01:20,UTC,7,1006.9,74,0,-1,18.1,13.4,27950,155,8.4,5.2
2019,8,19,01:30,UTC,7,1006.9,75,0,-1,18,13.4,47610,153,7.4,4.1
2019,8,19,01:40,UTC,7,1006.7,74,0,-1,18,13.4,38480,150,7.4,4.5
2019,8,19,01:50,UTC,7,1006.7,73,0,-1,18.1,13.2,46210,152,9.2,5.1
2019,8,19,02:00,UTC,7,1006.7,74,0,-1,18.1,13.3,40010,155,8.5,5
2019,8,19,02:10,UTC,7,1006.8,75,0,-1,18,13.5,47220,158,7.8,5.4
2019,8,19,02:20,UTC,7,1006.7,78,0,-1,17.7,13.8,27480,158,7.8,4.3
2019,8,19,02:30,UTC,7,1006.7,81,0.4,-1,17.4,14.1,29850,152,5.9,3.7
2019,8,19,02:40,UTC,7,1006.7,83,0.1,-1,17.3,14.3,27390,152,6.9,3.5
2019,8,19,02:50,UTC,7,1006.6,84,0.6,-1,17.1,14.4,16540,151,7.3,3.8
2019,8,19,03:00,UTC,7,1006.4,84,0.8,-1,17.1,14.3,17420,148,6.7,3.5
2019,8,19,03:10,UTC,7,1006.4,83,0.4,-1,17.1,14.2,20640,150,7.3,4
2019,8,19,03:20,UTC,7,1006.5,85,0.9,-1,17,14.4,15950,156,7.5,4.7
2019,8,19,03:30,UTC,7,1006.6,86,0.1,-1,16.9,14.5,22480,160,7,4.4
2019,8,19,03:40,UTC,7,1006.5,85,0.4,-1,16.9,14.4,25730,156,6.7,4.3
2019,8,19,03:50,UTC,7,1006.4,86,0.3,-1,16.9,14.5,20080,156,7.6,4.1
2019,8,19,04:00,UTC,8,1006.2,86,0.1,-1,16.9,14.5,27490,153,6.4,3.9
2019,8,19,04:10,UTC,8,1006.1,84,0,-1,17,14.3,34180,136,6.3,4.4
2019,8,19,04:20,UTC,7,1006.1,83,0,-1,17.1,14.2,32030,141,7,4.4
2019,8,19,04:30,UTC,7,1006.1,84,0.5,-1,17.1,14.4,16490,147,9.1,5.1
2019,8,19,04:40,UTC,7,1006.1,85,0.8,-1,17,14.4,19970,153,7.7,5.3
2019,8,19,04:50,UTC,7,1006,85,0.1,-1,16.9,14.5,28590,154,7.6,4.3
2019,8,19,05:00,UTC,7,1005.8,84,0,-1,17.1,14.3,37810,154,9.5,5.7
2019,8,19,05:10,UTC,7,1005.8,84,0,-1,17.1,14.4,33760,151,7.6,4.8
2019,8,19,05:20,UTC,7,1006,84,0,-1,17.2,14.5,21140,157,8.1,5.2
2019,8,19,05:30,UTC,7,1006.2,86,0.7,-1,17,14.5,10090,171,7.3,4.6
2019,8,19,05:40,UTC,7,1006.2,89,2,-1,16.6,14.7,6840,170,6.8,4.7
2019,8,19,05:50,UTC,7,1006.3,91,7.4,-1,16.3,14.8,2620,168,7.6,4.8
2019,8,19,06:00,UTC,7,1006.2,93,6.7,-1,16,14.9,3110,162,7.8,5.3
2019,8,19,06:10,UTC,7,1006.1,95,4.6,-1,15.9,15.1,4070,154,7.6,4.7
2019,8,19,06:20,UTC,8,1006,95,2.2,-1,15.9,15.2,6760,157,7,4.3
2019,8,19,06:30,UTC,8,1005.9,95,1.9,-1,16,15.2,7540,145,6.8,4
2019,8,19,06:40,UTC,7,1005.9,95,1.1,-1,16.1,15.3,8300,143,6.6,4
2019,8,19,06:50,UTC,7,1005.8,94,1.1,-1,16.1,15.1,11630,136,7.4,4.4
2019,8,19,07:00,UTC,7,1005.9,94,0.2,-1,16.2,15.2,19120,132,6.9,4.1
2019,8,19,07:10,UTC,7,1006,93,0,-1,16.2,15.1,16810,139,5.9,4
2019,8,19,07:20,UTC,8,1005.9,93,0,-1,16.2,15.1,18470,134,6.8,4.2
2019,8,19,07:30,UTC,8,1006,93,0,-1,16.3,15.2,24280,137,7.2,4.8
2019,8,19,07:40,UTC,8,1006,92,0,-1,16.4,15.1,23380,127,6.5,4
2019,8,19,07:50,UTC,7,1006,92,0,-1,16.5,15.2,24280,129,7.5,4.3
2019,8,19,08:00,UTC,7,1006,91,0,-1,16.6,15.1,27440,130,5.8,3.7
2019,8,19,08:10,UTC,7,1005.9,91,0,-1,16.7,15.1,26020,140,6.4,3.6
2019,8,19,08:20,UTC,7,1005.8,90,0,-1,16.7,15.1,8270,143,7.3,4.1
2019,8,19,08:30,UTC,7,1005.9,88,0.5,-1,17,15,27760,149,6.8,4
2019,8,19,08:40,UTC,8,1006,88,0,-1,17.1,15,30870,150,7.6,4.5
2019,8,19,08:50,UTC,7,1006,87,0,-1,17.3,15.1,25850,166,8,4.7
2019,8,19,09:00,UTC,8,1006.1,87,0,-1,17.4,15.1,8480,184,6.5,3.2
2019,8,19,09:10,UTC,7,1006.2,91,0.3,-1,17,15.6,5730,187,7.7,4.5
2019,8,19,09:20,UTC,7,1006.2,92,0,-1,17.1,15.7,10800,187,7.2,3.7
2019,8,19,09:30,UTC,8,1006.4,94,0,-1,17.3,16.4,13940,188,6.9,3.8
2019,8,19,09:40,UTC,7,1006.5,95,0,-1,17.5,16.7,12440,208,8,4.7
2019,8,19,09:50,UTC,7,1006.6,95,0,-1,17.6,16.7,9520,215,6.5,3.7
2019,8,19,10:00,UTC,8,1006.7,95,0,-1,17.7,16.8,6430,219,7.8,5.2
2019,8,19,10:10,UTC,8,1006.7,94,0,-1,17.7,16.7,11660,221,7.4,4.6
2019,8,19,10:20,UTC,7,1006.8,93,0,-1,18.1,16.9,13890,218,7.4,5.1
2019,8,19,10:30,UTC,7,1006.8,91,0,-1,18.5,17.1,16750,222,6.1,4
2019,8,19,10:40,UTC,5,1006.9,86,0,-1,19,16.6,21540,221,6.4,3.2
2019,8,19,10:50,UTC,3,1006.9,82,0,-1,19.5,16.4,36180,229,7.7,4.2
2019,8,19,11:00,UTC,1,1007.1,80,0,-1,19.2,15.6,39300,222,8.3,5.5
2019,8,19,11:10,UTC,1,1007.1,81,0,-1,19,15.6,37270,218,7.7,5.4
2019,8,19,11:20,UTC,1,1007.4,83,0,-1,19,16,45910,221,6.7,4.5
2019,8,19,11:30,UTC,1,1007.6,82,0,-1,18.7,15.6,50000,222,6.5,4.2
2019,8,19,11:40,UTC,1,1007.8,82,0,-1,18.9,15.7,45930,229,6.5,3.8
2019,8,19,11:50,UTC,1,1008,81,0,-1,19,15.6,41550,226,7.6,4.3
2019,8,19,12:00,UTC,1,1008.2,81,0,-1,18.9,15.6,43350,217,6.7,4.2
2019,8,19,12:10,UTC,1,1008.3,81,0,-1,18.9,15.5,50000,229,8.5,5.4
2019,8,19,12:20,UTC,1,1008.4,80,0,-1,18.9,15.4,43260,231,7.4,4.7
2019,8,19,12:30,UTC,1,1008.5,80,0,-1,19.2,15.6,40450,235,7.8,4.3
2019,8,19,12:40,UTC,1,1008.5,77,0,-1,19.3,15.2,44200,244,8.1,4.9
2019,8,19,12:50,UTC,1,1008.6,76,0,-1,19.3,15,41780,240,8.8,5.6
2019,8,19,13:00,UTC,0,1008.8,74,0,-1,19.3,14.6,45150,247,9.4,6.2
2019,8,19,13:10,UTC,0,1009.2,76,0,-1,19.1,14.7,43180,241,7.9,5
2019,8,19,13:20,UTC,1,1009.3,77,0,-1,19,14.9,44900,232,9.6,5.3
2019,8,19,13:30,UTC,3,1009.2,79,0,-1,18.7,15,43770,229,9.4,4.9
2019,8,19,13:40,UTC,5,1009.4,78,0,-1,18.6,14.7,40660,234,7.5,4.2
2019,8,19,13:50,UTC,5,1009.6,79,0,-1,18.6,14.9,40450,219,6.6,4.6
2019,8,19,14:00,UTC,5,1009.7,76,0,-1,18.9,14.6,47100,223,9,4.2
2019,8,19,14:10,UTC,3,1009.8,77,0,-1,19.3,15.1,40890,231,8.3,5
2019,8,19,14:20,UTC,1,1009.9,75,0,-1,19.1,14.5,46660,230,9.3,5.2
2019,8,19,14:30,UTC,1,1010.1,73,0,-1,19.2,14.2,39940,239,10.4,5.7
2019,8,19,14:40,UTC,1,1010.2,72,0,-1,19.1,14.1,49550,228,8.6,5.8
2019,8,19,14:50,UTC,0,1010.3,71,0,-1,19.3,13.9,48270,236,9.1,4.6
2019,8,19,15:00,UTC,1,1010.4,70,0,-1,19.5,14,44730,238,8.9,4.8
2019,8,19,15:10,UTC,0,1010.4,70,0,-1,19.3,13.7,44230,242,9.9,6
2019,8,19,15:20,UTC,1,1010.5,73,0,-1,18.9,14,48070,240,8.5,5
2019,8,19,15:30,UTC,0,1010.7,73,0,-1,18.7,13.8,50000,243,8.7,5.4
2019,8,19,15:40,UTC,1,1010.8,75,0,-1,18.5,13.9,47200,239,9.2,5.5
2019,8,19,15:50,UTC,1,1010.9,75,0,-1,18.6,14.1,47470,244,8.3,5.2
2019,8,19,16:00,UTC,1,1011,76,0,-1,18.5,14.2,43920,238,7.4,4.3
2019,8,19,16:10,UTC,1,1011.1,78,0,-1,18.3,14.3,42410,239,8.5,4.5
2019,8,19,16:20,UTC,1,1011.2,78,0,-1,18.1,14.3,50000,234,8.9,4.6
2019,8,19,16:30,UTC,0,1011.3,78,0,-1,18.3,14.4,47130,229,7.9,4.3
2019,8,19,16:40,UTC,0,1011.5,77,0,-1,18.3,14.3,44140,227,8,4.7
2019,8,19,16:50,UTC,0,1011.5,77,0,-1,18.3,14.1,47660,226,7.2,4.9
2019,8,19,17:00,UTC,0,1011.6,77,0,-1,18.2,14,46900,229,7.1,4.2
2019,8,19,17:10,UTC,0,1011.8,77,0,-1,18,13.9,50000,232,7.7,4.1
2019,8,19,17:20,UTC,0,1011.8,78,0,-1,17.7,13.8,47070,223,7.7,4.3
2019,8,19,17:30,UTC,0,1011.8,80,0,-1,17.5,14,49460,223,6.1,3.8
2019,8,19,17:40,UTC,0,1011.8,80,0,-1,17.5,13.9,44690,224,6.9,3.8
2019,8,19,17:50,UTC,0,1011.9,80,0,-1,17.4,13.9,50000,237,6.9,3.7
2019,8,19,18:00,UTC,0,1012.1,80,0,-1,17.3,13.9,50000,240,7.3,4.5
2019,8,19,18:10,UTC,0,1012.2,80,0,-1,17.2,13.8,46130,244,7.8,4.7
2019,8,19,18:20,UTC,0,1012.2,80,0,-1,17.2,13.8,50000,241,8.1,4.8
2019,8,19,18:30,UTC,0,1012.3,81,0,-1,17.1,13.8,50000,241,5.8,3.7
2019,8,19,18:40,UTC,0,1012.3,81,0,-1,16.9,13.6,50000,239,7.9,4.3
2019,8,19,18:50,UTC,0,1012.4,79,0,-1,16.9,13.3,50000,242,8.4,4.3
2019,8,19,19:00,UTC,0,1012.4,81,0,-1,16.7,13.5,46550,247,6.4,3.8
2019,8,19,19:10,UTC,0,1012.6,82,0,-1,16.6,13.5,49160,243,5.5,3.4
2019,8,19,19:20,UTC,0,1012.7,81,0,-1,16.6,13.4,49090,241,5.6,3.2
2019,8,19,19:30,UTC,0,1012.7,82,0,-1,16.5,13.4,43850,241,5.9,3.8
2019,8,19,19:40,UTC,0,1012.8,82,0,-1,16.5,13.4,45610,248,6.9,3.5
2019,8,19,19:50,UTC,0,1012.9,82,0,-1,16.5,13.4,49830,246,6.9,4.1
2019,8,19,20:00,UTC,0,1013,82,0,-1,16.6,13.5,44750,246,7.7,4.1
2019,8,19,20:10,UTC,0,1013.1,83,0,-1,16.5,13.6,43160,247,7.7,4.3
2019,8,19,20:20,UTC,0,1013.2,83,0,-1,16.5,13.5,40230,244,6.6,3.9
2019,8,19,20:30,UTC,0,1013.3,82,0,-1,16.6,13.5,41270,247,7.3,4
2019,8,19,20:40,UTC,0,1013.4,83,0,-1,16.5,13.5,39770,245,6.6,4.1
2019,8,19,20:50,UTC,0,1013.5,82,0,-1,16.5,13.4,36020,244,6.5,4
2019,8,19,21:00,UTC,0,1013.5,82,0,-1,16.4,13.4,35290,245,5.8,3.7
2019,8,19,21:10,UTC,0,1013.6,82,0,-1,16.3,13.3,39950,253,4.9,3.1
2019,8,19,21:20,UTC,0,1013.7,82,0,-1,16.3,13.3,37430,252,5.7,3.4
2019,8,19,21:30,UTC,0,1013.8,82,0,-1,16.3,13.2,37110,246,6.2,3.1
2019,8,19,21:40,UTC,0,1013.8,81,0,-1,16.4,13.1,32460,247,4.9,2.9
2019,8,19,21:50,UTC,0,1013.8,82,0,-1,16.3,13.2,39590,248,3.8,2.2
2019,8,19,22:00,UTC,0,1013.9,83,0,-1,15.9,13.1,34600,234,3.7,2.3
2019,8,19,22:10,UTC,0,1013.9,86,0,-1,15.4,13,29510,231,3.6,1.8
2019,8,19,22:20,UTC,0,1013.9,88,0,-1,15.2,13.2,30320,236,3.4,1.9
2019,8,19,22:30,UTC,0,1013.9,87,0,-1,15.7,13.5,32370,229,3.7,2.3
2019,8,19,22:40,UTC,0,1014,86,0,-1,16,13.8,28290,226,4.9,2.6
2019,8,19,22:50,UTC,0,1014,87,0,-1,16.2,13.9,26840,226,4.9,2.7
2019,8,19,23:00,UTC,0,1014,87,0,-1,16.2,14,26330,227,5.2,3
2019,8,19,23:10,UTC,0,1014,87,0,-1,16.1,14,24870,233,5,2.5
2019,8,19,23:20,UTC,0,1014,88,0,-1,16.1,14.1,27770,224,4,2.4
2019,8,19,23:30,UTC,0,1014,87,0,-1,16.2,14,24050,228,5.2,3.1
2019,8,19,23:40,UTC,0,1014.1,88,0,-1,16.1,14,24890,224,4.9,2.9
2019,8,19,23:50,UTC,0,1014.1,89,0,-1,16,14.3,22810,216,4.5,2.7
2019,8,20,00:00,UTC,0,1014.2,90,0,-1,16,14.3,20940,212,4.8,2.7
2019,8,20,00:10,UTC,0,1014.2,91,0,-1,16,14.4,19670,217,4.6,2.3
2019,8,20,00:20,UTC,0,1014.3,92,0,-1,16,14.6,19410,213,5.6,3.2
2019,8,20,00:30,UTC,0,1014.3,92,0,-1,16.1,14.8,21500,214,5.6,3.1
2019,8,20,00:40,UTC,0,1014.4,93,0,-1,16,14.9,20140,213,5.7,3.2
2019,8,20,00:50,UTC,1,1014.6,93,0,-1,16.2,15.1,17860,209,5.3,3.2
2019,8,20,01:00,UTC,5,1014.7,93,0,-1,16.4,15.2,18170,214,4.9,3.1
2019,8,20,01:10,UTC,5,1014.8,93,0,-1,16.4,15.3,17840,206,5.1,3.1
2019,8,20,01:20,UTC,7,1014.9,93,0,-1,16.4,15.3,15810,200,5,2.8
2019,8,20,01:30,UTC,7,1014.9,93,0,-1,16.5,15.4,16650,206,5.4,3.3
2019,8,20,01:40,UTC,7,1015,93,0,-1,16.6,15.5,16290,215,6.2,4.1
2019,8,20,01:50,UTC,7,1015.1,93,0,-1,16.6,15.3,17550,213,7,3.9
2019,8,20,02:00,UTC,7,1015.1,93,0,-1,16.5,15.3,16360,210,7.5,3.9
2019,8,20,02:10,UTC,7,1015.1,93,0,-1,16.4,15.3,18600,209,6.6,4.1
2019,8,20,02:20,UTC,5,1015.1,93,0,-1,16.4,15.2,16990,217,7.2,4
2019,8,20,02:30,UTC,5,1015.2,93,0,-1,16.4,15.3,17240,211,7.3,3.5
2019,8,20,02:40,UTC,5,1015.3,93,0,-1,16.3,15.2,16810,210,6.7,4.4
2019,8,20,02:50,UTC,7,1015.4,94,0,-1,16.3,15.3,15570,207,6.4,4.1
2019,8,20,03:00,UTC,7,1015.5,94,0,-1,16.4,15.3,15870,212,5.6,3.8
2019,8,20,03:10,UTC,5,1015.6,93,0,-1,16.5,15.4,15650,213,7.2,4.2
2019,8,20,03:20,UTC,3,1015.6,93,0,-1,16.6,15.5,17000,210,7.8,4.7
2019,8,20,03:30,UTC,5,1015.7,93,0,-1,16.6,15.5,16050,213,8.4,4.7
2019,8,20,03:40,UTC,7,1015.7,93,0,-1,16.6,15.5,15910,213,7.9,4.7
2019,8,20,03:50,UTC,7,1015.7,93,0,-1,16.5,15.5,15090,217,5.6,3.4
2019,8,20,04:00,UTC,7,1015.8,93,0,-1,16.5,15.4,15940,217,7,3.7
2019,8,20,04:10,UTC,8,1015.8,93,0,-1,16.6,15.4,16040,217,6.6,4.3
2019,8,20,04:20,UTC,8,1015.9,93,0,-1,16.7,15.5,16500,213,6.7,4.2
2019,8,20,04:30,UTC,8,1015.9,92,0,-1,16.7,15.5,16600,211,6.5,4
2019,8,20,04:40,UTC,8,1015.9,92,0,-1,16.8,15.5,17090,210,6.9,4
2019,8,20,04:50,UTC,7,1016.1,92,0,-1,16.8,15.4,17620,210,7.4,4.8
2019,8,20,05:00,UTC,7,1016.1,91,0,-1,16.9,15.4,18280,208,8,4.6
2019,8,20,05:10,UTC,8,1016.2,91,0,-1,16.9,15.5,17410,208,7.6,5.1
2019,8,20,05:20,UTC,8,1016.3,91,0,-1,16.9,15.4,18290,204,8,5.1
2019,8,20,05:30,UTC,8,1016.4,91,0,-1,16.8,15.3,19470,211,7.4,4.2
2019,8,20,05:40,UTC,8,1016.4,91,0,-1,16.9,15.4,19180,209,6.5,4
2019,8,20,05:50,UTC,8,1016.4,91,0,-1,16.9,15.4,18770,205,7.6,4.6
2019,8,20,06:00,UTC,7,1016.5,90,0,-1,17.2,15.4,17450,205,7.6,4.6
2019,8,20,06:10,UTC,7,1016.5,91,0,-1,17.1,15.5,20410,203,7.8,5.4
2019,8,20,06:20,UTC,8,1016.6,90,0,-1,16.9,15.4,17530,205,8.8,5.1
2019,8,20,06:30,UTC,8,1016.7,88,0,-1,17.4,15.4,21630,206,8.3,5.3
2019,8,20,06:40,UTC,7,1016.7,88,0,-1,17.5,15.5,25480,211,8.3,4.9
2019,8,20,06:50,UTC,7,1016.8,88,0,-1,17.6,15.6,21750,209,8.3,4.9
2019,8,20,07:00,UTC,7,1017,87,0,-1,17.6,15.4,24950,204,8.4,5.1
2019,8,20,07:10,UTC,7,1017,89,0,-1,17.3,15.4,20190,208,8.7,5.5
2019,8,20,07:20,UTC,7,1017.1,89,0,-1,17.4,15.5,19580,204,8.1,5
2019,8,20,07:30,UTC,7,1017.1,88,0,-1,17.5,15.5,18970,205,8.7,6.2
2019,8,20,07:40,UTC,5,1017.2,86,0,-1,17.9,15.6,20270,205,9,6.3
2019,8,20,07:50,UTC,5,1017.2,86,0,-1,18,15.7,20200,205,9.7,6.2
2019,8,20,08:00,UTC,7,1017.3,86,0,-1,17.8,15.4,22640,208,8.5,5.5
2019,8,20,08:10,UTC,7,1017.3,86,0,-1,18,15.5,22600,208,8.8,6
2019,8,20,08:20,UTC,7,1017.3,84,0,-1,18.4,15.6,21380,206,8.9,5.2
2019,8,20,08:30,UTC,7,1017.4,83,0,-1,18.8,15.9,25730,208,9.2,5.8
2019,8,20,08:40,UTC,5,1017.4,82,0,-1,18.9,15.8,21710,211,8.7,5.2
2019,8,20,08:50,UTC,3,1017.4,82,0,-1,19,15.8,23490,219,9.7,5.1
2019,8,20,09:00,UTC,1,1017.4,80,0,-1,19.2,15.7,25190,214,8.1,4.1
2019,8,20,09:10,UTC,1,1017.4,81,0,-1,19.2,15.9,26200,224,10.8,6.2
2019,8,20,09:20,UTC,1,1017.5,80,0,-1,19.1,15.6,26100,220,9,5.6
2019,8,20,09:30,UTC,1,1017.5,79,0,-1,19.6,15.8,30150,224,11.4,5.8
2019,8,20,09:40,UTC,1,1017.6,80,0,-1,19.3,15.8,29600,220,12.1,8
2019,8,20,09:50,UTC,0,1017.6,79,0,-1,19.4,15.7,24770,221,12.6,7.5
2019,8,20,10:00,UTC,0,1017.7,78,0,-1,19.5,15.6,25570,222,11.7,7.8
2019,8,20,10:10,UTC,0,1017.7,80,0,-1,19.2,15.7,26810,222,13,8.5
2019,8,20,10:20,UTC,0,1017.8,80,0,-1,19.2,15.6,26000,217,12,8.9
2019,8,20,10:30,UTC,0,1017.8,80,0,-1,19.6,16,32850,219,11.3,7.5
2019,8,20,10:40,UTC,0,1017.8,77,0,-1,19.9,15.7,28300,216,11.4,8
2019,8,20,10:50,UTC,0,1017.8,77,0,-1,19.2,15.2,26520,216,10.8,6.9
2019,8,20,11:00,UTC,0,1017.8,75,0,-1,19.9,15.3,25120,216,10.6,6.9
2019,8,20,11:10,UTC,0,1017.8,75,0,-1,20,15.5,32410,216,11.6,7.5
2019,8,20,11:20,UTC,0,1017.9,75,0,-1,20,15.3,28630,216,12,8.1
2019,8,20,11:30,UTC,0,1017.9,75,0,-1,19.6,15,31760,216,11.5,8.1
2019,8,20,11:40,UTC,0,1018,76,0,-1,19.6,15.3,24440,216,12,8.5
2019,8,20,11:50,UTC,0,1018.1,74,0,-1,19.9,15.1,27700,216,11.8,8.6
2019,8,20,12:00,UTC,0,1018.2,74,0,-1,20.1,15.4,27800,215,12.1,9
2019,8,20,12:10,UTC,0,1018.2,72,0,-1,20,14.9,29500,214,11.3,8.1
2019,8,20,12:20,UTC,0,1018.3,73,0,-1,19.6,14.7,30380,221,10.7,6.5
2019,8,20,12:30,UTC,0,1018.4,72,0,-1,20,14.9,33830,216,11.1,6.7
2019,8,20,12:40,UTC,0,1018.4,73,0,-1,20,15,33230,214,11.2,8.1
2019,8,20,12:50,UTC,0,1018.4,72,0,-1,19.9,14.6,31570,215,11.5,8.1
2019,8,20,13:00,UTC,0,1018.5,73,0,-1,20.1,15.1,31960,216,10.8,7.2
2019,8,20,13:10,UTC,0,1018.6,74,0,-1,19.9,15.1,32150,216,11.1,7.3
2019,8,20,13:20,UTC,0,1018.7,74,0,-1,19.6,14.8,32910,216,11.5,7.5
2019,8,20,13:30,UTC,0,1018.7,70,0,-1,19.7,14,40130,215,9.8,7.2
2019,8,20,13:40,UTC,0,1018.8,68,0,-1,19.8,13.6,37670,222,9.8,6.4
2019,8,20,13:50,UTC,0,1018.8,70,0,-1,19.2,13.6,39300,222,9.7,5.4
2019,8,20,14:00,UTC,0,1018.9,71,0,-1,19.5,14.1,37990,215,10.6,6.9
2019,8,20,14:10,UTC,0,1019,72,0,-1,19.6,14.4,31570,213,9.8,6.8
2019,8,20,14:20,UTC,0,1019.1,74,0,-1,19,14.2,30980,216,10,6.9
2019,8,20,14:30,UTC,0,1019.1,74,0,-1,19,14.1,35390,219,9.5,6.1
2019,8,20,14:40,UTC,0,1019.1,76,0,-1,18.9,14.5,34210,222,9.7,5.6
2019,8,20,14:50,UTC,0,1019.2,77,0,-1,18.8,14.6,37270,222,9.7,5.9
2019,8,20,15:00,UTC,0,1019.3,78,0,-1,18.9,15,31620,217,9.6,6.4
2019,8,20,15:10,UTC,0,1019.3,80,0,-1,18.7,15.1,30140,215,11.7,7.4
2019,8,20,15:20,UTC,0,1019.3,79,0,-1,18.4,14.7,32990,218,10.8,6.8
2019,8,20,15:30,UTC,0,1019.4,79,0,-1,18.3,14.6,33650,221,10.3,6.5
2019,8,20,15:40,UTC,0,1019.4,79,0,-1,18.5,14.8,29480,227,10.5,5.1
2019,8,20,15:50,UTC,0,1019.3,77,0,-1,18.5,14.4,30810,231,10.2,6.2
2019,8,20,16:00,UTC,0,1019.4,76,0,-1,18.5,14.2,32820,228,8.4,5.4
2019,8,20,16:10,UTC,0,1019.5,77,0,-1,18.5,14.4,30450,230,9.4,5.9
2019,8,20,16:20,UTC,0,1019.5,77,0,-1,18.4,14.3,31660,229,8.5,5
2019,8,20,16:30,UTC,0,1019.6,77,0,-1,18.3,14.1,30990,230,7.5,4.5
2019,8,20,16:40,UTC,0,1019.6,77,0,-1,18.2,14.1,28780,230,8.1,4.8
2019,8,20,16:50,UTC,0,1019.6,77,0,-1,18.1,14.1,32120,228,7.2,4.4
2019,8,20,17:00,UTC,0,1019.7,77,0,-1,18.1,14,34050,238,7.7,4.3
2019,8,20,17:10,UTC,0,1019.8,77,0,-1,18,13.9,27860,239,7.3,4.2
2019,8,20,17:20,UTC,0,1019.8,77,0,-1,17.9,13.8,28530,241,8.3,5.2
2019,8,20,17:30,UTC,0,1019.9,79,0,-1,17.8,14.1,26570,242,9.6,5.2
2019,8,20,17:40,UTC,0,1019.9,80,0,-1,17.7,14.1,27280,245,7.9,4.3
2019,8,20,17:50,UTC,0,1019.9,80,0,-1,17.6,14.1,23710,245,7.2,4.6
2019,8,20,18:00,UTC,0,1020,81,0,-1,17.5,14.2,27290,243,7.6,4
2019,8,20,18:10,UTC,0,1020,81,0,-1,17.5,14.2,24640,241,6.6,4
2019,8,20,18:20,UTC,0,1020,82,0,-1,17.4,14.2,24340,245,7.4,4.4
2019,8,20,18:30,UTC,0,1020,82,0,-1,17.3,14.3,23640,241,6.1,3.6
2019,8,20,18:40,UTC,0,1020.1,82,0,-1,17.3,14.2,24630,243,7.1,4.2
2019,8,20,18:50,UTC,0,1020.2,83,0,-1,17.3,14.3,22520,236,5.9,2.9
2019,8,20,19:00,UTC,0,1020.2,83,0,-1,17.3,14.4,24370,232,7.7,3.2
2019,8,20,19:10,UTC,0,1020.2,84,0,-1,17.2,14.4,20770,242,6.7,3.6
2019,8,20,19:20,UTC,0,1020.3,84,0,-1,17.1,14.4,20700,238,6.4,3.7
2019,8,20,19:30,UTC,0,1020.3,84,0,-1,17.1,14.4,23610,227,5.7,3.4
2019,8,20,19:40,UTC,0,1020.3,84,0,-1,17,14.4,22480,225,5.6,3.1
2019,8,20,19:50,UTC,0,1020.4,84,0,-1,17,14.3,23700,224,5.7,3.3
2019,8,20,20:00,UTC,0,1020.4,84,0,-1,17,14.2,21850,227,5.5,3.1
2019,8,20,20:10,UTC,0,1020.5,84,0,-1,16.9,14.2,24890,223,5.7,3.3
2019,8,20,20:20,UTC,0,1020.5,86,0,-1,16.7,14.4,21320,218,5,3.4
2019,8,20,20:30,UTC,0,1020.6,86,0,-1,16.7,14.4,21440,218,4.8,2.9
2019,8,20,20:40,UTC,0,1020.6,86,0,-1,16.8,14.5,20370,217,5.3,3
2019,8,20,20:50,UTC,0,1020.6,86,0,-1,16.8,14.5,24180,220,5.8,3.2
2019,8,20,21:00,UTC,0,1020.6,87,0,-1,16.8,14.6,23600,219,5.4,3
2019,8,20,21:10,UTC,0,1020.7,88,0,-1,16.6,14.6,21760,215,5,3.1
2019,8,20,21:20,UTC,0,1020.6,88,0,-1,16.6,14.6,19440,218,5.7,3.8
2019,8,20,21:30,UTC,0,1020.7,88,0,-1,16.7,14.7,20430,217,5.9,3.2
2019,8,20,21:40,UTC,0,1020.7,88,0,-1,16.7,14.6,22500,219,5.8,3.3
2019,8,20,21:50,UTC,0,1020.8,87,0,-1,16.7,14.6,22000,227,5,3
2019,8,20,22:00,UTC,1,1020.8,87,0,-1,16.7,14.6,23480,230,5.9,2.9
2019,8,20,22:10,UTC,1,1020.7,87,0,-1,16.8,14.6,22780,230,5.9,3.5
2019,8,20,22:20,UTC,3,1020.7,87,0,-1,16.8,14.6,23980,226,6.7,3.4
2019,8,20,22:30,UTC,3,1020.8,88,0,-1,16.8,14.7,23590,224,5.6,3.5
2019,8,20,22:40,UTC,3,1020.9,88,0,-1,16.8,14.8,23160,222,5.5,3.3
2019,8,20,22:50,UTC,3,1020.9,89,0,-1,16.8,14.9,24370,225,5.3,3.2
2019,8,20,23:00,UTC,1,1021,89,0,-1,16.8,14.9,22580,226,4.7,3.1
2019,8,20,23:10,UTC,1,1021,89,0,-1,16.7,14.9,20370,222,5.4,3.3
2019,8,20,23:20,UTC,1,1021,90,0,-1,16.7,14.9,19640,226,5.8,3
2019,8,20,23:30,UTC,0,1021.1,89,0,-1,16.7,15,21380,234,5.4,3.1
2019,8,20,23:40,UTC,0,1021.1,89,0,-1,16.8,15,24050,231,5.8,3.1
2019,8,20,23:50,UTC,0,1021.1,90,0,-1,16.7,15,21100,240,5.4,3.1
2019,8,21,00:00,UTC,0,1021.2,90,0,-1,16.7,15.1,22850,229,5.3,2.7
2019,8,21,00:10,UTC,0,1021.3,90,0,-1,16.7,15.1,22380,226,5.2,2.7
2019,8,21,00:20,UTC,0,1021.3,90,0,-1,16.7,15.1,21780,232,5.5,2.6
2019,8,21,00:30,UTC,0,1021.4,91,0,-1,16.6,15.1,20090,226,4.4,3
2019,8,21,00:40,UTC,0,1021.4,91,0,-1,16.5,15.1,19480,223,5.2,3
2019,8,21,00:50,UTC,0,1021.5,92,0,-1,16.5,15.2,18780,218,5,3
2019,8,21,01:00,UTC,3,1021.5,93,0,-1,16.5,15.3,17940,213,4.7,2.9
2019,8,21,01:10,UTC,3,1021.5,93,0,-1,16.5,15.3,16870,217,5.3,2.5
2019,8,21,01:20,UTC,3,1021.5,93,0,-1,16.3,15.2,15150,214,5,3.2
2019,8,21,01:30,UTC,1,1021.5,93,0,-1,16.3,15.2,16140,208,5.5,3.1
2019,8,21,01:40,UTC,1,1021.5,94,0,-1,16.3,15.3,15310,205,4.9,3.4
2019,8,21,01:50,UTC,1,1021.6,93,0,-1,16.4,15.3,16420,214,5,2.9
2019,8,21,02:00,UTC,3,1021.6,93,0,-1,16.3,15.3,17150,223,5.1,2.8
2019,8,21,02:10,UTC,5,1021.6,93,0,-1,16.5,15.3,16420,224,5.3,2.9
2019,8,21,02:20,UTC,5,1021.7,93,0,-1,16.5,15.3,17420,215,4.7,2.9
2019,8,21,02:30,UTC,5,1021.7,93,0,-1,16.5,15.4,16120,218,5.2,3.1
2019,8,21,02:40,UTC,5,1021.7,93,0,-1,16.4,15.3,15550,219,5.7,3.6
2019,8,21,02:50,UTC,7,1021.6,93,0,-1,16.4,15.3,16300,216,6.3,3.6
2019,8,21,03:00,UTC,5,1021.5,93,0,-1,16.3,15.1,16810,213,5.9,3.4
2019,8,21,03:10,UTC,3,1021.6,93,0,-1,16.4,15.2,18120,217,4.4,2
2019,8,21,03:20,UTC,1,1021.6,92,0,-1,16.4,15.2,18080,216,5.3,2.9
2019,8,21,03:30,UTC,1,1021.8,92,0,-1,16.4,15.2,18010,218,5.7,3.2
2019,8,21,03:40,UTC,3,1021.7,92,0,-1,16.5,15.2,17120,214,6.8,3.5
2019,8,21,03:50,UTC,3,1021.7,93,0,-1,16.5,15.3,17370,212,5.1,3.1
2019,8,21,04:00,UTC,5,1021.6,92,0,-1,16.6,15.3,18260,219,4.8,2.9
2019,8,21,04:10,UTC,7,1021.8,92,0,-1,16.6,15.3,17730,223,5.7,3.3
2019,8,21,04:20,UTC,7,1021.7,92,0,-1,16.6,15.4,17400,219,5.9,3.7
2019,8,21,04:30,UTC,8,1021.8,92,0,-1,16.7,15.4,17420,217,6.6,3.3
2019,8,21,04:40,UTC,7,1021.8,92,0,-1,16.7,15.3,17500,217,6,3.6
2019,8,21,04:50,UTC,8,1021.8,92,0,-1,16.6,15.3,16870,218,6.3,3.6
2019,8,21,05:00,UTC,8,1021.8,92,0,-1,16.7,15.3,17520,225,6.1,3.6
2019,8,21,05:10,UTC,7,1021.9,92,0,-1,16.7,15.4,17700,219,6.8,3.9
2019,8,21,05:20,UTC,8,1021.9,92,0,-1,16.7,15.4,18230,223,6.1,3.9
2019,8,21,05:30,UTC,8,1021.9,92,0,-1,16.7,15.4,18340,225,6.4,3.4
2019,8,21,05:40,UTC,8,1021.9,92,0,-1,16.7,15.4,16890,216,8,4.3
2019,8,21,05:50,UTC,8,1021.9,92,0,-1,16.9,15.5,16270,217,7,4.3
2019,8,21,06:00,UTC,7,1021.9,91,0,-1,16.9,15.4,17370,218,5.9,3.4
2019,8,21,06:10,UTC,7,1021.8,91,0,-1,16.9,15.4,17090,219,6.3,4
2019,8,21,06:20,UTC,7,1021.8,90,0,-1,17.3,15.6,18830,222,6.2,3.9
2019,8,21,06:30,UTC,7,1021.9,90,0,-1,17.1,15.4,17880,217,6.7,3.7
2019,8,21,06:40,UTC,7,1022,91,0,-1,17,15.5,17850,217,8.6,5.2
2019,8,21,06:50,UTC,7,1022.1,90,0,-1,17.6,15.8,17710,207,5.9,4
2019,8,21,07:00,UTC,7,1022,89,0,-1,17.3,15.5,17830,222,7,4.1
2019,8,21,07:10,UTC,7,1022,89,0,-1,17.3,15.6,17090,217,6.8,4.2
2019,8,21,07:20,UTC,7,1021.9,89,0,-1,17.5,15.6,19420,218,8,4.7
2019,8,21,07:30,UTC,7,1021.9,88,0,-1,17.6,15.6,19970,211,6.1,3.6
2019,8,21,07:40,UTC,7,1021.9,87,0,-1,17.6,15.5,18890,208,6.1,3.5
2019,8,21,07:50,UTC,5,1021.9,87,0,-1,17.9,15.7,20990,205,7.3,4.2
2019,8,21,08:00,UTC,3,1021.9,85,0,-1,17.8,15.4,21120,205,8.5,5.5
2019,8,21,08:10,UTC,3,1022,86,0,-1,17.9,15.5,19740,201,8,5.1
2019,8,21,08:20,UTC,5,1021.8,87,0,-1,17.7,15.5,20180,204,9.5,5.7
2019,8,21,08:30,UTC,7,1021.9,87,0,-1,17.6,15.4,19440,189,8.2,5
2019,8,21,08:40,UTC,7,1021.9,87,0,-1,17.5,15.2,19270,197,7.8,4.2
2019,8,21,08:50,UTC,7,1022,86,0,-1,17.9,15.5,18290,196,7,4
2019,8,21,09:00,UTC,7,1022.1,86,0,-1,17.7,15.4,20850,195,7.1,5.1
2019,8,21,09:10,UTC,7,1022.1,88,0,-1,17.5,15.5,17920,201,7.8,4.7
2019,8,21,09:20,UTC,7,1022.1,89,0,-1,17.8,15.8,16190,208,6.7,4.2
2019,8,21,09:30,UTC,7,1022,86,0,-1,18,15.7,20310,207,7.9,4.2
2019,8,21,09:40,UTC,7,1022,86,0,-1,17.9,15.5,18060,209,7.4,5
2019,8,21,09:50,UTC,5,1021.7,83,0,-1,18.7,15.7,20680,207,8.7,5.4
2019,8,21,10:00,UTC,5,1021.8,82,0,-1,18.3,15.3,23300,207,8,5.4
2019,8,21,10:10,UTC,3,1021.6,81,0,-1,19,15.6,27080,215,8.2,4.3
2019,8,21,10:20,UTC,5,1021.6,82,0,-1,18.6,15.4,26270,227,9.1,5.6
2019,8,21,10:30,UTC,3,1021.6,81,0,-1,19,15.7,22000,218,7.9,4.1
2019,8,21,10:40,UTC,3,1021.5,80,0,-1,19.1,15.6,26960,215,7.5,3.8
2019,8,21,10:50,UTC,1,1021.3,81,0,-1,18.5,15.2,26650,209,7,4.3
2019,8,21,11:00,UTC,1,1021.3,79,0,-1,19.2,15.5,21560,196,8.7,5.4
2019,8,21,11:10,UTC,1,1021.3,81,0,-1,18.8,15.4,21950,213,7.2,5.1
2019,8,21,11:20,UTC,3,1021.2,81,0,-1,18.9,15.6,21510,218,7.6,4.5
2019,8,21,11:30,UTC,3,1021.1,82,0,-1,18.7,15.6,23460,223,7.1,3.5
2019,8,21,11:40,UTC,1,1021.1,80,0,-1,18.9,15.5,24630,200,6.6,3.8
2019,8,21,11:50,UTC,1,1021.1,80,0,-1,19.2,15.7,24980,206,7.7,4.9
2019,8,21,12:00,UTC,1,1021,80,0,-1,19.1,15.6,27490,210,7.7,4.8
2019,8,21,12:10,UTC,3,1020.9,81,0,-1,18.9,15.5,26320,224,9.9,5.6
2019,8,21,12:20,UTC,3,1020.9,81,0,-1,18.9,15.6,27410,222,8.9,4.3
2019,8,21,12:30,UTC,3,1020.8,83,0,-1,18.5,15.5,23380,216,9,4
2019,8,21,12:40,UTC,3,1020.8,83,0,-1,18.5,15.7,21640,196,6.3,3.5
2019,8,21,12:50,UTC,1,1020.7,82,0,-1,19.2,16,23730,198,6.9,4.3
2019,8,21,13:00,UTC,1,1020.6,80,0,-1,18.7,15.2,26460,206,7.7,5.3
2019,8,21,13:10,UTC,1,1020.5,81,0,-1,18.9,15.5,27190,206,7.6,5.2
2019,8,21,13:20,UTC,1,1020.4,80,0,-1,18.9,15.3,25950,223,8.1,5.3
2019,8,21,13:30,UTC,1,1020.3,79,0,-1,19,15.2,25850,224,7.9,5.8
2019,8,21,13:40,UTC,1,1020.3,78,0,-1,18.8,14.9,23840,227,7.2,4.9
2019,8,21,13:50,UTC,1,1020.3,75,0,-1,19,14.5,28750,220,7,4.7
2019,8,21,14:00,UTC,0,1020.3,74,0,-1,19.2,14.5,37720,221,7,4
2019,8,21,14:10,UTC,1,1020.2,79,0,-1,18.6,14.8,32170,224,7.5,5.4
2019,8,21,14:20,UTC,1,1020.2,80,0,-1,18.6,15.1,27680,212,6.4,4.2
2019,8,21,14:30,UTC,1,1020.2,79,0,-1,19,15.3,26860,196,6.9,4.3
2019,8,21,14:40,UTC,1,1020.2,80,0,-1,18.7,15.2,27170,199,6.9,4.1
2019,8,21,14:50,UTC,1,1020.2,80,0,-1,18.6,15.1,31940,220,7.7,4.6
2019,8,21,15:00,UTC,0,1020.1,78,0,-1,18.7,14.9,27750,216,7.3,5.3
2019,8,21,15:10,UTC,1,1020.1,79,0,-1,18.6,15,30490,211,5.9,3.9
2019,8,21,15:20,UTC,3,1020.1,80,0,-1,18.7,15.1,25310,215,5.8,3.4
2019,8,21,15:30,UTC,3,1020.2,78,0,-1,18.9,15,31060,221,4.5,2.9
2019,8,21,15:40,UTC,5,1020.2,81,0,-1,18.5,15.2,27440,201,5.7,3.6
2019,8,21,15:50,UTC,3,1020.1,83,0,-1,18.2,15.2,23750,216,6.3,4.4
2019,8,21,16:00,UTC,1,1020,83,0,-1,18.5,15.4,29230,207,5.5,3.3
2019,8,21,16:10,UTC,1,1020,84,0,-1,18.4,15.6,25100,198,5.5,3.5
2019,8,21,16:20,UTC,1,1020.1,83,0,-1,18.3,15.4,28250,203,6.9,4.2
2019,8,21,16:30,UTC,3,1020,85,0,-1,18.1,15.6,27650,202,5.8,3.6
2019,8,21,16:40,UTC,3,1020,85,0,-1,17.9,15.3,34000,203,6.3,3.7
2019,8,21,16:50,UTC,1,1020.1,88,0,-1,17.6,15.5,27660,193,6.7,3.5
2019,8,21,17:00,UTC,3,1020.1,87,0,-1,17.5,15.4,26310,195,6.2,3.9
2019,8,21,17:10,UTC,3,1020,88,0,-1,17.3,15.4,28960,205,7,4.2
2019,8,21,17:20,UTC,1,1020.1,89,0,-1,17.3,15.5,29040,202,6.1,3.9
2019,8,21,17:30,UTC,1,1020.1,89,0,-1,17.2,15.4,26370,199,6.7,4
2019,8,21,17:40,UTC,1,1020.1,90,0,-1,17.1,15.3,32810,206,7.6,4.2
2019,8,21,17:50,UTC,1,1020,89,0,-1,16.9,15.1,25890,206,7,4.1
2019,8,21,18:00,UTC,1,1020.1,88,0,-1,16.9,14.9,30850,203,6.3,3.8
2019,8,21,18:10,UTC,3,1020.1,87,0,-1,16.9,14.7,30810,208,5.2,3.5
2019,8,21,18:20,UTC,5,1020.1,86,0,-1,16.8,14.5,38210,208,7,3.8
2019,8,21,18:30,UTC,7,1020.1,86,0,-1,16.9,14.5,40640,212,6.3,3.5
2019,8,21,18:40,UTC,3,1020.1,84,0,-1,16.9,14.2,38520,215,6.5,4.3
2019,8,21,18:50,UTC,1,1020.1,84,0,-1,16.8,14.2,39650,223,5.4,3.3
2019,8,21,19:00,UTC,3,1020,84,0,-1,16.8,14.1,36520,227,4.6,2.7
2019,8,21,19:10,UTC,1,1020.1,83,0,-1,16.9,14,42410,240,4.7,3
2019,8,21,19:20,UTC,3,1020.1,82,0,-1,16.9,13.8,43470,250,5.4,3.3
2019,8,21,19:30,UTC,1,1020.1,78,0,-1,17,13.2,45950,255,4.1,2.7
2019,8,21,19:40,UTC,1,1020.1,76,0,-1,17,12.6,46320,265,5.6,3.2
2019,8,21,19:50,UTC,1,1020.2,75,0,-1,16.8,12.3,49660,266,5.4,3
2019,8,21,20:00,UTC,0,1020.2,74,0,-1,16.7,12,48110,273,3.8,2.5
2019,8,21,20:10,UTC,0,1020.3,74,0,-1,16.6,11.9,50000,277,6.2,3.4
2019,8,21,20:20,UTC,0,1020.3,75,0,-1,16.4,12,49250,284,5.5,3.5
2019,8,21,20:30,UTC,0,1020.4,76,0,-1,16.2,12,48110,281,5.5,3.8
2019,8,21,20:40,UTC,0,1020.4,76,0,-1,16.2,12,49340,285,5.3,3.1
2019,8,21,20:50,UTC,0,1020.4,76,0,-1,16,11.8,44790,282,5.5,3.5
2019,8,21,21:00,UTC,0,1020.5,77,0,-1,15.8,11.8,43630,283,4.8,3.1
2019,8,21,21:10,UTC,0,1020.5,78,0,-1,15.7,11.8,45860,283,4.9,3.3
2019,8,21,21:20,UTC,0,1020.5,80,0,-1,15.3,11.8,46390,284,4.7,2.8
2019,8,21,21:30,UTC,0,1020.5,80,0,-1,15.3,11.9,50000,282,4.4,2.6
2019,8,21,21:40,UTC,0,1020.4,79,0,-1,15.5,11.9,50000,283,5.2,3.4
2019,8,21,21:50,UTC,0,1020.4,83,0,-1,14.7,11.8,38160,280,4,2.1
2019,8,21,22:00,UTC,0,1020.3,86,0,-1,14.1,11.7,37720,283,3.6,2.5
2019,8,21,22:10,UTC,0,1020.3,87,0,-1,14,11.8,42100,276,4,2.6
2019,8,21,22:20,UTC,0,1020.4,87,0,-1,14,11.9,41160,289,4,2.7
2019,8,21,22:30,UTC,0,1020.5,84,0,-1,14.7,12,50000,284,4.8,3.1
2019,8,21,22:40,UTC,0,1020.4,85,0,-1,14.4,11.9,45390,299,4.6,2.9
2019,8,21,22:50,UTC,0,1020.5,85,0,-1,14.4,11.8,47970,290,5.1,3.2
2019,8,21,23:00,UTC,0,1020.4,86,0,-1,13.9,11.7,44640,287,4.6,2.9
2019,8,21,23:10,UTC,0,1020.5,89,0,-1,13.5,11.7,36960,296,2.9,1.9
2019,8,21,23:20,UTC,0,1020.5,91,0,-1,13.2,11.7,41070,297,3.4,2.1
2019,8,21,23:30,UTC,0,1020.5,92,0,-1,13.1,11.8,44260,289,3.6,2.2
2019,8,21,23:40,UTC,0,1020.6,93,0,-1,13,11.9,34930,287,4.2,2.6
2019,8,21,23:50,UTC,0,1020.6,88,0,-1,14.3,12.3,42730,273,3.4,2.2
2019,8,22,00:00,UTC,0,1020.7,86,0,-1,14.5,12.2,47670,263,3.9,2.4