Year,m,d,Time,Time zone,Cloud amount (1/8),Pressure (msl) (hPa),Relative humidity (%),Precipitation intensity (mm/h),Snow depth (cm),Air temperature (degC),Dew-point temperature (degC),Horizontal visibility (m),Wind direction (deg),Gust speed (m/s),Wind speed (m/s)
2019,7,15,00:00,UTC,7,1011.3,84,0,-1,15.2,12.5,50000,257,2.9,2
2019,7,15,00:10,UTC,7,1011.3,87,0,-1,14.6,12.4,50000,254,3.6,2.3
2019,7,15,00:20,UTC,7,1011.3,87,0,-1,14.5,12.4,50000,260,3.4,1.8
2019,7,15,00:30,UTC,7,1011.2,88,0,-1,14.2,12.3,50000,252,2.5,1.7
2019,7,15,00:40,UTC,7,1011.2,89,0,-1,14.2,12.4,50000,236,2.7,1.7
2019,7,15,00:50,UTC,7,1011.1,85,0,-1,15,12.4,50000,243,2.7,1.9
2019,7,15,01:00,UTC,7,1011.1,85,0,-1,15,12.5,50000,241,3,2.1
2019,7,15,01:10,UTC,7,1011.1,87,0,-1,14.4,12.3,50000,260,2.6,1.5
2019,7,15,01:20,UTC,5,1011,88,0,-1,14.4,12.4,50000,217,3,1.9
2019,7,15,01:30,UTC,5,1011,90,0,-1,14,12.4,49730,263,2.2,1.1
2019,7,15,01:40,UTC,3,1011,91,0,-1,13.7,12.3,50000,337,2.5,1.6
2019,7,15,01:50,UTC,3,1010.9,93,0,-1,13.2,12.1,50000,312,1.2,0.7
2019,7,15,02:00,UTC,1,1010.9,94,0,-1,13.1,12.1,40820,0,0,0
2019,7,15,02:10,UTC,1,1010.9,95,0,-1,12.9,12,40560,0,0,0
2019,7,15,02:20,UTC,0,1010.9,95,0,-1,12.9,12.1,45060,0,0,0
2019,7,15,02:30,UTC,1,1010.8,96,0,-1,13.2,12.6,34600,63,1.3,0.8
2019,7,15,02:40,UTC,0,1010.7,96,0,-1,13,12.3,32200,102,1.4,1
2019,7,15,02:50,UTC,1,1010.7,96,0,-1,13,12.4,31210,115,1.6,1.2
2019,7,15,03:00,UTC,1,1010.7,97,0,-1,13.3,12.7,30360,108,1.6,1
2019,7,15,03:10,UTC,1,1010.7,97,0,-1,13.5,12.9,24920,113,1.4,1
2019,7,15,03:20,UTC,1,1010.7,97,0,-1,13.8,13.2,29130,90,1.3,0.6
2019,7,15,03:30,UTC,0,1010.7,96,0,-1,13.6,13.1,23420,115,1.4,0.9
2019,7,15,03:40,UTC,1,1010.7,96,0,-1,14.1,13.4,28440,117,2,1.3
2019,7,15,03:50,UTC,1,1010.7,95,0,-1,14.2,13.4,39820,123,1.9,1.6
2019,7,15,04:00,UTC,1,1010.6,94,0,-1,14.3,13.4,41550,131,2.2,1.5
2019,7,15,04:10,UTC,0,1010.5,92,0,-1,15.2,14,41160,130,2.2,1.6
2019,7,15,04:20,UTC,0,1010.6,89,0,-1,15.7,13.8,50000,114,2,1.4
2019,7,15,04:30,UTC,1,1010.6,87,0,-1,16.1,14,50000,105,2.3,1.4
2019,7,15,04:40,UTC,1,1010.5,82,0,-1,17,14,43930,164,3,1.1
2019,7,15,04:50,UTC,3,1010.5,82,0,-1,16.9,13.9,48090,200,2.7,1.1
2019,7,15,05:00,UTC,3,1010.5,81,0,-1,16.8,13.6,45910,200,3.1,1.6
2019,7,15,05:10,UTC,5,1010.5,80,0,-1,16.6,13.3,47940,211,3.5,2.1
2019,7,15,05:20,UTC,5,1010.5,81,0,-1,16.7,13.4,48760,195,3.5,2
2019,7,15,05:30,UTC,5,1010.5,82,0,-1,16.6,13.6,47180,198,3.4,2.2
2019,7,15,05:40,UTC,5,1010.5,84,0,-1,17.1,14.3,40830,194,3.4,2.2
2019,7,15,05:50,UTC,5,1010.3,83,0,-1,17.1,14.3,43720,200,3.7,2.4
2019,7,15,06:00,UTC,5,1010.3,84,0,-1,16.9,14.1,49250,197,3.7,2.2
2019,7,15,06:10,UTC,5,1010.3,80,0,-1,17.9,14.3,46890,185,3.7,2.6
2019,7,15,06:20,UTC,5,1010.3,80,0,-1,17.1,13.6,43090,213,3.4,2
2019,7,15,06:30,UTC,5,1010.4,81,0,-1,17,13.6,45510,213,3.4,2
2019,7,15,06:40,UTC,5,1010.4,79,0,-1,16.9,13.2,44530,177,4.3,2.5
2019,7,15,06:50,UTC,3,1010.3,79,0,-1,16.8,13.2,49520,153,4.3,3
2019,7,15,07:00,UTC,3,1010.3,79,0,-1,17.1,13.5,37600,178,4.8,2.9
2019,7,15,07:10,UTC,3,1010.2,76,0,-1,17.6,13.3,47470,191,4.1,2.8
2019,7,15,07:20,UTC,1,1010.2,76,0,-1,18,13.7,47030,187,3.6,2
2019,7,15,07:30,UTC,1,1010.1,74,0,-1,18.5,13.8,47200,156,3.8,1.7
2019,7,15,07:40,UTC,3,1010.1,74,0,-1,17.9,13.1,50000,154,3.5,2.2
2019,7,15,07:50,UTC,3,1010,73,0,-1,18.4,13.4,43750,136,4.4,2.7
2019,7,15,08:00,UTC,,,,,,,,,155,4.6,2.8
2019,7,15,08:10,UTC,1,1010,73,0,-1,18.3,13.3,39940,151,4.2,2.8
2019,7,15,08:20,UTC,1,1010,75,0,-1,17.6,13,49380,141,4.6,2.7
2019,7,15,08:30,UTC,0,1010,76,0,-1,18.2,13.9,35810,132,4.7,3.2
2019,7,15,08:40,UTC,1,1010,73,0,-1,18.9,13.8,39700,139,5.2,3.8
2019,7,15,08:50,UTC,3,1010.1,73,0,-1,17.8,13,45400,159,6,3.8
2019,7,15,09:00,UTC,5,1010.1,80,0,-1,17.2,13.7,43180,165,6.2,4.5
2019,7,15,09:10,UTC,7,1010.1,84,0,-1,16.6,13.8,43680,163,6.6,4.6
2019,7,15,09:20,UTC,7,1010,83,0,-1,17.3,14.3,48200,148,5.2,3.5
2019,7,15,09:30,UTC,7,1010,80,0,-1,17.6,14.2,48930,142,5.2,3.5
2019,7,15,09:40,UTC,7,1009.8,81,0,-1,17.5,14.1,50000,133,5.7,4.1
2019,7,15,09:50,UTC,5,1009.8,72,0,-1,18.8,13.7,50000,144,6,3.5
2019,7,15,10:00,UTC,3,1009.8,69,0,-1,18.2,12.4,44910,160,6.5,4.3
2019,7,15,10:10,UTC,1,1009.8,73,0,-1,19,14,35170,165,6.1,4.1
2019,7,15,10:20,UTC,0,1009.8,74,0,-1,18.7,14.1,36530,186,5.8,3.8
2019,7,15,10:30,UTC,0,1009.7,72,0,-1,18.9,13.8,36250,192,6.5,4.1
2019,7,15,10:40,UTC,0,1009.7,67,0,-1,18.7,12.5,38590,209,7.1,4.9
2019,7,15,10:50,UTC,1,1009.7,70,0,-1,19,13.3,38470,227,6.8,4.5
2019,7,15,11:00,UTC,5,1009.8,66,0,-1,18.1,11.7,47840,229,7.7,4.6
2019,7,15,11:10,UTC,7,1009.8,66,0,-1,17.3,11,45150,219,7.3,5.3
2019,7,15,11:20,UTC,7,1009.7,68,0,-1,17.2,11.3,48480,223,6.4,4.5
2019,7,15,11:30,UTC,7,1009.7,69,0,-1,17.1,11.4,49470,228,7.7,4.9
2019,7,15,11:40,UTC,7,1009.7,73,0,-1,16.9,12,36830,226,7.3,5.5
2019,7,15,11:50,UTC,7,1009.7,66,0,-1,17.4,11.1,42060,227,7.3,4.6
2019,7,15,12:00,UTC,7,1009.7,64,0,-1,18,11.1,43180,215,6.1,4.2
2019,7,15,12:10,UTC,7,1009.7,65,0,-1,18.4,11.7,50000,212,5.5,3.6
2019,7,15,12:20,UTC,7,1009.6,59,0,-1,18.8,10.7,41530,218,6.1,3.7
2019,7,15,12:30,UTC,7,1009.6,62,0,-1,18.3,11,45500,213,5.6,4.5
2019,7,15,12:40,UTC,7,1009.6,63,0,-1,18.5,11.3,46840,224,5.9,4.2
2019,7,15,12:50,UTC,7,1009.5,60,0,-1,18.2,10.2,45220,210,6.7,3.3
2019,7,15,13:00,UTC,7,1009.5,61,0,-1,18.2,10.6,45190,216,5.4,3.4
2019,7,15,13:10,UTC,7,1009.5,57,0,-1,18.7,9.9,43450,228,5.7,4
2019,7,15,13:20,UTC,7,1009.5,57,0,-1,18.7,10,47660,209,6.7,3.6
2019,7,15,13:30,UTC,7,1009.4,57,0,-1,19.1,10.4,48040,204,6.4,4.3
2019,7,15,13:40,UTC,3,1009.4,54,0,-1,19.1,9.6,39930,207,5.7,3.3
2019,7,15,13:50,UTC,1,1009.4,49,0,-1,18.9,8,40940,208,5.6,3.6
2019,7,15,14:00,UTC,1,1009.3,51,0,-1,18.9,8.6,43050,211,5.8,4.2
2019,7,15,14:10,UTC,1,1009.2,48,0,-1,18.9,7.5,47300,207,6.4,4.6
2019,7,15,14:20,UTC,1,1009.2,51,0,-1,19.1,8.8,46820,209,5.5,3.6
2019,7,15,14:30,UTC,0,1009.1,56,0,-1,18.5,9.7,45290,190,5.7,3.5
2019,7,15,14:40,UTC,0,1009.1,54,0,-1,18.8,9.3,45810,208,5.4,3.6
2019,7,15,14:50,UTC,0,1009,51,0,-1,19,8.7,50000,207,6,4.1
2019,7,15,15:00,UTC,0,1008.9,51,0,-1,18.6,8.4,50000,203,5,3.6
2019,7,15,15:10,UTC,0,1008.9,46,0,-1,18.2,6.4,50000,201,4.6,3.5
2019,7,15,15:20,UTC,1,1008.9,48,0,-1,18.5,7.4,50000,192,5.7,3.5
2019,7,15,15:30,UTC,3,1008.9,49,0,-1,18.3,7.5,50000,170,4.8,3.2
2019,7,15,15:40,UTC,3,1008.8,45,0,-1,18.7,6.4,50000,162,5.3,3.2
2019,7,15,15:50,UTC,3,1008.8,55,0,-1,17.9,8.7,50000,175,4.8,3.2
2019,7,15,16:00,UTC,1,1008.8,67,0,-1,17.9,11.7,50000,180,6.1,3.7
2019,7,15,16:10,UTC,5,1008.9,67,0,-1,17.6,11.4,50000,180,6.1,3.5
2019,7,15,16:20,UTC,5,1008.9,67,0,-1,17.6,11.5,50000,172,5.7,4
2019,7,15,16:30,UTC,7,1008.9,66,0,-1,17.5,11,40630,178,5.6,3.7
2019,7,15,16:40,UTC,7,1008.8,67,0,-1,17.4,11.3,50000,179,5.7,4.1
2019,7,15,16:50,UTC,7,1008.8,72,0,-1,17.1,11.9,50000,176,6,3.6
2019,7,15,17:00,UTC,7,1008.8,73,0,-1,17,12.1,50000,173,6,3.8
2019,7,15,17:10,UTC,7,1008.7,70,0,-1,17,11.5,50000,178,5.8,4
2019,7,15,17:20,UTC,7,1008.5,71,0,-1,17,11.7,50000,180,5.2,3
2019,7,15,17:30,UTC,7,1008.4,73,0,-1,17,12.1,50000,159,4.7,3.1
2019,7,15,17:40,UTC,7,1008.2,72,0,-1,16.8,11.7,50000,157,4.6,3
2019,7,15,17:50,UTC,7,1008.1,73,0,-1,16.6,11.8,38880,142,4.8,2.7
2019,7,15,18:00,UTC,7,1008.1,70,0,-1,16.5,11.1,50000,145,3.9,2.9
2019,7,15,18:10,UTC,7,1008.1,68,0,-1,16.5,10.6,50000,146,4.3,2.6
2019,7,15,18:20,UTC,7,1008,68,0,-1,16.5,10.5,50000,148,4.6,2.8
2019,7,15,18:30,UTC,8,1008,68,0,-1,16.5,10.6,50000,140,4.7,3.5
2019,7,15,18:40,UTC,8,1008,69,0,-1,16.4,10.7,50000,141,5,3.7
2019,7,15,18:50,UTC,7,1008.1,66,0,-1,16.3,10,50000,140,4.9,3.5
2019,7,15,19:00,UTC,7,1007.9,63,0,-1,16.3,9.2,50000,144,4.5,3.2
2019,7,15,19:10,UTC,5,1007.9,72,0,-1,16.2,11.2,50000,138,5,3.4
2019,7,15,19:20,UTC,7,1007.8,80,0,-1,16.3,12.9,50000,135,5.3,3.1
2019,7,15,19:30,UTC,5,1007.7,82,0,-1,16.3,13.3,50000,123,4.2,2.9
2019,7,15,19:40,UTC,7,1007.6,83,0,-1,16.4,13.5,50000,125,4.3,2.8
2019,7,15,19:50,UTC,7,1007.6,81,0,-1,16.5,13.1,24260,132,5.4,3.1
2019,7,15,20:00,UTC,7,1007.6,82,0.6,-1,16.1,13.1,24020,129,5.6,3.2
2019,7,15,20:10,UTC,7,1007.6,83,0,-1,16.2,13.2,50000,131,5.6,3.2
2019,7,15,20:20,UTC,7,1007.4,83,0,-1,16.3,13.4,50000,131,4.9,3.3
2019,7,15,20:30,UTC,7,1007.4,84,0,-1,16.2,13.6,37500,121,4.6,2.5
2019,7,15,20:40,UTC,7,1007.4,85,0,-1,16.2,13.7,50000,118,5.1,3.2
2019,7,15,20:50,UTC,5,1007.3,86,0,-1,16.2,13.8,49110,140,4.7,3.3
2019,7,15,21:00,UTC,5,1007.2,86,0,-1,16.2,13.8,50000,153,4.3,2.9
2019,7,15,21:10,UTC,1,1007.1,82,0,-1,16.1,13.1,35070,160,5.8,3.8
2019,7,15,21:20,UTC,1,1007.1,81,0,-1,16.1,12.8,50000,161,6.8,4.4
2019,7,15,21:30,UTC,0,1007,82,0,-1,16.1,13.1,50000,156,6.6,3.7
2019,7,15,21:40,UTC,0,1007,83,0,-1,16.1,13.2,50000,153,5.9,3.3
2019,7,15,21:50,UTC,1,1007,82,0,-1,16.1,13,50000,157,6.2,3.5
2019,7,15,22:00,UTC,1,1007,78,0,-1,16.2,12.3,50000,162,6.3,3.9
2019,7,15,22:10,UTC,1,1007,80,0,-1,16,12.6,50000,160,7.5,4.2
2019,7,15,22:20,UTC,3,1006.9,79,0,-1,16.2,12.5,50000,157,6.5,4.3
2019,7,15,22:30,UTC,5,1006.8,79,0,-1,16.2,12.5,48920,159,6,4.1
2019,7,15,22:40,UTC,7,1006.7,79,0,-1,16.1,12.5,50000,159,6.9,3.8
2019,7,15,22:50,UTC,7,1006.7,79,0,-1,16.1,12.5,50000,162,6.1,3.7
2019,7,15,23:00,UTC,7,1006.6,81,0,-1,15.9,12.6,50000,166,6,3.4
2019,7,15,23:10,UTC,5,1006.6,81,0,-1,15.9,12.7,50000,163,5.8,3.7
2019,7,15,23:20,UTC,5,1006.6,82,0,-1,15.9,12.8,50000,157,6.1,3.9
2019,7,15,23:30,UTC,5,1006.5,82,0,-1,15.9,12.9,46240,160,6.1,3.9
2019,7,15,23:40,UTC,5,1006.5,82,0,-1,15.8,12.7,50000,159,5.8,3.6
2019,7,15,23:50,UTC,5,1006.5,83,0,-1,15.6,12.8,50000,171,5.6,3.9
2019,7,16,00:00,UTC,3,1006.4,84,0,-1,15.5,12.8,50000,167,6.4,4
2019,7,16,00:10,UTC,5,1006.4,84,0,-1,15.6,12.8,47860,172,6.8,4
2019,7,16,00:20,UTC,3,1006.5,84,0,-1,15.4,12.7,50000,173,6.7,3.8
2019,7,16,00:30,UTC,5,1006.5,85,0,-1,15.3,12.8,50000,171,6,3.9
2019,7,16,00:40,UTC,5,1006.5,84,0,-1,15.4,12.8,50000,172,6.2,4
2019,7,16,00:50,UTC,7,1006.4,85,0,-1,15.4,12.8,47770,167,5.7,3.8
2019,7,16,01:00,UTC,7,1006.4,84,0,-1,15.5,12.8,48490,168,6.6,3.9
2019,7,16,01:10,UTC,8,1006.4,84,0,-1,15.5,12.9,44370,174,6.3,4.3
2019,7,16,01:20,UTC,7,1006.4,86,0,-1,15.5,13.1,44120,173,6.2,3.8
2019,7,16,01:30,UTC,7,1006.3,86,0,-1,15.6,13.3,37380,169,5.7,3.8
2019,7,16,01:40,UTC,7,1006.3,86,0,-1,15.6,13.3,35140,172,5.7,3.4
2019,7,16,01:50,UTC,7,1006.3,85,0,-1,15.8,13.2,35470,175,4.9,3.1
2019,7,16,02:00,UTC,7,1006.3,85,0,-1,15.7,13.3,38850,175,5,3
2019,7,16,02:10,UTC,7,1006.3,85,0,-1,15.8,13.3,34980,176,5.6,3.4
2019,7,16,02:20,UTC,7,1006.4,85,0,-1,15.7,13.3,37550,174,5.7,3.7
2019,7,16,02:30,UTC,7,1006.4,84,0,-1,15.7,13,42360,169,6.2,3.7
2019,7,16,02:40,UTC,8,1006.4,84,0,-1,15.6,12.9,36870,167,5.9,4
2019,7,16,02:50,UTC,7,1006.4,85,0,-1,15.6,13,38870,166,6.7,4.7
2019,7,16,03:00,UTC,7,1006.4,85,0,-1,15.6,13.1,41770,160,6.2,4
2019,7,16,03:10,UTC,7,1006.5,85,0,-1,15.7,13.1,37640,165,7.2,4.8
2019,7,16,03:20,UTC,7,1006.5,83,0,-1,15.7,12.9,35290,170,9.1,4.9
2019,7,16,03:30,UTC,7,1006.5,84,0,-1,15.5,12.8,28700,176,7.1,4.8
2019,7,16,03:40,UTC,7,1006.5,84,0,-1,15.6,12.8,30720,183,6.7,3.8
2019,7,16,03:50,UTC,7,1006.5,83,0.4,-1,15.5,12.7,26600,186,6.6,3.4
2019,7,16,04:00,UTC,7,1006.5,84,0,-1,15.4,12.8,26290,185,5.8,3.3
2019,7,16,04:10,UTC,7,1006.5,83,0.3,-1,15.3,12.5,23680,179,7.5,4.2
2019,7,16,04:20,UTC,7,1006.4,85,0.1,-1,15.2,12.8,22870,175,7.3,4.3
2019,7,16,04:30,UTC,7,1006.4,88,0.5,-1,15.2,13.1,24480,164,6.2,3.8
2019,7,16,04:40,UTC,7,1006.4,87,0,-1,15.1,12.9,23670,153,5.7,3.1
2019,7,16,04:50,UTC,7,1006.3,86,0.4,-1,15.1,12.8,19080,144,5.6,3.3
2019,7,16,05:00,UTC,7,1006.3,87,0.5,-1,15,12.8,15350,140,5.5,3.3
2019,7,16,05:10,UTC,7,1006.3,86,0.1,-1,15,12.7,32640,141,4.9,3.2
2019,7,16,05:20,UTC,7,1006.3,86,0,-1,15.1,12.7,35410,135,6.5,4.1
2019,7,16,05:30,UTC,7,1006.3,87,0,-1,15.2,13.1,31690,131,6,4
2019,7,16,05:40,UTC,7,1006.3,86,0.3,-1,15.1,12.9,24950,126,5.1,3.6
2019,7,16,05:50,UTC,7,1006.4,87,0,-1,15.1,12.9,27470,117,5.7,4.2
2019,7,16,06:00,UTC,7,1006.4,87,0,-1,15.3,13.2,25630,120,5.1,3.7
2019,7,16,06:10,UTC,7,1006.5,87,0.4,-1,15.3,13.2,25210,124,6.6,3.9
2019,7,16,06:20,UTC,7,1006.5,88,0,-1,15.3,13.2,29590,120,6,3.8
2019,7,16,06:30,UTC,7,1006.5,88,0.3,-1,15.4,13.4,28990,115,5.8,4.1
2019,7,16,06:40,UTC,7,1006.7,87,0,-1,15.5,13.4,26160,115,5.8,4.4
2019,7,16,06:50,UTC,7,1006.7,89,0,-1,15.6,13.8,30920,117,6.6,4.2
2019,7,16,07:00,UTC,7,1006.7,87,0,-1,15.8,13.7,35120,120,6.3,4
2019,7,16,07:10,UTC,7,1006.8,87,0,-1,15.7,13.5,44660,113,7.9,5.2
2019,7,16,07:20,UTC,7,1006.7,87,0,-1,15.8,13.6,43420,113,7.1,5.4
2019,7,16,07:30,UTC,7,1006.8,86,0,-1,15.8,13.6,37950,109,7.2,4.9
2019,7,16,07:40,UTC,7,1006.8,87,0,-1,15.9,13.6,15110,108,6.1,4.3
2019,7,16,07:50,UTC,7,1006.9,88,1,-1,15.6,13.7,30890,102,6.6,4.2
2019,7,16,08:00,UTC,7,1006.9,87,0,-1,15.7,13.5,27010,103,5.6,3.7
2019,7,16,08:10,UTC,7,1006.9,85,0.3,-1,15.5,12.9,21200,105,7.5,4.7
2019,7,16,08:20,UTC,7,1006.9,87,0,-1,15.5,13.3,39010,91,6.4,4.2
2019,7,16,08:30,UTC,7,1006.9,87,0,-1,15.7,13.5,36190,91,5.7,3.5
2019,7,16,08:40,UTC,7,1007,87,0,-1,16,13.8,45030,92,4.9,2.6
2019,7,16,08:50,UTC,7,1007,87,0,-1,16.4,14.2,37760,95,5.3,2.9
2019,7,16,09:00,UTC,5,1007,86,0,-1,17,14.6,35590,97,5.6,3
2019,7,16,09:10,UTC,5,1007,85,0,-1,17.4,14.9,42150,97,6.8,3.9
2019,7,16,09:20,UTC,7,1007,80,0,-1,17.3,13.8,44840,92,7.3,4.4
2019,7,16,09:30,UTC,7,1006.9,76,0,-1,17.6,13.3,44410,100,6.3,4.4
2019,7,16,09:40,UTC,7,1006.9,76,0,-1,17.6,13.3,34210,100,6.9,4.3
2019,7,16,09:50,UTC,7,1006.8,72,0,-1,17.7,12.7,46810,98,7.4,4.8
2019,7,16,10:00,UTC,7,1006.8,77,0,-1,17.6,13.4,43360,98,7.5,4.9
2019,7,16,10:10,UTC,7,1007,78,0,-1,18,14.1,43800,105,7.9,4.6
2019,7,16,10:20,UTC,7,1007,78,0,-1,18.2,14.2,47020,100,8.6,5.3
2019,7,16,10:30,UTC,7,1006.9,76,0,-1,18.7,14.5,46250,100,7.8,4.8
2019,7,16,10:40,UTC,5,1006.9,72,0,-1,19.7,14.4,38940,91,8.4,5.5
2019,7,16,10:50,UTC,5,1007,72,0,-1,18.8,13.5,42580,105,7.8,4.9
2019,7,16,11:00,UTC,7,1006.9,72,0,-1,18.7,13.6,41300,114,10.1,7
2019,7,16,11:10,UTC,7,1006.8,72,0,-1,18.9,13.8,45340,113,10.8,7.4
2019,7,16,11:20,UTC,7,1006.8,69,0,-1,19.6,13.9,45050,116,10.1,7
2019,7,16,11:30,UTC,3,1006.9,66,0,-1,19.6,13,40850,117,10.2,7.5
2019,7,16,11:40,UTC,1,1007,68,0,-1,19.6,13.5,44120,117,10.2,7.5
2019,7,16,11:50,UTC,3,1007.1,72,0,-1,18.7,13.5,42750,117,10.2,7.3
2019,7,16,12:00,UTC,5,1007.2,74,0,-1,18.5,13.8,43450,120,9,6
2019,7,16,12:10,UTC,7,1007.4,77,0,-1,18.1,14,39680,116,8.9,6.4
2019,7,16,12:20,UTC,7,1007.5,79,0,-1,17.9,14.2,23230,117,8.9,5.5
2019,7,16,12:30,UTC,7,1007.7,82,0.7,-1,17.5,14.5,14000,127,6.6,4.3
2019,7,16,12:40,UTC,7,1008,85,0.5,-1,17.3,14.8,20100,123,6.5,4.7
2019,7,16,12:50,UTC,7,1008.3,74,0,-1,16.2,11.5,25360,117,12.7,7.7
2019,7,16,13:00,UTC,7,1008.2,84,0.1,-1,15.1,12.4,10590,117,10.6,7
2019,7,16,13:10,UTC,7,1008.1,88,4,-1,14.8,12.9,7170,101,8.4,5.3
2019,7,16,13:20,UTC,7,1008.5,87,0.9,-1,14.7,12.6,9560,108,8.6,6
2019,7,16,13:30,UTC,7,1008.5,88,3.3,-1,14.9,13,6320,133,6,3.4
2019,7,16,13:40,UTC,7,1008.5,82,0.1,-1,14.9,11.9,14430,138,10.3,5.1
2019,7,16,13:50,UTC,7,1008.6,87,2.3,-1,14.2,12,5630,162,10.3,6.2
2019,7,16,14:00,UTC,7,1008.5,88,3.4,-1,14,12.1,4750,152,5.7,2.5
2019,7,16,14:10,UTC,7,1008.3,89,2.9,-1,14.3,12.6,7890,119,5.3,3.1
2019,7,16,14:20,UTC,5,1008.2,86,0.8,-1,14.8,12.5,22630,96,4.3,2.7
2019,7,16,14:30,UTC,5,1008.3,88,0,-1,15,13.2,30860,103,3.5,2
2019,7,16,14:40,UTC,5,1008.3,90,0,-1,15.1,13.4,36070,108,4.8,2.6
2019,7,16,14:50,UTC,7,1008.2,87,0,-1,15.1,12.9,34850,92,4.6,2.8
2019,7,16,15:00,UTC,7,1008.3,88,0,-1,15.2,13.2,33650,86,4.4,3.3
2019,7,16,15:10,UTC,7,1008.5,88,0,-1,15.3,13.3,27960,92,4.8,3
2019,7,16,15:20,UTC,7,1008.5,88,0,-1,15.4,13.4,34500,98,5.8,3.3
2019,7,16,15:30,UTC,7,1008.7,87,0,-1,15.6,13.4,39130,100,5,3.5
2019,7,16,15:40,UTC,7,1008.8,84,0,-1,15.7,12.9,42460,101,4.8,3.3
2019,7,16,15:50,UTC,5,1008.9,84,0,-1,15.6,13,35530,107,4.1,2.6
2019,7,16,16:00,UTC,5,1008.9,83,0,-1,15.8,12.9,37700,109,3.8,2.7
2019,7,16,16:10,UTC,5,1008.9,83,0,-1,15.8,12.9,43900,107,4.4,2.9
2019,7,16,16:20,UTC,5,1008.9,84,0,-1,15.9,13.2,38860,104,4.9,3.2
2019,7,16,16:30,UTC,3,1008.9,81,0,-1,16.1,12.8,47780,109,4.8,3.1
2019,7,16,16:40,UTC,1,1008.8,78,0,-1,16.3,12.4,50000,114,4.6,3
2019,7,16,16:50,UTC,1,1008.7,78,0,-1,16.4,12.4,50000,113,4.3,2.9
2019,7,16,17:00,UTC,3,1008.6,79,0,-1,16.3,12.7,46100,112,4.5,3.1
2019,7,16,17:10,UTC,1,1008.7,78,0,-1,16.3,12.5,48440,111,3.8,2.7
2019,7,16,17:20,UTC,1,1008.7,77,0,-1,16.3,12.3,50000,110,3.8,2.5
2019,7,16,17:30,UTC,1,1008.8,80,0,-1,16.1,12.6,50000,95,3.4,2.5
2019,7,16,17:40,UTC,1,1008.9,82,0,-1,16,12.8,50000,90,3.8,3
2019,7,16,17:50,UTC,1,1008.9,81,0,-1,15.9,12.6,50000,79,3.5,2.4
2019,7,16,18:00,UTC,1,1008.9,82,0,-1,15.7,12.6,50000,74,3.3,2.3
2019,7,16,18:10,UTC,1,1008.9,82,0,-1,15.5,12.5,50000,55,3.1,2
2019,7,16,18:20,UTC,0,1009,83,0,-1,15.5,12.7,50000,42,3.1,2
2019,7,16,18:30,UTC,0,1009,84,0,-1,15.3,12.7,44380,52,3.5,2
2019,7,16,18:40,UTC,0,1009.1,86,0,-1,15.2,12.9,50000,37,3.3,1.9
2019,7,16,18:50,UTC,0,1009.1,87,0,-1,15,12.8,45300,30,3.3,2.2
2019,7,16,19:00,UTC,0,1009.1,87,0,-1,14.8,12.7,47010,28,3.9,2.4
2019,7,16,19:10,UTC,0,1009.1,89,0,-1,14.8,12.9,50000,22,4.4,2.8
2019,7,16,19:20,UTC,0,1009.1,90,0,-1,14.7,13,46370,21,4.4,2.6
2019,7,16,19:30,UTC,1,1009,90,0,-1,14.6,13,50000,25,4.4,2.7
2019,7,16,19:40,UTC,1,1009,90,0,-1,14.6,13,43250,27,4.4,3.1
2019,7,16,19:50,UTC,3,1008.9,90,0,-1,14.6,12.9,48520,31,4.2,2.5
2019,7,16,20:00,UTC,1,1008.9,90,0,-1,14.5,12.8,40710,33,4.2,2.8
2019,7,16,20:10,UTC,1,1008.8,90,0,-1,14.3,12.7,44930,37,4.8,2.5
2019,7,16,20:20,UTC,0,1008.9,89,0,-1,14.3,12.5,45860,27,5,3
2019,7,16,20:30,UTC,0,1008.9,88,0,-1,14.3,12.4,47700,33,4.6,3
2019,7,16,20:40,UTC,,,,,,,,,29,5.5,3.3
2019,7,16,20:50,UTC,0,1008.9,87,0,-1,14.5,12.4,48870,29,4.3,2.9
2019,7,16,21:00,UTC,0,1008.9,87,0,-1,14.4,12.3,50000,29,5.5,2.9
2019,7,16,21:10,UTC,0,1009,89,0,-1,14.2,12.4,43150,26,5.9,3.1
2019,7,16,21:20,UTC,0,1009,89,0,-1,14.3,12.5,48500,24,5.3,3.2
2019,7,16,21:30,UTC,0,1009,88,0,-1,14.3,12.3,47350,23,4.9,2.9
2019,7,16,21:40,UTC,0,1009,87,0,-1,14.4,12.3,49050,26,5.6,3.3
2019,7,16,21:50,UTC,0,1009,87,0,-1,14.2,12.1,50000,33,5.9,3
2019,7,16,22:00,UTC,0,1009,88,0,-1,14.1,12.1,46910,30,4.6,2.5
2019,7,16,22:10,UTC,0,1009,88,0,-1,14,12,39120,41,4,2.2
2019,7,16,22:20,UTC,0,1009,86,0,-1,14.1,11.8,45040,40,4.6,2.3
2019,7,16,22:30,UTC,0,1009,87,0,-1,13.9,11.7,48460,30,4.9,2.2
2019,7,16,22:40,UTC,0,1009,87,0,-1,13.7,11.6,47270,36,4.1,2
2019,7,16,22:50,UTC,0,1009.1,88,0,-1,13.6,11.7,49450,44,4.1,2
2019,7,16,23:00,UTC,0,1009.1,85,0,-1,14,11.6,50000,46,4.4,2.3
2019,7,16,23:10,UTC,0,1009.1,86,0,-1,13.8,11.5,43730,51,4.7,2.1
2019,7,16,23:20,UTC,0,1009.1,85,0,-1,14,11.5,49540,55,3.6,2.1
2019,7,16,23:30,UTC,0,1009.1,86,0,-1,13.9,11.5,46700,53,4.1,2.4
2019,7,16,23:40,UTC,0,1009.1,85,0,-1,13.9,11.5,50000,52,4.4,2.6
2019,7,16,23:50,UTC,0,1009.1,85,0,-1,14,11.5,47190,55,4.8,2.8
2019,7,17,00:00,UTC,0,1009.2,86,0,-1,13.8,11.5,48790,50,4.9,2.8
2019,7,17,00:10,UTC,0,1009.1,86,0,-1,13.7,11.4,48050,46,4.8,3.1
2019,7,17,00:20,UTC,0,1009.1,85,0,-1,13.8,11.4,50000,54,4.9,2.8
2019,7,17,00:30,UTC,0,1009.1,86,0,-1,13.5,11.2,47900,56,5,2.8
2019,7,17,00:40,UTC,0,1009.1,84,0,-1,13.8,11.2,44140,56,5.5,3.2
2019,7,17,00:50,UTC,0,1009.2,84,0,-1,13.8,11.2,50000,54,5.9,2.7
2019,7,17,01:00,UTC,0,1009.2,84,0,-1,13.8,11.1,48070,55,5,2.7
2019,7,17,01:10,UTC,0,1009.2,84,0,-1,13.7,11,49810,58,5.2,2.8
2019,7,17,01:20,UTC,0,1009.2,84,0,-1,13.7,11,50000,45,4.4,2.5
2019,7,17,01:30,UTC,0,1009.2,85,0,-1,13.5,11,50000,34,3.3,2.1
2019,7,17,01:40,UTC,0,1009.1,87,0,-1,13.2,11,46170,34,3.9,2.3
2019,7,17,01:50,UTC,0,1009.1,85,0,-1,13.2,10.8,47560,35,4.7,2.5
2019,7,17,02:00,UTC,0,1009.2,85,0,-1,13.2,10.7,50000,50,4.4,2.5
2019,7,17,02:10,UTC,0,1009.2,84,0,-1,13.1,10.6,47840,46,4.2,2.5
2019,7,17,02:20,UTC,0,1009.2,84,0,-1,13.2,10.5,50000,47,4.2,2.5
2019,7,17,02:30,UTC,0,1009.2,84,0,-1,13.1,10.5,47730,42,4.5,2.3
2019,7,17,02:40,UTC,0,1009.3,84,0,-1,13.1,10.4,43370,51,4.5,2.3
2019,7,17,02:50,UTC,0,1009.3,83,0,-1,13.1,10.3,50000,56,4.2,2.4
2019,7,17,03:00,UTC,0,1009.3,82,0,-1,13.3,10.3,47940,60,5.1,2.3
2019,7,17,03:10,UTC,0,1009.3,81,0,-1,13.5,10.3,50000,54,5.1,3
2019,7,17,03:20,UTC,0,1009.3,81,0,-1,13.6,10.4,50000,51,4.7,2.9
2019,7,17,03:30,UTC,0,1009.3,79,0,-1,13.9,10.3,50000,54,5.6,3.1
2019,7,17,03:40,UTC,0,1009.3,78,0,-1,14.1,10.4,48510,66,5.3,3
2019,7,17,03:50,UTC,0,1009.4,75,0,-1,14.7,10.4,46020,69,4.6,2.6
2019,7,17,04:00,UTC,0,1009.4,74,0,-1,15.1,10.4,43180,66,4.8,2.8
2019,7,17,04:10,UTC,0,1009.4,73,0,-1,15.5,10.7,43170,69,4.9,2.9
2019,7,17,04:20,UTC,0,1009.4,71,0,-1,15.8,10.5,43320,65,4.1,2.4
2019,7,17,04:30,UTC,0,1009.4,72,0,-1,15.7,10.7,48360,61,5.3,3.5
2019,7,17,04:40,UTC,0,1009.5,71,0,-1,16.3,11.1,48620,61,5.1,3.5
2019,7,17,04:50,UTC,0,1009.5,70,0,-1,16.4,11,49010,67,4.8,3.1
2019,7,17,05:00,UTC,0,1009.5,68,0,-1,16.6,10.7,45410,62,4.7,2.9
2019,7,17,05:10,UTC,0,1009.5,68,0,-1,16.9,11,45760,68,4.3,2.7
2019,7,17,05:20,UTC,0,1009.4,67,0,-1,17.4,11.2,47520,61,4,2.4
2019,7,17,05:30,UTC,0,1009.5,69,0,-1,17.5,11.6,42190,54,3.9,2.2
2019,7,17,05:40,UTC,0,1009.5,67,0,-1,18.5,12.2,44380,63,3.7,2
2019,7,17,05:50,UTC,0,1009.5,66,0,-1,18.6,12.2,47570,55,3.8,2
2019,7,17,06:00,UTC,0,1009.5,64,0,-1,18.4,11.6,48400,69,3.4,2.1
2019,7,17,06:10,UTC,0,1009.5,64,0,-1,18.8,11.9,36890,61,4.2,2.5
2019,7,17,06:20,UTC,0,1009.5,63,0,-1,19,11.7,41410,47,4.2,2.6
2019,7,17,06:30,UTC,0,1009.5,62,0,-1,19.3,11.9,37370,55,4.2,2.1
2019,7,17,06:40,UTC,0,1009.5,63,0,-1,19.5,12.4,42250,44,3.9,2.1
2019,7,17,06:50,UTC,0,1009.5,62,0,-1,20,12.6,39050,47,4.4,2.3
2019,7,17,07:00,UTC,0,1009.4,61,0,-1,20.1,12.5,39390,52,4.2,2.7
2019,7,17,07:10,UTC,0,1009.4,59,0,-1,20.4,12,42770,69,5.6,3.6
2019,7,17,07:20,UTC,0,1009.4,58,0,-1,20.3,11.7,50000,68,5,3.4
2019,7,17,07:30,UTC,0,1009.4,58,0,-1,20.4,11.8,49220,58,5.3,2.9
2019,7,17,07:40,UTC,0,1009.3,54,0,-1,20.7,11.2,49690,52,5.3,3
2019,7,17,07:50,UTC,0,1009.3,53,0,-1,21.2,11.4,41430,31,5.3,3.1
2019,7,17,08:00,UTC,0,1009.3,53,0,-1,21.5,11.5,47550,67,5.9,3.4
2019,7,17,08:10,UTC,0,1009.3,51,0,-1,21.3,10.8,43020,67,5.5,3.6
2019,7,17,08:20,UTC,0,1009.4,53,0,-1,21.7,11.6,35750,74,5.2,2.5
2019,7,17,08:30,UTC,0,1009.4,48,0,-1,21.8,10.4,41510,77,6,3.2
2019,7,17,08:40,UTC,0,1009.4,53,0,-1,21.9,12,43730,80,5.2,3.3
2019,7,17,08:50,UTC,0,1009.4,50,0,-1,21.9,11,40690,109,5.4,3.6
2019,7,17,09:00,UTC,0,1009.5,51,0,-1,22.3,11.6,42720,117,6.2,4.2
2019,7,17,09:10,UTC,0,1009.5,52,0,-1,22.5,12,41140,116,5.8,3.8
2019,7,17,09:20,UTC,1,1009.4,50,0,-1,22.1,11.1,43540,117,4.9,3.5
2019,7,17,09:30,UTC,0,1009.5,51,0,-1,22.8,12.1,38060,109,5.6,3.6
2019,7,17,09:40,UTC,0,1009.5,51,0,-1,22.5,11.9,50000,119,5.7,4
2019,7,17,09:50,UTC,0,1009.5,48,0,-1,22.7,11.1,46190,118,6.5,4.5
2019,7,17,10:00,UTC,0,1009.5,46,0,-1,22.5,10.2,40520,109,5.6,3.7
2019,7,17,10:10,UTC,0,1009.5,48,0,-1,22.4,10.9,40370,113,5.6,3.9
2019,7,17,10:20,UTC,0,1009.6,54,0,-1,22.7,12.9,33590,115,5.1,2.8
2019,7,17,10:30,UTC,0,1009.6,53,0,-1,22.2,12.1,43380,121,5.5,3.1
2019,7,17,10:40,UTC,1,1009.6,54,0,-1,21.9,12,35460,160,5,3.4
2019,7,17,10:50,UTC,3,1009.7,52,0,-1,21.9,11.7,43480,157,5.7,3.8
2019,7,17,11:00,UTC,5,1009.7,53,0,-1,21.6,11.7,44670,147,6.1,3.8
2019,7,17,11:10,UTC,5,1009.8,56,0,-1,20.8,11.6,32340,144,5.6,3.9
2019,7,17,11:20,UTC,7,1009.9,56,0,-1,20.7,11.7,42070,151,5.4,3.6
2019,7,17,11:30,UTC,7,1009.7,57,0,-1,20.2,11.4,37950,151,5.5,3.4
2019,7,17,11:40,UTC,7,1009.8,60,0,-1,19.9,11.8,44860,146,5.8,3.9
2019,7,17,11:50,UTC,5,1009.8,56,0,-1,20.7,11.4,42370,128,4.1,2.2
2019,7,17,12:00,UTC,1,1009.8,56,0,-1,21,11.8,43230,120,3.9,2.5
2019,7,17,12:10,UTC,1,1009.8,50,0,-1,21.8,10.8,41010,121,5.5,3.4
2019,7,17,12:20,UTC,0,1009.7,52,0,-1,21.4,11.1,50000,134,5.9,4.3
2019,7,17,12:30,UTC,1,1009.7,53,0,-1,21.6,11.7,39970,126,6,3.8
2019,7,17,12:40,UTC,3,1009.7,51,0,-1,21.1,10.7,39200,116,6.9,4.4
2019,7,17,12:50,UTC,5,1009.8,54,0,-1,21,11.4,38490,105,7.2,5.1
2019,7,17,13:00,UTC,7,1009.8,56,0,-1,20.1,11,50000,100,6.7,4.2
2019,7,17,13:10,UTC,5,1009.8,55,0,-1,20.3,11.1,38640,110,5.6,3.9
2019,7,17,13:20,UTC,5,1009.9,55,0,-1,20.4,11,49600,113,5.6,4.3
2019,7,17,13:30,UTC,3,1010,61,0,-1,19.7,11.9,46590,108,4.2,3
2019,7,17,13:40,UTC,5,1010.2,58,0,-1,19.7,11.3,48310,111,5.7,3.7
2019,7,17,13:50,UTC,5,1010.2,61,0,-1,19.9,12.2,42550,100,5,3.3
2019,7,17,14:00,UTC,5,1010.2,61,0,-1,20.2,12.4,43670,120,4.5,3.3
2019,7,17,14:10,UTC,7,1010.1,60,0,-1,19.8,11.9,49480,118,5.2,3.6
2019,7,17,14:20,UTC,7,1010.1,64,0,-1,19.7,12.7,50000,116,4.6,3.2
2019,7,17,14:30,UTC,5,1010.2,64,0,-1,19.4,12.4,50000,90,4.7,3
2019,7,17,14:40,UTC,3,1010.3,58,0,-1,19.6,11,48020,98,3.9,1.9
2019,7,17,14:50,UTC,1,1010.2,60,0,-1,19.7,11.6,48050,29,5.1,2.5
2019,7,17,15:00,UTC,1,1010.3,57,0,-1,19.8,11.1,50000,13,3.4,2
2019,7,17,15:10,UTC,1,1010.4,54,0,-1,20.2,10.6,48020,359,4.2,2.6
2019,7,17,15:20,UTC,1,1010.3,61,0,-1,20.3,12.4,47890,65,4.6,2.6
2019,7,17,15:30,UTC,1,1010.2,59,0,-1,20.3,12,50000,73,4.1,2.3
2019,7,17,15:40,UTC,1,1010.2,61,0,-1,20,12.2,50000,103,5.7,3.3
2019,7,17,15:50,UTC,0,1010.2,60,0,-1,19.9,11.8,50000,109,5,3
2019,7,17,16:00,UTC,0,1010.3,55,0,-1,19.7,10.5,50000,116,5,2.9
2019,7,17,16:10,UTC,1,1010.2,55,0,-1,19.6,10.5,50000,112,5.2,3.8
2019,7,17,16:20,UTC,1,1010.2,51,0,-1,19.8,9.4,49460,113,4.1,3
2019,7,17,16:30,UTC,1,1010.2,51,0,-1,19.6,9.2,50000,111,4.6,3.2
2019,7,17,16:40,UTC,1,1010.2,49,0,-1,19.8,8.7,50000,110,4.6,3.2
2019,7,17,16:50,UTC,0,1010.2,51,0,-1,19.3,8.8,50000,112,4.9,3.3
2019,7,17,17:00,UTC,0,1010.3,52,0,-1,19,9,50000,108,3.3,2.4
2019,7,17,17:10,UTC,0,1010.2,53,0,-1,19,9.1,50000,114,3.5,2.5
2019,7,17,17:20,UTC,0,1010.2,54,0,-1,18.9,9.3,50000,116,2.9,1.6
2019,7,17,17:30,UTC,0,1010.3,54,0,-1,18.8,9.3,50000,156,1.6,0.7
2019,7,17,17:40,UTC,1,1010.4,56,0,-1,18.5,9.5,50000,0,0,0
2019,7,17,17:50,UTC,3,1010.3,56,0,-1,18.3,9.4,50000,0,0,0
2019,7,17,18:00,UTC,3,1010.4,61,0,-1,18,10.5,50000,258,1,0.6
2019,7,17,18:10,UTC,3,1010.5,61,0,-1,17.8,10.1,50000,357,1.1,0.6
2019,7,17,18:20,UTC,1,1010.5,65,0,-1,17.4,10.8,50000,354,1.8,1.3
2019,7,17,18:30,UTC,1,1010.5,63,0,-1,17.2,10.2,46640,348,2,1.5
2019,7,17,18:40,UTC,5,1010.5,65,0,-1,17.1,10.5,50000,335,2.3,1.8
2019,7,17,18:50,UTC,5,1010.6,67,0,-1,17.2,11,44370,4,2,1.5
2019,7,17,19:00,UTC,7,1010.5,64,0,-1,17.2,10.4,50000,40,1.9,1.2
2019,7,17,19:10,UTC,7,1010.5,65,0,-1,17.1,10.4,50000,36,1.5,1
2019,7,17,19:20,UTC,5,1010.5,67,0,-1,16.7,10.5,50000,16,2,1.3
2019,7,17,19:30,UTC,3,1010.5,69,0,-1,16.7,10.9,42060,352,2.6,1.5
2019,7,17,19:40,UTC,1,1010.6,75,0,-1,16.7,12.2,48250,339,3.6,2.5
2019,7,17,19:50,UTC,1,1010.6,75,0,-1,16.6,12.2,50000,351,4.6,2.9
2019,7,17,20:00,UTC,1,1010.6,76,0,-1,16.6,12.4,49020,359,4.4,2.5
2019,7,17,20:10,UTC,1,1010.6,79,0,-1,16.5,12.9,46750,353,4.1,2.2
2019,7,17,20:20,UTC,1,1010.5,81,0,-1,16.4,13,50000,346,5,3.3
2019,7,17,20:30,UTC,0,1010.5,80,0,-1,16.1,12.7,50000,344,5.5,3.3
2019,7,17,20:40,UTC,0,1010.4,80,0,-1,16.2,12.8,50000,344,5.8,3.2
2019,7,17,20:50,UTC,0,1010.5,80,0,-1,16,12.6,50000,349,4.9,3.2
2019,7,17,21:00,UTC,0,1010.4,79,0,-1,16.1,12.4,50000,348,4.5,3.1
2019,7,17,21:10,UTC,0,1010.5,79,0,-1,16,12.3,50000,353,5.5,3.4
2019,7,17,21:20,UTC,0,1010.5,79,0,-1,15.8,12.2,50000,4,5,2.7
2019,7,17,21:30,UTC,0,1010.5,80,0,-1,15.7,12.2,50000,4,4.8,2.7
2019,7,17,21:40,UTC,0,1010.6,79,0,-1,15.6,12,50000,1,4.9,2.9
2019,7,17,21:50,UTC,0,1010.6,80,0,-1,15.5,12.1,50000,8,4.5,2.8
2019,7,17,22:00,UTC,0,1010.6,81,0,-1,15.5,12.2,50000,9,4,2.6
2019,7,17,22:10,UTC,0,1010.6,81,0,-1,15.4,12.1,50000,3,3.8,2.1
2019,7,17,22:20,UTC,0,1010.6,81,0,-1,15.1,11.8,50000,22,3.9,2.5
2019,7,17,22:30,UTC,0,1010.6,82,0,-1,15,11.8,50000,27,4.3,2.7
2019,7,17,22:40,UTC,0,1010.6,81,0,-1,15.1,11.8,50000,17,4.5,2.7
2019,7,17,22:50,UTC,0,1010.6,81,0,-1,15,11.8,50000,13,4.7,2.9
2019,7,17,23:00,UTC,0,1010.5,82,0,-1,15,11.9,50000,11,5.4,3.1
2019,7,17,23:10,UTC,0,1010.5,82,0,-1,15.1,12.1,50000,10,4.9,3.1
2019,7,17,23:20,UTC,0,1010.5,82,0,-1,15.1,12,50000,9,5.1,3
2019,7,17,23:30,UTC,0,1010.5,82,0,-1,15.1,12.1,48380,6,4.2,2.6
2019,7,17,23:40,UTC,0,1010.6,82,0,-1,15.1,12,50000,360,4,2.7
2019,7,17,23:50,UTC,0,1010.7,84,0,-1,14.7,12,50000,1,3.5,2.6
2019,7,18,00:00,UTC,0,1010.6,85,0,-1,14.5,12,50000,12,4,2.6
2019,7,18,00:10,UTC,0,1010.6,85,0,-1,14.2,11.8,50000,21,4.4,2.8
2019,7,18,00:20,UTC,0,1010.6,87,0,-1,14.1,11.9,48230,1,4.1,2.6
2019,7,18,00:30,UTC,0,1010.5,87,0,-1,14,11.8,49030,360,3.9,2.3
2019,7,18,00:40,UTC,0,1010.5,88,0,-1,13.8,11.8,50000,360,3.2,1.9
2019,7,18,00:50,UTC,0,1010.5,89,0,-1,13.4,11.7,49810,343,3.4,2.3
2019,7,18,01:00,UTC,0,1010.5,90,0,-1,13.3,11.7,48020,348,3.6,2.3
2019,7,18,01:10,UTC,0,1010.4,91,0,-1,13.1,11.7,50000,7,3,1.6
2019,7,18,01:20,UTC,0,1010.4,91,0,-1,12.9,11.6,42440,359,3.3,1.8
2019,7,18,01:30,UTC,0,1010.4,92,0,-1,12.8,11.5,42290,17,3.4,2.1
2019,7,18,01:40,UTC,0,1010.5,93,0,-1,12.8,11.6,47800,15,3.6,2.3
2019,7,18,01:50,UTC,0,1010.5,92,0,-1,13.1,11.7,48710,340,3.3,2.3
2019,7,18,02:00,UTC,0,1010.5,91,0,-1,13,11.6,45260,339,3.4,2.1
2019,7,18,02:10,UTC,0,1010.5,92,0,-1,12.8,11.5,45400,340,2.8,1.3
2019,7,18,02:20,UTC,0,1010.6,92,0,-1,12.9,11.6,46710,348,2.8,1.3
2019,7,18,02:30,UTC,0,1010.6,90,0,-1,13.2,11.7,45420,1,3.9,2.3
2019,7,18,02:40,UTC,0,1010.6,89,0,-1,13.4,11.6,46750,355,4,2.3
2019,7,18,02:50,UTC,0,1010.7,88,0,-1,13.4,11.5,47280,355,4.5,2.4
2019,7,18,03:00,UTC,0,1010.6,87,0,-1,13.8,11.6,50000,1,5.2,2.8
2019,7,18,03:10,UTC,0,1010.6,85,0,-1,13.9,11.5,49760,356,4.1,2.6
2019,7,18,03:20,UTC,0,1010.6,83,0,-1,14.3,11.5,30860,355,4.7,2.8
2019,7,18,03:30,UTC,0,1010.6,82,0,-1,14.5,11.5,47220,352,4.6,3
2019,7,18,03:40,UTC,0,1010.6,80,0,-1,14.8,11.5,47470,355,5.3,3.1
2019,7,18,03:50,UTC,0,1010.5,78,0,-1,15.3,11.5,49040,1,4.8,2.9
2019,7,18,04:00,UTC,0,1010.5,76,0,-1,15.6,11.5,44550,353,5.4,3
2019,7,18,04:10,UTC,0,1010.6,76,0,-1,15.9,11.6,46420,351,4.7,2.6
2019,7,18,04:20,UTC,0,1010.5,74,0,-1,16.3,11.7,50000,352,4.9,2.8
2019,7,18,04:30,UTC,0,1010.5,74,0,-1,16.5,11.8,50000,347,4.5,2.6
2019,7,18,04:40,UTC,0,1010.6,74,0,-1,16.9,12.1,48200,356,5.8,3.5
2019,7,18,04:50,UTC,0,1010.6,72,0,-1,16.9,11.8,42410,353,4.8,2.9
2019,7,18,05:00,UTC,0,1010.5,72,0,-1,17.1,11.9,45940,344,5.4,2.9
2019,7,18,05:10,UTC,0,1010.6,70,0,-1,17.6,12.1,50000,341,4.9,3.2
2019,7,18,05:20,UTC,0,1010.7,69,0,-1,17.9,12.2,47240,351,4.8,3.3
2019,7,18,05:30,UTC,0,1010.6,68,0,-1,18,12.1,39920,360,5.3,3.4
2019,7,18,05:40,UTC,0,1010.6,65,0,-1,18.7,12.1,45480,357,4.8,3
2019,7,18,05:50,UTC,0,1010.5,66,0,-1,18.5,12.1,50000,359,5.5,3.1
2019,7,18,06:00,UTC,0,1010.5,65,0,-1,18.8,12.1,45750,351,5.4,3.5
2019,7,18,06:10,UTC,0,1010.5,63,0,-1,19.3,12.1,40710,345,5.5,3.1
2019,7,18,06:20,UTC,0,1010.5,66,0,-1,19.6,13,42660,351,5.9,3.6
2019,7,18,06:30,UTC,0,1010.5,64,0,-1,19.5,12.5,42890,351,7,4.4
2019,7,18,06:40,UTC,0,1010.5,65,0,-1,19.9,13.1,50000,5,5.2,3.1
2019,7,18,06:50,UTC,0,1010.4,59,0,-1,20.6,12.4,42900,360,6.1,2.8
2019,7,18,07:00,UTC,0,1010.4,57,0,-1,21,12.1,39190,7,4.8,2.8
2019,7,18,07:10,UTC,0,1010.4,58,0,-1,21.1,12.6,44480,1,6.1,3.8
2019,7,18,07:20,UTC,0,1010.3,54,0,-1,21,11.4,44060,359,5.9,3.1
2019,7,18,07:30,UTC,0,1010.2,56,0,-1,21.4,12.3,43710,351,5.7,3.6
2019,7,18,07:40,UTC,0,1010.2,57,0,-1,21.5,12.5,46640,345,5.8,3.7
2019,7,18,07:50,UTC,0,1010.2,55,0,-1,21.5,12.1,39880,342,6.2,3.6
2019,7,18,08:00,UTC,0,1010.2,54,0,-1,21.9,12.1,40460,346,6.4,4
2019,7,18,08:10,UTC,0,1010.3,51,0,-1,22,11.3,45350,344,7.3,4
2019,7,18,08:20,UTC,0,1010.3,52,0,-1,22.3,12,37730,27,7.3,4.7
2019,7,18,08:30,UTC,0,1010.3,53,0,-1,22.4,12.3,48470,7,7.3,4.1
2019,7,18,08:40,UTC,0,1010.2,52,0,-1,22.5,12.1,35670,346,7.3,4.7
2019,7,18,08:50,UTC,0,1010.2,51,0,-1,22.1,11.5,42990,10,7.8,4.5
2019,7,18,09:00,UTC,0,1010.1,50,0,-1,23,12.1,28820,1,7,4.1
2019,7,18,09:10,UTC,0,1010.1,50,0,-1,22.6,11.8,41600,347,6.8,4.6
2019,7,18,09:20,UTC,0,1010.1,47,0,-1,23.1,11.2,45440,339,7.9,5.3
2019,7,18,09:30,UTC,0,1010,49,0,-1,22.9,11.7,42950,340,9.7,4.8
2019,7,18,09:40,UTC,0,1010,47,0,-1,23.4,11.4,40420,336,8.5,5.2
2019,7,18,09:50,UTC,0,1010,48,0,-1,23,11.2,37730,350,8.1,4.9
2019,7,18,10:00,UTC,0,1010,47,0,-1,23.2,11.4,38890,1,7.3,4.5
2019,7,18,10:10,UTC,0,1009.9,47,0,-1,23.8,11.7,42960,350,8,4.6
2019,7,18,10:20,UTC,1,1009.9,47,0,-1,24.1,12.1,39140,357,6.9,4.1
2019,7,18,10:30,UTC,1,1009.9,46,0,-1,23.4,11,46040,331,9.3,5.5
2019,7,18,10:40,UTC,1,1009.8,43,0,-1,23.9,10.5,39170,339,8.6,5.2
2019,7,18,10:50,UTC,1,1009.8,45,0,-1,23.9,11.1,41320,342,8.5,4.7
2019,7,18,11:00,UTC,1,1009.7,44,0,-1,24.4,11.5,35150,343,8.1,4.5
2019,7,18,11:10,UTC,1,1009.7,46,0,-1,23.4,11.1,50000,6,6.6,4.6
2019,7,18,11:20,UTC,1,1009.7,44,0,-1,24.1,11.2,46360,353,8.6,5.2
2019,7,18,11:30,UTC,1,1009.7,41,0,-1,23.8,9.8,44550,337,8.5,5.9
2019,7,18,11:40,UTC,1,1009.6,39,0,-1,24.1,9.4,38140,320,10.6,5.3
2019,7,18,11:50,UTC,1,1009.6,39,0,-1,24.2,9.5,42620,329,8.5,5.5
2019,7,18,12:00,UTC,1,1009.6,40,0,-1,24.1,9.7,40830,332,9.7,6.1
2019,7,18,12:10,UTC,1,1009.5,39,0,-1,24.2,9.3,36620,339,9.9,6
2019,7,18,12:20,UTC,1,1009.4,38,0,-1,24.3,9.2,48490,325,10,6.9
2019,7,18,12:30,UTC,1,1009.4,43,0,-1,24.2,10.8,44930,341,8.4,5
2019,7,18,12:40,UTC,1,1009.4,43,0,-1,24.2,10.7,35900,328,8,4.4
2019,7,18,12:50,UTC,1,1009.4,39,0,-1,23.9,9,41790,318,10.9,5.5
2019,7,18,13:00,UTC,1,1009.4,40,0,-1,24.1,9.6,45810,315,9.2,5.4
2019,7,18,13:10,UTC,1,1009.5,42,0,-1,23.4,9.7,45940,6,8.6,4.7
2019,7,18,13:20,UTC,1,1009.4,43,0,-1,23.3,9.9,48710,9,8.1,4.5
2019,7,18,13:30,UTC,1,1009.4,42,0,-1,23.6,9.8,48780,356,8.8,5.3
2019,7,18,13:40,UTC,1,1009.4,39,0,-1,23.8,8.9,50000,347,9.3,5.6
2019,7,18,13:50,UTC,1,1009.3,39,0,-1,24,9.2,50000,339,8.5,5.2
2019,7,18,14:00,UTC,1,1009.3,39,0,-1,24.1,9.3,44040,344,8,5.5
2019,7,18,14:10,UTC,1,1009.2,38,0,-1,24.2,8.8,40930,337,9.3,6.3
2019,7,18,14:20,UTC,1,1009.2,39,0,-1,24.2,9.3,40070,335,9.1,5.9
2019,7,18,14:30,UTC,1,1009.1,40,0,-1,24.3,9.9,40210,341,7.9,5.1
2019,7,18,14:40,UTC,1,1009.1,39,0,-1,23.9,9.2,43810,330,10.2,6.4
2019,7,18,14:50,UTC,1,1009.2,39,0,-1,24.3,9.6,47610,349,7.8,4.7
2019,7,18,15:00,UTC,0,1009.2,37,0,-1,24,8.5,44530,345,8.8,5.7
2019,7,18,15:10,UTC,1,1009.1,40,0,-1,23.8,9.4,50000,337,7.8,4.8
2019,7,18,15:20,UTC,1,1009.2,42,0,-1,23.4,9.6,50000,1,9,5.8
2019,7,18,15:30,UTC,1,1009.1,42,0,-1,23.3,9.5,50000,18,8.7,5.2
2019,7,18,15:40,UTC,1,1009.1,39,0,-1,23.4,8.6,50000,21,9.5,5.6
2019,7,18,15:50,UTC,1,1009.1,40,0,-1,23.2,9,50000,18,10.2,4.8
2019,7,18,16:00,UTC,1,1009.1,41,0,-1,23.2,9.3,50000,24,7.6,4.3
2019,7,18,16:10,UTC,0,1009.1,41,0,-1,23,9,50000,23,6.9,4.3
2019,7,18,16:20,UTC,0,1009.1,41,0,-1,22.8,8.8,50000,23,9,4.7
2019,7,18,16:30,UTC,0,1009.2,43,0,-1,22.7,9.4,50000,357,8,4.9
2019,7,18,16:40,UTC,0,1009.2,43,0,-1,22.9,9.6,50000,1,8.5,4.4
2019,7,18,16:50,UTC,0,1009.2,43,0,-1,22.5,9.2,50000,351,7.7,5.1
2019,7,18,17:00,UTC,1,1009.3,42,0,-1,22.4,9,50000,14,8.1,4.7
2019,7,18,17:10,UTC,1,1009.3,45,0,-1,22.3,9.7,50000,15,7.5,4.3
2019,7,18,17:20,UTC,1,1009.2,44,0,-1,22.2,9.3,50000,11,8,4.4
2019,7,18,17:30,UTC,1,1009.3,44,0,-1,22.1,9.2,50000,16,5.8,2.9
2019,7,18,17:40,UTC,1,1009.3,43,0,-1,22,8.8,50000,10,8.2,4.6
2019,7,18,17:50,UTC,1,1009.2,43,0,-1,21.8,8.7,50000,10,6,3.2
2019,7,18,18:00,UTC,0,1009.2,45,0,-1,21.6,9,50000,7,7.7,4.3
2019,7,18,18:10,UTC,0,1009.3,46,0,-1,21.4,9.2,50000,9,7.7,4.4
2019,7,18,18:20,UTC,0,1009.3,46,0,-1,21.1,9.1,50000,360,6,3.2
2019,7,18,18:30,UTC,0,1009.3,47,0,-1,21,9.3,50000,357,5.5,3.1
2019,7,18,18:40,UTC,0,1009.3,49,0,-1,20.4,9.4,50000,354,5,3.1
2019,7,18,18:50,UTC,0,1009.4,51,0,-1,20.2,9.6,50000,345,3.5,2.4
2019,7,18,19:00,UTC,0,1009.4,52,0,-1,20.1,9.9,50000,337,5.7,3.4
2019,7,18,19:10,UTC,0,1009.5,50,0,-1,19.7,9.1,50000,339,5.4,3.6
2019,7,18,19:20,UTC,0,1009.6,54,0,-1,19.4,9.7,50000,338,5,3.6
2019,7,18,19:30,UTC,0,1009.6,52,0,-1,19.1,8.9,47100,336,5.7,3.7
2019,7,18,19:40,UTC,0,1009.6,52,0,-1,19.2,9.2,50000,333,5.3,3.5
2019,7,18,19:50,UTC,0,1009.7,52,0,-1,18.8,8.8,50000,333,6.5,3.5
2019,7,18,20:00,UTC,0,1009.8,55,0,-1,18.4,9.1,50000,334,5.5,3.2
2019,7,18,20:10,UTC,0,1009.7,53,0,-1,18.2,8.6,50000,334,6.3,3.5
2019,7,18,20:20,UTC,0,1009.7,54,0,-1,18.2,8.6,40900,334,6.5,3.7
2019,7,18,20:30,UTC,0,1009.7,54,0,-1,18.2,8.8,49160,332,4.9,3.5
2019,7,18,20:40,UTC,0,1009.7,56,0,-1,18,9,50000,328,4.6,3.6
2019,7,18,20:50,UTC,0,1009.7,56,0,-1,17.6,8.7,50000,329,4.7,3.3
2019,7,18,21:00,UTC,0,1009.7,56,0,-1,17.7,8.7,50000,334,5.8,3.4
2019,7,18,21:10,UTC,0,1009.8,57,0,-1,17.6,9.1,50000,327,5.4,3.7
2019,7,18,21:20,UTC,0,1009.8,55,0,-1,17.7,8.6,50000,327,5.5,4
2019,7,18,21:30,UTC,0,1009.7,55,0,-1,17.6,8.6,50000,332,4.6,3.6
2019,7,18,21:40,UTC,0,1009.7,58,0,-1,17.2,8.9,50000,333,6.3,3.6
2019,7,18,21:50,UTC,0,1009.8,59,0,-1,17.1,9.1,34320,336,5.2,3.6
2019,7,18,22:00,UTC,0,1009.8,61,0,-1,17.1,9.4,50000,340,6.4,4.1
2019,7,18,22:10,UTC,0,1009.8,60,0,-1,17,9.2,50000,340,5.6,3.8
2019,7,18,22:20,UTC,0,1009.9,60,0,-1,16.9,9.1,50000,341,6.6,4
2019,7,18,22:30,UTC,0,1009.9,60,0,-1,17,9.3,40620,348,6.1,3.6
2019,7,18,22:40,UTC,0,1010,62,0,-1,16.8,9.4,50000,347,6.4,3.8
2019,7,18,22:50,UTC,0,1010,63,0,-1,16.5,9.5,50000,341,6.3,3.6
2019,7,18,23:00,UTC,0,1010,63,0,-1,16.6,9.4,50000,344,6.4,3.8
2019,7,18,23:10,UTC,0,1010.1,62,0,-1,16.7,9.4,50000,346,6.5,4
2019,7,18,23:20,UTC,0,1010.1,65,0,-1,16.3,9.7,50000,346,6.1,3.9
2019,7,18,23:30,UTC,0,1010,65,0,-1,16.4,9.8,50000,345,6.7,4.1
2019,7,18,23:40,UTC,0,1010,66,0,-1,16.1,9.6,50000,347,6.3,3.5
2019,7,18,23:50,UTC,0,1010,68,0,-1,15.8,9.9,50000,346,5.3,3.3
2019,7,19,00:00,UTC,0,1010,69,0,-1,15.7,9.9,50000,346,5.7,3.4
2019,7,19,00:10,UTC,0,1010,70,0,-1,15.6,10.1,50000,343,6,3.7
2019,7,19,00:20,UTC,0,1010,69,0,-1,15.6,10,50000,347,5.4,3.6
2019,7,19,00:30,UTC,0,1010,71,0,-1,15.4,10.1,50000,344,5.9,4
2019,7,19,00:40,UTC,0,1010,72,0,-1,15.3,10.1,50000,344,7.1,3.6
2019,7,19,00:50,UTC,0,1010,72,0,-1,15.3,10.3,50000,343,6.2,3.6
2019,7,19,01:00,UTC,0,1010,71,0,-1,15.4,10.2,50000,347,5.6,3.7
2019,7,19,01:10,UTC,0,1010,71,0,-1,15.3,10.1,50000,344,5.8,3.8
2019,7,19,01:20,UTC,0,1010,72,0,-1,15,10.1,50000,344,6.2,3.9
2019,7,19,01:30,UTC,0,1010,73,0,-1,15,10.1,50000,349,6.4,3.6
2019,7,19,01:40,UTC,0,1010,72,0,-1,15,10.1,50000,347,5.6,3.8
2019,7,19,01:50,UTC,0,1010,73,0,-1,14.9,10,50000,340,6.1,3.9
2019,7,19,02:00,UTC,0,1010,73,0,-1,14.8,10,50000,344,5.9,4
2019,7,19,02:10,UTC,0,1010.1,72,0,-1,15,10,50000,341,5.8,4.1
2019,7,19,02:20,UTC,0,1010.1,71,0,-1,15.1,9.9,50000,340,6.1,4.2
2019,7,19,02:30,UTC,0,1010.2,72,0,-1,15,10.1,50000,341,5.9,3.9
2019,7,19,02:40,UTC,0,1010.2,72,0,-1,15,10,50000,339,7.2,4.3
2019,7,19,02:50,UTC,0,1010.3,72,0,-1,15.2,10.1,50000,341,7,3.8
2019,7,19,03:00,UTC,0,1010.3,71,0,-1,15.2,10,50000,341,6.4,4.1
2019,7,19,03:10,UTC,0,1010.3,72,0,-1,15.2,10.1,50000,338,6.7,4
2019,7,19,03:20,UTC,0,1010.3,71,0,-1,15.4,10.1,50000,345,7.2,3.9
2019,7,19,03:30,UTC,0,1010.3,72,0,-1,15.4,10.4,50000,343,7.2,4.1
2019,7,19,03:40,UTC,0,1010.3,70,0,-1,15.8,10.5,50000,347,7.3,4.3
2019,7,19,03:50,UTC,0,1010.2,69,0,-1,16.2,10.5,50000,344,6.1,4
2019,7,19,04:00,UTC,0,1010.1,69,0,-1,16.4,10.6,50000,343,6.8,4.3
2019,7,19,04:10,UTC,0,1010.1,68,0,-1,16.8,10.8,50000,343,5.8,3.9
2019,7,19,04:20,UTC,0,1010,68,0,-1,17,11.1,50000,348,6.1,3.7
2019,7,19,04:30,UTC,0,1010.1,68,0,-1,17.3,11.3,48000,348,6,4.1
2019,7,19,04:40,UTC,0,1010,67,0,-1,17.7,11.5,46930,345,5.3,3.5
2019,7,19,04:50,UTC,0,1010,67,0,-1,18.1,11.8,47980,342,6.3,4
2019,7,19,05:00,UTC,0,1010,66,0,-1,18.2,11.8,45030,345,6.9,4
2019,7,19,05:10,UTC,0,1010,66,0,-1,18.4,11.9,50000,337,7,3.9
2019,7,19,05:20,UTC,0,1010,65,0,-1,18.8,12,38980,345,7.5,4.1
2019,7,19,05:30,UTC,0,1010,64,0,-1,19.2,12.3,47010,348,7.1,3.6
2019,7,19,05:40,UTC,0,1010,64,0,-1,19.3,12.2,41680,343,7.6,4.9
2019,7,19,05:50,UTC,0,1009.9,64,0,-1,19.5,12.4,47410,351,7.7,4.7
2019,7,19,06:00,UTC,0,1009.9,64,0,-1,19.8,12.8,50000,344,8.5,4.4
2019,7,19,06:10,UTC,0,1009.9,63,0,-1,20,12.7,45110,350,8.7,5.2
2019,7,19,06:20,UTC,0,1009.9,61,0,-1,20,12.2,46240,352,8.3,4.9
2019,7,19,06:30,UTC,0,1009.8,60,0,-1,20.7,12.6,49530,346,8.4,5.6
2019,7,19,06:40,UTC,0,1009.8,57,0,-1,20.6,11.9,50000,343,9.4,6.2
2019,7,19,06:50,UTC,0,1009.8,59,0,-1,20.8,12.5,47050,337,8.8,5.9
2019,7,19,07:00,UTC,0,1009.8,57,0,-1,21.1,12.3,38940,339,9.6,6.6
2019,7,19,07:10,UTC,0,1009.9,57,0,-1,21.1,12.3,40950,351,9.5,5.5
2019,7,19,07:20,UTC,0,1010,55,0,-1,21.1,11.7,44830,337,10.5,7.1
2019,7,19,07:30,UTC,0,1010,54,0,-1,21.4,11.7,47650,338,10.6,7.4
2019,7,19,07:40,UTC,0,1009.9,51,0,-1,21.4,11,42340,356,9.9,5.4
2019,7,19,07:50,UTC,0,1009.9,53,0,-1,22,12,45890,358,9.1,5.6
2019,7,19,08:00,UTC,0,1009.8,52,0,-1,22.3,12.1,39700,347,9,5
2019,7,19,08:10,UTC,0,1009.7,52,0,-1,22.1,11.9,44910,339,9.7,5.9
2019,7,19,08:20,UTC,0,1009.7,51,0,-1,22.6,12,36460,349,8,5.1
2019,7,19,08:30,UTC,0,1009.7,50,0,-1,22.4,11.5,34840,325,10.2,6.6
2019,7,19,08:40,UTC,0,1009.8,49,0,-1,22.6,11.3,40150,338,10.6,6.3
2019,7,19,08:50,UTC,1,1009.7,47,0,-1,22.6,10.8,38070,352,11.2,6.2
2019,7,19,09:00,UTC,0,1009.7,48,0,-1,22.4,10.8,36010,330,12,8.5
2019,7,19,09:10,UTC,1,1009.7,48,0,-1,23.1,11.5,43330,344,9,5.3
2019,7,19,09:20,UTC,1,1009.8,46,0,-1,23.2,10.9,40990,332,11.4,6.6
2019,7,19,09:30,UTC,1,1009.8,43,0,-1,23,9.9,42550,350,10.2,5.3
2019,7,19,09:40,UTC,1,1009.7,46,0,-1,23.8,11.6,30470,351,9.9,6
2019,7,19,09:50,UTC,1,1009.7,44,0,-1,23.8,10.8,43470,334,10.7,5.9
2019,7,19,10:00,UTC,0,1009.9,39,0,-1,23.5,8.9,43260,336,11.9,7.6
2019,7,19,10:10,UTC,1,1009.7,40,0,-1,24.2,9.9,48420,348,9.5,6.2
2019,7,19,10:20,UTC,1,1009.8,41,0,-1,24.1,10,40340,354,8.9,5.5
2019,7,19,10:30,UTC,1,1009.8,42,0,-1,24.2,10.6,35370,355,9.8,5.3
2019,7,19,10:40,UTC,1,1009.7,42,0,-1,23.2,9.6,40620,340,9.6,5.7
2019,7,19,10:50,UTC,1,1009.7,40,0,-1,24.2,9.9,36640,357,9.3,5.4
2019,7,19,11:00,UTC,1,1009.7,39,0,-1,23.6,8.9,46260,339,10.2,5.5
2019,7,19,11:10,UTC,1,1009.7,40,0,-1,24.4,10.1,41620,5,8.2,5.3
2019,7,19,11:20,UTC,1,1009.8,39,0,-1,23.5,8.7,41150,5,8.8,5.1
2019,7,19,11:30,UTC,1,1009.8,38,0,-1,24.1,8.8,44570,355,8.8,5
2019,7,19,11:40,UTC,1,1009.8,38,0,-1,24.1,8.7,39640,348,9.1,5
2019,7,19,11:50,UTC,1,1009.8,39,0,-1,24.2,9.4,37920,344,9.9,5.8
2019,7,19,12:00,UTC,1,1009.8,37,0,-1,24.3,8.7,38500,354,9.5,5
2019,7,19,12:10,UTC,1,1009.7,37,0,-1,24.4,8.8,41940,326,8.9,6.5
2019,7,19,12:20,UTC,1,1009.7,38,0,-1,24.1,9,43420,329,10,5.8
2019,7,19,12:30,UTC,3,1009.7,41,0,-1,24.2,10.1,39360,338,8,4.4
2019,7,19,12:40,UTC,1,1009.7,40,0,-1,23.9,9.3,41650,352,9.3,5.7
2019,7,19,12:50,UTC,1,1009.7,38,0,-1,24,8.8,47360,335,9.7,6.2
2019,7,19,13:00,UTC,1,1009.7,40,0,-1,24.1,9.5,46650,331,9.6,5.5
2019,7,19,13:10,UTC,1,1009.6,38,0,-1,24.3,9.1,47630,327,8.4,5.1
2019,7,19,13:20,UTC,1,1009.8,39,0,-1,23.7,8.9,50000,356,9.4,6
2019,7,19,13:30,UTC,3,1009.7,37,0,-1,24.5,9,42330,338,8.8,5
2019,7,19,13:40,UTC,5,1009.7,36,0,-1,24.7,8.7,40300,327,10.1,6.9
2019,7,19,13:50,UTC,7,1009.9,39,0,-1,24.5,9.5,47830,335,7.8,5
2019,7,19,14:00,UTC,7,1009.8,39,0,-1,23.9,9.1,42500,348,6.9,4.3
2019,7,19,14:10,UTC,7,1009.9,37,0,-1,23.8,8.2,50000,358,7.2,4
2019,7,19,14:20,UTC,7,1009.9,38,0,-1,23.9,8.7,45330,349,7.1,3.9
2019,7,19,14:30,UTC,7,1009.9,37,0,-1,23.8,8.3,42500,344,10,5.4
2019,7,19,14:40,UTC,5,1009.9,37,0,-1,24.7,9.1,46080,337,8.1,5.1
2019,7,19,14:50,UTC,5,1009.9,38,0,-1,24.3,9.2,49290,335,7.8,5
2019,7,19,15:00,UTC,3,1010,40,0,-1,24.4,10,49570,335,7.8,5
2019,7,19,15:10,UTC,1,1010,37,0,-1,24.5,8.8,50000,332,7.3,4.8
2019,7,19,15:20,UTC,3,1010,36,0,-1,24.4,8.4,50000,315,9.4,4.5
2019,7,19,15:30,UTC,1,1009.9,36,0,-1,24.3,8.5,50000,331,9.1,6.5
2019,7,19,15:40,UTC,5,1009.9,36,0,-1,24.5,8.5,50000,326,7.7,4.5
2019,7,19,15:50,UTC,5,1010,38,0,-1,24.4,9,50000,320,7.8,5.2
2019,7,19,16:00,UTC,5,1010.2,37,0,-1,23.7,8.3,49420,343,6.8,4.1
2019,7,19,16:10,UTC,3,1010.2,60,0,-1,21.7,13.6,48790,36,5.6,3.1
2019,7,19,16:20,UTC,3,1010.3,64,0,-1,20.8,13.6,50000,165,5.4,3.3
2019,7,19,16:30,UTC,1,1010.3,65,0,-1,20.4,13.7,50000,142,5.2,2.9
2019,7,19,16:40,UTC,3,1010.3,65,0,-1,20.6,13.7,50000,156,4.3,1.9
2019,7,19,16:50,UTC,1,1010.2,62,0,-1,20.6,13.1,48520,160,5.6,3.9
2019,7,19,17:00,UTC,3,1010.3,65,0,-1,20.6,13.7,50000,151,6.1,3.4
2019,7,19,17:10,UTC,5,1010.4,63,0,-1,20.9,13.6,50000,170,5.4,3.4
2019,7,19,17:20,UTC,5,1010.4,64,0,-1,20.7,13.6,48790,180,5.3,3.6
2019,7,19,17:30,UTC,5,1010.4,63,0,-1,20.7,13.4,47090,190,5.3,3.1
2019,7,19,17:40,UTC,5,1010.3,63,0,-1,20.5,13.2,44270,200,5.8,3.4
2019,7,19,17:50,UTC,5,1010.3,64,0,-1,20.5,13.4,48700,207,5.5,3.6
2019,7,19,18:00,UTC,7,1010.4,65,0,-1,20.2,13.4,47420,199,4.4,2.8
2019,7,19,18:10,UTC,5,1010.5,66,0,-1,19.9,13.5,50000,158,4.5,2.8
2019,7,19,18:20,UTC,5,1010.5,66,0,-1,19.9,13.5,50000,181,4.3,2.8
2019,7,19,18:30,UTC,1,1010.6,66,0,-1,19.8,13.4,50000,190,3.7,2.3
2019,7,19,18:40,UTC,1,1010.6,67,0,-1,19.6,13.3,50000,199,4.3,2.6
2019,7,19,18:50,UTC,1,1010.6,67,0,-1,19.6,13.3,50000,215,3.9,2.3
2019,7,19,19:00,UTC,3,1010.7,66,0,-1,19.7,13.2,50000,216,3.9,2.4
2019,7,19,19:10,UTC,5,1010.7,68,0,-1,19.5,13.3,50000,236,3.3,1.7
2019,7,19,19:20,UTC,5,1010.7,70,0,-1,19,13.3,46880,267,2.6,1.7
2019,7,19,19:30,UTC,1,1010.7,71,0,-1,18.7,13.5,47180,233,3.2,2.1
2019,7,19,19:40,UTC,1,1010.7,73,0,-1,18.4,13.4,50000,238,3.1,1.7
2019,7,19,19:50,UTC,0,1010.8,75,0,-1,18,13.5,50000,237,3.2,2.2
2019,7,19,20:00,UTC,0,1010.8,77,0,-1,17.6,13.6,50000,262,2.9,1.6
2019,7,19,20:10,UTC,0,1010.8,77,0,-1,17.6,13.5,50000,273,2.2,1.4
2019,7,19,20:20,UTC,0,1010.9,78,0,-1,17.4,13.6,50000,257,2.6,1.8
2019,7,19,20:30,UTC,0,1010.9,81,0,-1,17.4,14.1,50000,280,2.2,1.5
2019,7,19,20:40,UTC,0,1011,82,0,-1,17.1,14.1,46770,284,2.4,1.5
2019,7,19,20:50,UTC,0,1011.1,84,0,-1,16.6,13.9,50000,287,1.9,1.1
2019,7,19,21:00,UTC,0,1011.1,87,0,-1,16.4,14.1,50000,285,1.6,1
2019,7,19,21:10,UTC,0,1011.1,88,0,-1,16,14.1,50000,292,1.7,0.9
2019,7,19,21:20,UTC,0,1011.2,90,0,-1,15.8,14.1,46740,298,1.8,1.4
2019,7,19,21:30,UTC,0,1011.2,91,0,-1,15.6,14.2,44560,296,2.3,1.5
2019,7,19,21:40,UTC,0,1011.3,92,0,-1,15.7,14.4,50000,322,2.7,2.1
2019,7,19,21:50,UTC,0,1011.4,90,0,-1,15.5,13.9,40960,337,3.2,1.9
2019,7,19,22:00,UTC,0,1011.4,87,0,-1,15.3,13.2,49490,3,3.3,2.2
2019,7,19,22:10,UTC,0,1011.6,82,0,-1,15.4,12.3,50000,9,3.1,2.1
2019,7,19,22:20,UTC,0,1011.6,72,0,-1,15.6,10.6,50000,10,3.2,1.9
2019,7,19,22:30,UTC,0,1011.7,69,0,-1,15.8,10.2,50000,4,3.2,2.2
2019,7,19,22:40,UTC,0,1011.7,68,0,-1,15.7,9.8,50000,7,3.6,2.4
2019,7,19,22:50,UTC,0,1011.7,67,0,-1,15.6,9.5,50000,354,3.6,2.7
2019,7,19,23:00,UTC,0,1011.7,68,0,-1,15.4,9.5,50000,6,4.1,2.8
2019,7,19,23:10,UTC,0,1011.7,69,0,-1,15.3,9.7,50000,10,4,2.4
2019,7,19,23:20,UTC,0,1011.8,66,0,-1,15.7,9.3,50000,14,4.4,2.8
2019,7,19,23:30,UTC,0,1011.8,65,0,-1,15.8,9.3,50000,11,4.3,3
2019,7,19,23:40,UTC,0,1011.9,65,0,-1,15.8,9.4,50000,12,4.2,2.9
2019,7,19,23:50,UTC,0,1011.9,69,0,-1,15.5,9.8,50000,18,4.1,2.8
2019,7,20,00:00,UTC,0,1012,69,0,-1,15.3,9.7,50000,20,3.9,2.6
2019,7,20,00:10,UTC,0,1012,70,0,-1,15.4,10,46050,12,3.5,2.3
2019,7,20,00:20,UTC,0,1012.1,72,0,-1,15.1,10.1,50000,355,2.9,1.8
2019,7,20,00:30,UTC,0,1012.2,74,0,-1,14.5,10,50000,329,2.4,1.9
2019,7,20,00:40,UTC,0,1012.2,75,0,-1,14.3,10,50000,316,2.9,2.3
2019,7,20,00:50,UTC,0,1012.2,74,0,-1,14.5,10,50000,321,3.1,2.2
2019,7,20,01:00,UTC,0,1012.3,72,0,-1,14.6,9.7,50000,323,4,2.8
2019,7,20,01:10,UTC,0,1012.3,73,0,-1,14.4,9.5,50000,327,3.5,2.8
2019,7,20,01:20,UTC,0,1012.3,75,0,-1,14.4,10,50000,326,3.5,2.6
2019,7,20,01:30,UTC,0,1012.4,77,0,-1,13.9,9.9,50000,317,2.9,2.2
2019,7,20,01:40,UTC,0,1012.4,78,0,-1,13.8,10,50000,325,3.1,2.4
2019,7,20,01:50,UTC,0,1012.5,78,0,-1,13.5,9.8,50000,327,2.8,2.3
2019,7,20,02:00,UTC,0,1012.5,80,0,-1,13.2,9.9,50000,327,2.5,2.1
2019,7,20,02:10,UTC,0,1012.5,82,0,-1,13.2,10.1,50000,317,2.5,2
2019,7,20,02:20,UTC,0,1012.6,82,0,-1,13.1,10.2,50000,318,2.8,2.1
2019,7,20,02:30,UTC,0,1012.7,80,0,-1,13.4,10.1,50000,321,3.2,2.4
2019,7,20,02:40,UTC,0,1012.8,79,0,-1,13.6,10,50000,323,3.7,2.9
2019,7,20,02:50,UTC,0,1012.8,77,0,-1,14,10.2,50000,324,3.8,2.8
2019,7,20,03:00,UTC,0,1012.9,78,0,-1,14,10.2,50000,323,3.3,2.5
2019,7,20,03:10,UTC,0,1012.9,79,0,-1,14.2,10.6,50000,328,2.8,2.2
2019,7,20,03:20,UTC,0,1012.9,79,0,-1,14.2,10.7,50000,320,2.3,1.8
2019,7,20,03:30,UTC,0,1012.9,80,0,-1,14.5,11.1,50000,319,2.7,2
2019,7,20,03:40,UTC,0,1013,77,0,-1,15.1,11.1,50000,321,3.8,2.6
2019,7,20,03:50,UTC,0,1012.9,74,0,-1,16.6,11.9,50000,330,3.6,2.6
2019,7,20,04:00,UTC,0,1012.9,72,0,-1,16.9,11.8,50000,325,3.3,2.4
2019,7,20,04:10,UTC,0,1013,70,0,-1,17.8,12.3,49280,324,3.7,2.8
2019,7,20,04:20,UTC,0,1012.9,67,0,-1,18.3,12.1,50000,340,3,2.2
2019,7,20,04:30,UTC,0,1013,65,0,-1,18.6,11.8,47720,334,3.9,2.4
2019,7,20,04:40,UTC,0,1013.1,63,0,-1,19.2,12,50000,331,3.8,2.5
2019,7,20,04:50,UTC,0,1013.1,60,0,-1,19.6,11.5,48610,336,3.4,2.3
2019,7,20,05:00,UTC,0,1013.2,60,0,-1,19.5,11.5,44620,343,4.3,2.5
2019,7,20,05:10,UTC,0,1013.3,59,0,-1,20,11.8,45510,350,5.9,3.1
2019,7,20,05:20,UTC,0,1013.3,58,0,-1,20.1,11.7,48480,358,5.6,4
2019,7,20,05:30,UTC,0,1013.4,60,0,-1,20.2,12.2,42250,350,4.8,3.3
2019,7,20,05:40,UTC,0,1013.5,61,0,-1,20.7,13,45070,344,4.5,2.9
2019,7,20,05:50,UTC,0,1013.6,61,0,-1,20.9,13.1,50000,344,4.8,2.9
2019,7,20,06:00,UTC,0,1013.6,59,0,-1,21.2,12.8,44500,341,4.6,2.8
2019,7,20,06:10,UTC,0,1013.6,58,0,-1,21.3,12.7,48560,335,4.9,3.1
2019,7,20,06:20,UTC,0,1013.7,59,0,-1,21.3,12.9,41850,355,5.3,3.2
2019,7,20,06:30,UTC,0,1013.7,56,0,-1,21.7,12.6,47150,355,5,3.1
2019,7,20,06:40,UTC,0,1013.7,56,0,-1,21.6,12.5,49990,4,5,3.3
2019,7,20,06:50,UTC,0,1013.8,56,0,-1,21.8,12.7,39310,357,6,3.4
2019,7,20,07:00,UTC,0,1013.8,55,0,-1,22,12.6,42790,351,6.6,4.3
2019,7,20,07:10,UTC,0,1013.9,53,0,-1,22.4,12.5,39480,1,6.5,3.9
2019,7,20,07:20,UTC,0,1013.9,51,0,-1,22.2,11.7,49860,355,6.6,3.6
2019,7,20,07:30,UTC,1,1013.9,51,0,-1,22.6,12,42650,334,6.6,3.7
2019,7,20,07:40,UTC,1,1013.9,53,0,-1,22.7,12.5,49120,4,7,3.5
2019,7,20,07:50,UTC,1,1014,47,0,-1,23.3,11.3,45320,344,7.3,3.8
2019,7,20,08:00,UTC,0,1014,49,0,-1,23,11.7,40410,4,6.2,3.8
2019,7,20,08:10,UTC,0,1014,45,0,-1,22.9,10.4,43460,330,7.8,4.9
2019,7,20,08:20,UTC,1,1014,46,0,-1,23.4,11.1,46410,327,7.4,4.6
2019,7,20,08:30,UTC,1,1014,48,0,-1,24,12.2,37790,350,5.3,3.1
2019,7,20,08:40,UTC,1,1014.1,45,0,-1,24,11.3,34660,350,6.4,3.7
2019,7,20,08:50,UTC,1,1014.1,46,0,-1,23.9,11.5,45310,324,7.6,4.6
2019,7,20,09:00,UTC,1,1014.2,45,0,-1,24,11.4,36460,341,6.1,4
2019,7,20,09:10,UTC,1,1014.3,41,0,-1,24.5,10.4,41410,329,8.1,3.9
2019,7,20,09:20,UTC,1,1014.3,44,0,-1,23.4,10.4,43940,350,7.3,4
2019,7,20,09:30,UTC,1,1014.4,41,0,-1,24.2,10,45550,354,6.8,3.7
2019,7,20,09:40,UTC,1,1014.5,42,0,-1,24.1,10.2,42320,335,8.3,4.7
2019,7,20,09:50,UTC,1,1014.4,40,0,-1,25,10.3,42980,328,5.2,3.2
2019,7,20,10:00,UTC,1,1014.5,39,0,-1,25.1,10,43540,2,7.1,3.3
2019,7,20,10:10,UTC,1,1014.6,38,0,-1,24.5,9.3,45680,340,4.9,1.5
2019,7,20,10:20,UTC,3,1014.7,42,0,-1,23.4,9.8,50000,330,5.1,2.4
2019,7,20,10:30,UTC,5,1014.8,51,0,-1,22.8,12.1,44870,326,5.4,2.6
2019,7,20,10:40,UTC,5,1014.8,52,0,-1,23,12.6,42600,219,2.9,1.5
2019,7,20,10:50,UTC,5,1014.7,52,0,-1,22.7,12.2,50000,170,4.8,3
2019,7,20,11:00,UTC,5,1014.8,52,0,-1,22.5,12,38390,211,5.4,3
2019,7,20,11:10,UTC,3,1014.8,49,0,-1,23.9,12.4,44840,196,4.3,3
2019,7,20,11:20,UTC,3,1014.9,52,0,-1,23.1,12.6,37120,219,5.6,4.1
2019,7,20,11:30,UTC,3,1014.9,48,0,-1,23.3,11.8,37200,213,6.1,4.2
2019,7,20,11:40,UTC,5,1014.9,55,0,-1,22.7,13.2,44000,227,5.7,4.3
2019,7,20,11:50,UTC,7,1015,52,0,-1,23.3,12.9,46080,224,6,4.3
2019,7,20,12:00,UTC,5,1015,49,0,-1,23.3,11.8,36870,224,7.3,5.4
2019,7,20,12:10,UTC,3,1015,50,0,-1,23.1,12.2,40850,213,6.1,4.8
2019,7,20,12:20,UTC,1,1015,53,0,-1,22.9,12.7,42610,220,7.2,4.4
2019,7,20,12:30,UTC,1,1015.1,51,0,-1,23.1,12.5,34590,225,8,5.1
2019,7,20,12:40,UTC,1,1015,52,0,-1,22.9,12.5,36440,219,7.3,4.9
2019,7,20,12:50,UTC,1,1015.1,52,0,-1,23.1,12.7,40740,225,7.6,4.8
2019,7,20,13:00,UTC,1,1015.1,52,0,-1,22.8,12.3,46110,227,8.1,5.4
2019,7,20,13:10,UTC,1,1015,54,0,-1,23.2,13.3,40310,222,8.5,5.8
2019,7,20,13:20,UTC,0,1015,53,0,-1,22.9,12.9,48850,222,8.2,5.2
2019,7,20,13:30,UTC,0,1015.1,54,0,-1,22.7,12.8,50000,222,8.3,5.8
2019,7,20,13:40,UTC,1,1015.1,53,0,-1,23,13,42550,218,8.7,6.9
2019,7,20,13:50,UTC,1,1015.1,53,0,-1,22.9,12.9,36160,217,8.3,6.8
2019,7,20,14:00,UTC,1,1015.1,51,0,-1,23.3,12.5,42690,215,7.9,5.6
2019,7,20,14:10,UTC,0,1015.1,50,0,-1,23.4,12.3,42200,218,8.3,5.9
2019,7,20,14:20,UTC,1,1015,48,0,-1,23.5,11.7,35550,221,7.6,4.9
2019,7,20,14:30,UTC,1,1015,51,0,-1,23.3,12.6,43900,218,7.2,5.3
2019,7,20,14:40,UTC,1,1015,49,0,-1,23.4,12.2,48100,220,7.2,5.1
2019,7,20,14:50,UTC,0,1015,49,0,-1,23.3,11.9,40110,218,6.9,4.9
2019,7,20,15:00,UTC,0,1015.1,50,0,-1,23,12,44820,219,7,4.9
2019,7,20,15:10,UTC,0,1015,52,0,-1,23.4,13,50000,225,6.3,4.3
2019,7,20,15:20,UTC,0,1015,50,0,-1,23.5,12.5,48720,226,6.5,4.1
2019,7,20,15:30,UTC,0,1015,52,0,-1,23.1,12.7,50000,226,5.8,3.8
2019,7,20,15:40,UTC,0,1014.9,52,0,-1,23.2,12.7,50000,220,6,4.2
2019,7,20,15:50,UTC,0,1014.9,51,0,-1,23.4,12.7,44910,227,6,3.8
2019,7,20,16:00,UTC,0,1015,51,0,-1,23.4,12.7,50000,231,6.1,3.7
2019,7,20,16:10,UTC,0,1015,55,0,-1,22.7,13,49680,227,5.7,3.5
2019,7,20,16:20,UTC,0,1015.1,56,0,-1,22.5,13.2,48480,231,5,3.2
2019,7,20,16:30,UTC,0,1015.1,56,0,-1,22.6,13.3,49240,228,4.8,3
2019,7,20,16:40,UTC,0,1015.2,57,0,-1,22.2,13.2,50000,227,5,3.3
2019,7,20,16:50,UTC,0,1015.2,57,0,-1,22.1,13.2,50000,225,5.4,3.6
2019,7,20,17:00,UTC,0,1015.1,58,0,-1,22,13.4,50000,233,4.5,2.5
2019,7,20,17:10,UTC,0,1015.2,62,0,-1,21.6,13.9,46910,233,4.3,2.7
2019,7,20,17:20,UTC,0,1015.2,63,0,-1,21.7,14.2,50000,234,4.3,2.6
2019,7,20,17:30,UTC,0,1015.2,62,0,-1,21.8,14.2,50000,236,3.7,2.3
2019,7,20,17:40,UTC,0,1015.2,65,0,-1,21.4,14.6,50000,228,5,2.9
2019,7,20,17:50,UTC,0,1015.3,68,0,-1,20.9,14.8,48420,222,4.9,3.7
2019,7,20,18:00,UTC,0,1015.3,72,0,-1,20.3,15.1,49670,214,3.7,2.1
2019,7,20,18:10,UTC,0,1015.3,74,0,-1,20.2,15.3,47480,213,2.7,1.4
2019,7,20,18:20,UTC,0,1015.4,74,0,-1,20.1,15.3,50000,240,2,1
2019,7,20,18:30,UTC,0,1015.5,76,0,-1,19.8,15.3,50000,215,1.5,0.8
2019,7,20,18:40,UTC,0,1015.5,76,0,-1,19.8,15.4,46450,220,1.9,1.1
2019,7,20,18:50,UTC,0,1015.5,78,0,-1,19.2,15.2,47220,215,1.8,1.1
2019,7,20,19:00,UTC,0,1015.6,80,0,-1,18.9,15.3,47120,230,1.9,1.2
2019,7,20,19:10,UTC,0,1015.7,81,0,-1,18.5,15.2,49510,237,1.7,1.1
2019,7,20,19:20,UTC,0,1015.7,83,0,-1,18.3,15.3,47430,240,1.8,1.2
2019,7,20,19:30,UTC,0,1015.8,83,0,-1,18.3,15.4,47940,244,1.4,1
2019,7,20,19:40,UTC,1,1015.8,84,0,-1,18.1,15.3,45840,238,1.6,1.2
2019,7,20,19:50,UTC,1,1015.9,85,0,-1,17.8,15.3,48840,240,1.7,1
2019,7,20,20:00,UTC,1,1015.9,87,0,-1,17.7,15.6,45550,229,0.9,0.6
2019,7,20,20:10,UTC,0,1015.9,88,0,-1,17.4,15.4,42440,0,0,0
2019,7,20,20:20,UTC,0,1016,88,0,-1,17.1,15.2,46450,0,0,0
2019,7,20,20:30,UTC,0,1016.1,89,0,-1,17.2,15.4,42270,0,0,0
2019,7,20,20:40,UTC,0,1016.2,90,0,-1,16.9,15.4,40250,0,0,0
2019,7,20,20:50,UTC,0,1016.2,92,0,-1,16.8,15.5,32030,0,0,0
2019,7,20,21:00,UTC,0,1016.3,93,0,-1,16.7,15.5,28740,0,0,0
2019,7,20,21:10,UTC,0,1016.3,93,0,-1,16.6,15.4,35650,0,0,0
2019,7,20,21:20,UTC,0,1016.4,95,0,-1,16.6,15.7,23900,0,0,0
2019,7,20,21:30,UTC,0,1016.5,94,0,-1,16.4,15.5,21370,0,0,0
2019,7,20,21:40,UTC,0,1016.5,96,0,-1,16.4,15.7,20880,0,0,0
2019,7,20,21:50,UTC,0,1016.5,96,0,-1,16.4,15.7,17330,343,1,0.5
2019,7,20,22:00,UTC,0,1016.5,96,0,-1,16.1,15.4,19170,332,1.1,0.9
2019,7,20,22:10,UTC,0,1016.5,96,0,-1,16.3,15.7,15280,308,0.9,0.7
2019,7,20,22:20,UTC,0,1016.5,96,0,-1,16.2,15.6,17290,0,0,0
2019,7,20,22:30,UTC,0,1016.6,96,0,-1,16,15.4,15720,25,1,0.7
2019,7,20,22:40,UTC,0,1016.6,97,0,-1,15.9,15.3,13970,83,1,0.7
2019,7,20,22:50,UTC,0,1016.6,97,0,-1,15.9,15.4,13270,0,0,0
2019,7,20,23:00,UTC,0,1016.7,97,0,-1,15.8,15.3,11980,0,0,0
2019,7,20,23:10,UTC,0,1016.8,97,0,-1,16,15.6,8550,0,0,0
2019,7,20,23:20,UTC,0,1016.8,97,0,-1,15.7,15.3,9270,0,0,0
2019,7,20,23:30,UTC,0,1016.8,98,0,-1,15.8,15.4,9180,322,1,0.8
2019,7,20,23:40,UTC,0,1016.8,98,0,-1,15.6,15.2,9330,339,1,0.8
2019,7,20,23:50,UTC,0,1016.8,98,0,-1,15.5,15.1,8130,338,0.9,0.6
2019,7,21,00:00,UTC,0,1016.7,98,0,-1,15.6,15.2,9260,338,0.9,0.7
2019,7,21,00:10,UTC,0,1016.7,98,0,-1,15.4,15,10410,5,1.2,0.8
2019,7,21,00:20,UTC,0,1016.8,98,0,-1,15.4,15,9400,358,1.3,1
2019,7,21,00:30,UTC,0,1016.8,98,0,-1,15.3,15,10030,350,1.3,1
2019,7,21,00:40,UTC,0,1016.8,98,0,-1,15.1,14.8,9660,354,1.5,1.1
2019,7,21,00:50,UTC,0,1016.8,98,0,-1,15,14.7,9910,349,1.7,1.1
2019,7,21,01:00,UTC,0,1016.7,98,0,-1,15,14.6,11620,340,1,0.8
2019,7,21,01:10,UTC,0,1016.8,98,0,-1,14.7,14.3,13100,2,1.4,1
2019,7,21,01:20,UTC,0,1016.8,98,0,-1,14.7,14.4,13090,353,1.4,0.8
2019,7,21,01:30,UTC,0,1016.7,98,0,-1,14.6,14.2,16410,355,1.4,1
2019,7,21,01:40,UTC,0,1016.8,98,0,-1,14.5,14.1,17260,355,1.3,0.6
2019,7,21,01:50,UTC,0,1016.8,98,0,-1,14.4,14.1,25750,4,0.8,0.5
2019,7,21,02:00,UTC,0,1016.7,98,0,-1,14.2,13.9,28110,0,0,0
2019,7,21,02:10,UTC,0,1016.7,98,0,-1,14.3,14,29490,0,0,0
2019,7,21,02:20,UTC,0,1016.8,98,0,-1,14.4,14,23540,0,0,0
2019,7,21,02:30,UTC,0,1016.8,97,0,-1,14.4,14,26550,40,0.9,0.5
2019,7,21,02:40,UTC,0,1016.8,97,0,-1,14.4,14,28320,51,2,1.1
2019,7,21,02:50,UTC,0,1016.8,97,0,-1,14.6,14.2,28870,50,1.8,1.4
2019,7,21,03:00,UTC,0,1016.8,97,0,-1,14.6,14.2,35930,35,2.1,1.2
2019,7,21,03:10,UTC,0,1016.8,95,0,-1,14.8,14.1,39810,96,1.2,0.7
2019,7,21,03:20,UTC,0,1016.8,93,0,-1,14.9,13.8,43210,60,1.7,1
2019,7,21,03:30,UTC,0,1016.8,89,0,-1,15.2,13.3,48170,46,2.4,1.4
2019,7,21,03:40,UTC,0,1016.8,84,0,-1,15.8,13.1,48280,84,2.2,1.2
2019,7,21,03:50,UTC,0,1016.8,81,0,-1,16.9,13.6,50000,73,2.7,1.3
2019,7,21,04:00,UTC,0,1016.9,77,0,-1,17.9,13.9,50000,91,1.7,0.9
2019,7,21,04:10,UTC,0,1017,71,0,-1,18.7,13.4,44550,106,1,0.5
2019,7,21,04:20,UTC,0,1017,74,0,-1,19.3,14.6,47690,135,0.8,0.5
2019,7,21,04:30,UTC,0,1017,61,0,-1,19.7,12,48330,131,1.2,0.7
2019,7,21,04:40,UTC,0,1016.9,62,0,-1,19.7,12.3,50000,118,2.1,1.3
2019,7,21,04:50,UTC,0,1016.9,61,0,-1,20.2,12.5,24570,95,2.2,1.3
2019,7,21,05:00,UTC,0,1017,61,0,-1,20.8,13.1,44250,112,2.1,1.3
2019,7,21,05:10,UTC,0,1017.1,58,0,-1,21.4,12.9,43240,85,1.2,0.7
2019,7,21,05:20,UTC,0,1017.1,61,0,-1,21.6,13.7,47290,120,1.7,1
2019,7,21,05:30,UTC,0,1017.2,56,0,-1,21.6,12.3,39060,133,2.1,1.5
2019,7,21,05:40,UTC,0,1017.2,56,0,-1,22,12.7,37900,138,2.1,1.4
2019,7,21,05:50,UTC,0,1017.3,57,0,-1,22.1,13.2,43570,132,2.6,1.9
2019,7,21,06:00,UTC,0,1017.4,59,0,-1,22.3,13.8,41370,116,2.5,1.6
2019,7,21,06:10,UTC,0,1017.3,60,0,-1,22.6,14.4,44660,100,2.8,1.5
2019,7,21,06:20,UTC,0,1017.3,56,0,-1,21.8,12.7,42510,97,3.3,2.3
2019,7,21,06:30,UTC,0,1017.4,57,0,-1,22.1,13.1,34390,118,2.8,1.9
2019,7,21,06:40,UTC,0,1017.3,56,0,-1,22.5,13.2,41240,99,2.8,2
2019,7,21,06:50,UTC,0,1017.3,51,0,-1,23.3,12.5,39800,90,2.5,1.7
2019,7,21,07:00,UTC,0,1017.3,50,0,-1,22.9,12.1,45520,95,2.1,1.3
2019,7,21,07:10,UTC,0,1017.3,50,0,-1,23.1,12.2,43670,103,2.6,1.6
2019,7,21,07:20,UTC,0,1017.2,49,0,-1,23.9,12.5,35530,106,3.2,2.1
2019,7,21,07:30,UTC,0,1017.2,48,0,-1,23.7,12.1,41310,93,2.9,2
2019,7,21,07:40,UTC,0,1017.3,48,0,-1,23.7,12,42520,111,3.4,2
2019,7,21,07:50,UTC,0,1017.3,46,0,-1,23.6,11.4,35530,116,3.8,2
2019,7,21,08:00,UTC,0,1017.3,44,0,-1,23.5,10.7,39880,141,3.9,2.4
2019,7,21,08:10,UTC,0,1017.4,48,0,-1,23.9,12.4,45660,142,4.1,2.5
2019,7,21,08:20,UTC,0,1017.4,55,0,-1,23.3,13.8,50000,157,4.5,2.8
2019,7,21,08:30,UTC,0,1017.4,56,0,-1,24.1,14.8,50000,162,4.8,2.7
2019,7,21,08:40,UTC,0,1017.4,51,0,-1,24.3,13.5,49120,162,4.4,2.3
2019,7,21,08:50,UTC,0,1017.5,47,0,-1,23.9,11.9,35330,148,3.6,2.2
2019,7,21,09:00,UTC,0,1017.4,48,0,-1,23.9,12.4,37280,130,3.8,2.7
2019,7,21,09:10,UTC,0,1017.4,50,0,-1,23.9,12.8,41560,128,3.7,2.4
2019,7,21,09:20,UTC,0,1017.4,50,0,-1,24.5,13.5,41340,132,3.6,2.4
2019,7,21,09:30,UTC,0,1017.4,51,0,-1,24.4,13.6,40100,133,4.1,2.6
2019,7,21,09:40,UTC,0,1017.4,46,0,-1,24.6,12.4,38150,143,4.2,2.5
2019,7,21,09:50,UTC,0,1017.4,48,0,-1,24.6,12.9,41850,132,4.1,2.7
2019,7,21,10:00,UTC,0,1017.5,45,0,-1,24.6,11.9,33020,147,4,2.8
2019,7,21,10:10,UTC,0,1017.5,49,0,-1,24.6,13.3,38520,174,4.2,2.7
2019,7,21,10:20,UTC,0,1017.4,56,0,-1,24.4,14.9,34510,185,4.1,3
2019,7,21,10:30,UTC,0,1017.4,53,0,-1,24.4,14.2,41560,183,4.3,3
2019,7,21,10:40,UTC,0,1017.4,55,0,-1,24.1,14.5,37680,187,4.4,3
2019,7,21,10:50,UTC,0,1017.4,53,0,-1,23.8,13.7,31060,185,5,3.2
2019,7,21,11:00,UTC,0,1017.4,50,0,-1,24.3,13.1,35900,173,4.4,3
2019,7,21,11:10,UTC,0,1017.4,53,0,-1,24.6,14.4,37830,180,4.3,2.8
2019,7,21,11:20,UTC,0,1017.4,51,0,-1,24.6,13.7,38460,164,4.3,2.8
2019,7,21,11:30,UTC,0,1017.5,49,0,-1,24.9,13.3,38810,174,4.4,2.6
2019,7,21,11:40,UTC,0,1017.4,47,0,-1,24.7,12.7,33860,186,4.7,3.1
2019,7,21,11:50,UTC,0,1017.4,46,0,-1,25.1,12.7,32870,197,4.7,3.1
2019,7,21,12:00,UTC,0,1017.4,46,0,-1,24.2,11.8,37520,198,5.6,4.1
2019,7,21,12:10,UTC,0,1017.3,48,0,-1,24.8,13,39560,191,4.9,3.1
2019,7,21,12:20,UTC,0,1017.2,49,0,-1,24.1,12.8,35730,199,5,3.7
2019,7,21,12:30,UTC,0,1017.3,50,0,-1,24.2,13.1,43960,190,5.3,3.2
2019,7,21,12:40,UTC,0,1017.2,52,0,-1,24.1,13.7,41000,181,4.8,3.4
2019,7,21,12:50,UTC,0,1017.2,50,0,-1,23.8,12.9,45930,172,4.8,3.5
2019,7,21,13:00,UTC,0,1017.2,50,0,-1,23.9,12.9,42540,173,5.1,3.8
2019,7,21,13:10,UTC,0,1017.1,49,0,-1,23.7,12.3,49560,203,5.6,3.6
2019,7,21,13:20,UTC,0,1017.2,52,0,-1,23.5,13,45620,211,5.4,3.6
2019,7,21,13:30,UTC,0,1017.1,48,0,-1,23.7,12,46530,209,4.6,3.2
2019,7,21,13:40,UTC,0,1017,48,0,-1,24.1,12.5,42800,192,4.9,2.7
2019,7,21,13:50,UTC,0,1017,44,0,-1,23.8,10.8,42650,180,4.8,3.3
2019,7,21,14:00,UTC,0,1016.9,45,0,-1,23.9,11.3,39510,193,4.9,3.1
2019,7,21,14:10,UTC,0,1016.8,46,0,-1,24.1,11.9,32590,210,4.8,3.4
2019,7,21,14:20,UTC,0,1016.8,44,0,-1,23.9,10.8,38690,201,4.4,2.6
2019,7,21,14:30,UTC,0,1016.7,46,0,-1,24,11.7,39010,179,5.7,3.4
2019,7,21,14:40,UTC,0,1016.6,45,0,-1,24.1,11.4,47880,177,4.5,3
2019,7,21,14:50,UTC,0,1016.7,45,0,-1,24,11.3,48030,179,4.1,2.7
2019,7,21,15:00,UTC,0,1016.6,46,0,-1,23.8,11.6,46830,165,4,2.4
2019,7,21,15:10,UTC,0,1016.6,45,0,-1,23.6,10.9,50000,145,3.5,2.2
2019,7,21,15:20,UTC,0,1016.6,43,0,-1,23.7,10.3,49000,137,4.4,2.7
2019,7,21,15:30,UTC,0,1016.5,44,0,-1,23.5,10.6,50000,155,4.1,2.5
2019,7,21,15:40,UTC,0,1016.5,44,0,-1,23.5,10.5,50000,132,4.1,2.6
2019,7,21,15:50,UTC,0,1016.4,44,0,-1,23.5,10.6,50000,127,4.5,3.3
2019,7,21,16:00,UTC,0,1016.4,44,0,-1,23.5,10.4,50000,135,3.9,2.4
2019,7,21,16:10,UTC,0,1016.3,45,0,-1,23.4,10.8,50000,124,3.3,2.5
2019,7,21,16:20,UTC,0,1016.3,46,0,-1,23,10.9,50000,138,3.3,2.4
2019,7,21,16:30,UTC,0,1016.2,47,0,-1,23,11.1,50000,131,3.6,2.4
2019,7,21,16:40,UTC,0,1016.1,47,0,-1,22.7,11,50000,137,3.9,3
2019,7,21,16:50,UTC,0,1016,46,0,-1,22.8,10.6,50000,134,4.8,3.3
2019,7,21,17:00,UTC,0,1015.9,55,0,-1,22.1,12.8,50000,115,5.4,4
2019,7,21,17:10,UTC,0,1015.9,63,0,-1,21.8,14.3,50000,116,5.7,4.5
2019,7,21,17:20,UTC,0,1016,68,0,-1,21.6,15.4,50000,115,4.9,3.1
2019,7,21,17:30,UTC,0,1015.9,69,0,-1,21.5,15.6,50000,118,5.2,3.4
2019,7,21,17:40,UTC,0,1016,72,0,-1,21.3,16,50000,119,4.8,3.4
2019,7,21,17:50,UTC,0,1016,73,0,-1,21.1,16.2,50000,136,4.3,2.6
2019,7,21,18:00,UTC,0,1016,76,0,-1,20.9,16.6,50000,142,4.8,3.4
2019,7,21,18:10,UTC,0,1016,80,0,-1,20.8,17.2,49910,120,5.1,3.7
2019,7,21,18:20,UTC,0,1016,83,0,-1,20.5,17.6,49670,116,5.5,4
2019,7,21,18:30,UTC,0,1016,84,0,-1,20.5,17.6,46480,113,5.4,4.2
2019,7,21,18:40,UTC,0,1016,84,0,-1,20.4,17.6,44740,108,4.6,3.5
2019,7,21,18:50,UTC,0,1016.1,85,0,-1,20.1,17.5,50000,111,4.8,3.5
2019,7,21,19:00,UTC,0,1016.1,85,0,-1,20,17.3,50000,111,5.3,3.9
2019,7,21,19:10,UTC,0,1016.1,84,0,-1,19.8,17.1,48170,112,5.5,4.3
2019,7,21,19:20,UTC,0,1016.2,83,0,-1,19.8,16.8,44870,112,5.6,4.8
2019,7,21,19:30,UTC,0,1016.2,82,0,-1,19.7,16.5,47450,105,5.2,3.6
2019,7,21,19:40,UTC,0,1016.2,83,0,-1,19.6,16.5,46480,110,5.2,3.8
2019,7,21,19:50,UTC,0,1016.2,82,0,-1,19.4,16.3,48610,108,4.9,3.5
2019,7,21,20:00,UTC,0,1016.2,80,0,-1,19.3,15.8,47740,114,5.3,3.6
2019,7,21,20:10,UTC,0,1016.2,80,0,-1,19.2,15.8,48850,115,4.7,3.7
2019,7,21,20:20,UTC,0,1016.2,81,0,-1,19.1,15.7,49120,113,4.5,3.3
2019,7,21,20:30,UTC,0,1016.2,80,0,-1,19.3,15.6,37910,113,4.8,3.7
2019,7,21,20:40,UTC,0,1016.2,79,0,-1,19.2,15.5,49470,108,4.9,3.3
2019,7,21,20:50,UTC,0,1016.1,81,0,-1,18.9,15.6,46620,109,4.4,3
2019,7,21,21:00,UTC,0,1016.1,82,0,-1,18.9,15.8,48540,103,4.3,3
2019,7,21,21:10,UTC,0,1016,83,0,-1,18.8,15.9,37400,107,4.3,3.1
2019,7,21,21:20,UTC,0,1016.1,84,0,-1,18.6,15.9,43390,109,4.4,2.8
2019,7,21,21:30,UTC,0,1016,85,0,-1,18.6,15.9,38340,110,4.1,2.9
2019,7,21,21:40,UTC,0,1016,85,0,-1,18.4,15.9,48280,105,3.7,2.6
2019,7,21,21:50,UTC,0,1016,84,0,-1,18.8,16.1,42310,108,4.1,2.9
2019,7,21,22:00,UTC,0,1016,84,0,-1,18.8,16,49450,105,4.2,3
2019,7,21,22:10,UTC,0,1016,85,0,-1,18.6,16,45920,107,4.9,2.9
2019,7,21,22:20,UTC,0,1016,84,0,-1,18.7,16,44530,105,4.9,3.2
2019,7,21,22:30,UTC,0,1016,86,0,-1,18.6,16.2,39460,105,4.7,3.3
2019,7,21,22:40,UTC,0,1016.1,85,0,-1,18.8,16.3,50000,105,4.8,3.5
2019,7,21,22:50,UTC,0,1016,86,0,-1,18.9,16.4,50000,101,4.9,3.3
2019,7,21,23:00,UTC,0,1015.9,86,0,-1,18.8,16.4,45180,99,5,3.3
2019,7,21,23:10,UTC,0,1015.9,87,0,-1,18.8,16.6,47500,103,5.3,3.5
2019,7,21,23:20,UTC,0,1015.8,88,0,-1,18.7,16.6,45350,102,4.9,3.6
2019,7,21,23:30,UTC,0,1015.8,87,0,-1,18.8,16.6,46770,102,4.6,3.1
2019,7,21,23:40,UTC,0,1015.8,88,0,-1,18.7,16.6,49730,99,5,3.4
2019,7,21,23:50,UTC,0,1015.7,88,0,-1,18.7,16.6,48600,99,5.4,3.6
2019,7,22,00:00,UTC,0,1015.5,87,0,-1,18.8,16.6,46970,96,5.2,3.8
2019,7,22,00:10,UTC,0,1015.5,87,0,-1,18.7,16.4,49040,96,5.6,3.5
2019,7,22,00:20,UTC,0,1015.5,86,0,-1,18.6,16.3,33650,95,4.8,3.4
2019,7,22,00:30,UTC,0,1015.7,87,0,-1,18.5,16.2,44790,106,4.9,3.7
2019,7,22,00:40,UTC,0,1015.5,86,0,-1,18.5,16.2,50000,112,5,3.8
2019,7,22,00:50,UTC,0,1015.4,85,0,-1,18.5,16.1,44480,114,5.9,3.9
2019,7,22,01:00,UTC,0,1015.2,86,0,-1,18.5,16,47760,110,4.5,3.1
2019,7,22,01:10,UTC,0,1015.2,86,0,-1,18.3,15.9,49760,102,4.6,3.1
2019,7,22,01:20,UTC,0,1015.2,87,0,-1,18.3,16.1,48130,108,4.6,3.1
2019,7,22,01:30,UTC,0,1015.2,87,0,-1,18.2,16,46080,109,4.3,3
2019,7,22,01:40,UTC,0,1015.2,87,0,-1,18.2,16,50000,110,4.4,2.7
2019,7,22,01:50,UTC,0,1015.1,88,0,-1,18,15.9,50000,108,4,2.5
2019,7,22,02:00,UTC,0,1015.1,88,0,-1,17.9,15.9,46230,104,3.9,2.5
2019,7,22,02:10,UTC,0,1015.2,88,0,-1,18,15.9,45760,108,4.5,3
2019,7,22,02:20,UTC,0,1015.1,86,0,-1,18.3,16,45120,105,4.2,3
2019,7,22,02:30,UTC,0,1015.1,86,0,-1,18.1,15.8,50000,106,3.5,2.4
2019,7,22,02:40,UTC,0,1015,85,0,-1,18.3,15.8,46510,103,4.5,2.9
2019,7,22,02:50,UTC,0,1014.9,84,0,-1,18.5,15.8,48590,103,5.3,3
2019,7,22,03:00,UTC,0,1015,83,0,-1,18.6,15.6,47360,102,4.5,3.1
2019,7,22,03:10,UTC,0,1014.9,83,0,-1,18.6,15.7,46350,108,5,3.7
2019,7,22,03:20,UTC,0,1015,82,0,-1,18.8,15.6,49370,109,5.4,3.6
2019,7,22,03:30,UTC,0,1014.9,81,0,-1,19,15.6,43830,109,5.9,3.8
2019,7,22,03:40,UTC,0,1015,80,0,-1,19,15.5,50000,104,4.5,3.2
2019,7,22,03:50,UTC,0,1015,78,0,-1,19.5,15.6,49470,115,4.5,3.4
2019,7,22,04:00,UTC,0,1014.9,75,0,-1,20,15.4,38070,112,4.1,2.8
2019,7,22,04:10,UTC,0,1014.7,75,0,-1,20.2,15.5,50000,110,4.1,3
2019,7,22,04:20,UTC,0,1014.7,74,0,-1,20.4,15.7,43510,100,4.4,3
2019,7,22,04:30,UTC,0,1014.7,72,0,-1,20.4,15.2,47410,106,4.1,2.5
2019,7,22,04:40,UTC,0,1014.7,71,0,-1,20.7,15.2,38950,113,4.6,3.2
2019,7,22,04:50,UTC,0,1014.7,71,0,-1,20.8,15.3,41510,117,5,3.7
2019,7,22,05:00,UTC,0,1014.7,71,0,-1,21,15.4,41480,110,5.3,4.2
2019,7,22,05:10,UTC,0,1014.6,70,0,-1,21.1,15.4,45860,111,5.4,4
2019,7,22,05:20,UTC,0,1014.6,70,0,-1,21.2,15.5,37310,113,5.3,4
2019,7,22,05:30,UTC,0,1014.7,68,0,-1,21.4,15.4,44610,116,5.8,4
2019,7,22,05:40,UTC,0,1014.8,68,0,-1,21.5,15.2,45370,145,5.2,3.5
2019,7,22,05:50,UTC,0,1014.7,70,0,-1,21.5,15.8,44630,144,5.9,3.3
2019,7,22,06:00,UTC,0,1014.8,68,0,-1,21.4,15.3,43680,142,4.2,2.8
2019,7,22,06:10,UTC,0,1014.7,71,0,-1,21.2,15.7,41300,140,4.4,3.1
2019,7,22,06:20,UTC,0,1014.8,69,0,-1,21.6,15.7,36170,142,5.2,3.5
2019,7,22,06:30,UTC,0,1014.9,70,0,-1,21.6,15.9,44550,109,5,3
2019,7,22,06:40,UTC,0,1015,70,0,-1,21.4,15.8,37760,135,4.7,3
2019,7,22,06:50,UTC,0,1015,69,0,-1,21.6,15.7,37260,139,4.8,2.7
2019,7,22,07:00,UTC,0,1015,70,0,-1,21.4,15.6,38290,132,3.7,2.2
2019,7,22,07:10,UTC,0,1014.9,71,0,-1,22,16.5,39400,131,3.9,2.4
2019,7,22,07:20,UTC,0,1014.9,69,0,-1,22.2,16.2,36940,125,4.3,3.2
2019,7,22,07:30,UTC,1,1015,69,0,-1,22.2,16.2,32150,124,3.7,2.8
2019,7,22,07:40,UTC,3,1015,67,0,-1,21.7,15.4,36960,120,4.1,2.5
2019,7,22,07:50,UTC,5,1015,72,0,-1,21.3,15.9,31630,135,4,2.7
2019,7,22,08:00,UTC,3,1015,67,0,-1,22.5,16.1,35570,129,4.1,2.6
2019,7,22,08:10,UTC,3,1015,69,0,-1,22.2,16.2,38180,131,3.8,2.3
2019,7,22,08:20,UTC,,,,,,,,,124,4.3,3
2019,7,22,08:30,UTC,1,1015.2,67,0,-1,22.4,16,39680,176,4.4,2.7
2019,7,22,08:40,UTC,3,1015.3,68,0,-1,21.9,15.8,32850,185,5.5,3.2
2019,7,22,08:50,UTC,1,1015.3,67,0,-1,21.9,15.6,40010,201,5.8,3.5
2019,7,22,09:00,UTC,1,1015.3,70,0,-1,21.5,15.8,34470,196,4.8,2.9
2019,7,22,09:10,UTC,1,1015.3,70,0,-1,21.9,16.3,39980,190,4.3,2.3
2019,7,22,09:20,UTC,3,1015.3,69,0,-1,21.8,15.9,39700,201,3.3,2
2019,7,22,09:30,UTC,5,1015.4,70,0,-1,22,16.3,35820,208,3,1.3
2019,7,22,09:40,UTC,7,1015.4,71,0,-1,21.7,16.1,32600,196,3.9,2.4
2019,7,22,09:50,UTC,7,1015.5,71,0,-1,21.3,15.9,37730,211,3.6,2.2
2019,7,22,10:00,UTC,7,1015.5,71,0,-1,21,15.6,36400,205,3.7,2.1
2019,7,22,10:10,UTC,7,1015.6,73,0,-1,21,15.9,38160,200,3.1,1.9
2019,7,22,10:20,UTC,7,1015.5,76,0,-1,20.8,16.3,33020,208,4.2,2.8
2019,7,22,10:30,UTC,7,1015.6,74,0,-1,20.8,15.9,37090,208,3.4,2.4
2019,7,22,10:40,UTC,7,1015.5,74,0,-1,21,16.3,36990,213,2.4,1.5
2019,7,22,10:50,UTC,7,1015.5,73,0,-1,21,16,41010,199,3.5,1.8
2019,7,22,11:00,UTC,7,1015.5,74,0,-1,21,16.3,42820,177,2.1,1.1
2019,7,22,11:10,UTC,7,1015.5,74,0,-1,20.9,16,26720,122,2.3,1.5
2019,7,22,11:20,UTC,5,1015.4,76,0,-1,20.6,16.2,22650,131,2.6,1.8
2019,7,22,11:30,UTC,7,1015.4,80,0,-1,20.6,17,29920,129,2.1,1.4
2019,7,22,11:40,UTC,5,1015.4,73,0.4,-1,20.7,15.6,21850,115,1.7,1.1
2019,7,22,11:50,UTC,5,1015.3,81,0,-1,20.6,17.2,37610,114,2,1.3
2019,7,22,12:00,UTC,5,1015.3,76,0,-1,20.8,16.3,31800,120,1.9,1.4
2019,7,22,12:10,UTC,5,1015.3,71,0,-1,20.9,15.5,40610,91,1.9,1.4
2019,7,22,12:20,UTC,7,1015.2,69,0,-1,21,15.2,42960,105,2.3,1.5
2019,7,22,12:30,UTC,7,1015.1,68,0,-1,21.3,15.3,44470,108,1.9,1.1
2019,7,22,12:40,UTC,7,1015.1,70,0,-1,21.5,15.9,35340,127,2.2,1.1
2019,7,22,12:50,UTC,7,1015,70,0,-1,21.7,16,33020,109,2.9,1.9
2019,7,22,13:00,UTC,7,1015,67,0,-1,21.7,15.2,43460,116,3,2
2019,7,22,13:10,UTC,7,1015.1,72,0,-1,21.7,16.5,29710,123,2.2,1.5
2019,7,22,13:20,UTC,7,1015.1,70,0,-1,21.6,15.9,30180,120,2.1,1.4
2019,7,22,13:30,UTC,7,1015.2,69,0,-1,21.5,15.5,36390,134,2.3,1.2
2019,7,22,13:40,UTC,7,1015.2,72,0,-1,21.3,16,29420,158,3.1,1.9
2019,7,22,13:50,UTC,7,1015.3,77,0.3,-1,20.4,16.3,13290,231,3.4,2
2019,7,22,14:00,UTC,7,1015.3,77,0.2,-1,20.3,16.1,38480,253,3.5,2.2
2019,7,22,14:10,UTC,7,1015.3,77,0,-1,20.5,16.3,41600,241,3.6,2.3
2019,7,22,14:20,UTC,7,1015.3,77,0,-1,20.3,16,47670,237,4,2.2
2019,7,22,14:30,UTC,7,1015.3,77,0,-1,20,15.9,48290,227,4.7,2.6
2019,7,22,14:40,UTC,7,1015.3,78,0,-1,20,15.9,45430,252,3.8,2.4
2019,7,22,14:50,UTC,7,1015.2,77,0,-1,19.9,15.9,47800,239,3.8,2.4
2019,7,22,15:00,UTC,7,1015.2,78,0,-1,20.1,16,46580,254,3,1.8
2019,7,22,15:10,UTC,7,1015.2,78,0,-1,20,16,44210,232,3.2,1.8
2019,7,22,15:20,UTC,7,1015.1,77,0,-1,20.1,16,23240,256,3.5,2.3
2019,7,22,15:30,UTC,7,1015,79,0.4,-1,19.9,16.2,20550,269,3.3,2.3
2019,7,22,15:40,UTC,7,1015,80,0,-1,20.1,16.6,46630,288,2.8,2
2019,7,22,15:50,UTC,7,1014.9,76,0,-1,20.3,15.9,42010,285,2.6,1.6
2019,7,22,16:00,UTC,7,1014.8,79,0,-1,20.5,16.7,44210,284,2.5,1.5
2019,7,22,16:10,UTC,7,1014.8,78,0,-1,20.5,16.5,43040,284,2.1,1.2
2019,7,22,16:20,UTC,7,1014.7,73,0,-1,20.6,15.7,42630,278,1.9,1.5
2019,7,22,16:30,UTC,7,1014.7,75,0,-1,20.6,16.1,43930,277,2.9,2.1
2019,7,22,16:40,UTC,7,1014.6,77,0,-1,20.5,16.3,42440,279,3,2
2019,7,22,16:50,UTC,7,1014.6,77,0,-1,20.4,16.3,40250,288,2.3,1.3
2019,7,22,17:00,UTC,7,1014.5,76,0,-1,20.4,16.1,48620,301,1.6,1.1
2019,7,22,17:10,UTC,7,1014.5,78,0,-1,20.5,16.4,45200,317,2.4,1.3
2019,7,22,17:20,UTC,7,1014.4,77,0,-1,20.6,16.4,50000,269,3.1,2.3
2019,7,22,17:30,UTC,7,1014.5,78,0,-1,20.4,16.4,44780,272,2.9,2.1
2019,7,22,17:40,UTC,7,1014.6,78,0,-1,20.3,16.3,47880,282,2.8,2.2
2019,7,22,17:50,UTC,7,1014.6,79,0,-1,20.3,16.6,42020,265,3.1,2.4
2019,7,22,18:00,UTC,7,1014.7,79,0,-1,20.2,16.5,46410,270,3.8,2.9
2019,7,22,18:10,UTC,8,1014.8,78,0,-1,20,16,47240,281,4.8,3.4
2019,7,22,18:20,UTC,7,1014.9,78,0,-1,19.8,15.8,40810,284,5.1,3.3
2019,7,22,18:30,UTC,8,1015,76,0,-1,19.8,15.5,46460,303,4.6,3
2019,7,22,18:40,UTC,8,1015,76,0,-1,19.6,15.3,44680,311,4.1,2.5
2019,7,22,18:50,UTC,8,1015,75,0,-1,19.5,15,43550,314,3.6,2.5
2019,7,22,19:00,UTC,8,1015,75,0,-1,19.4,14.9,50000,320,3.4,2
2019,7,22,19:10,UTC,8,1015,76,0,-1,19.2,14.9,50000,332,2.9,2.2
2019,7,22,19:20,UTC,7,1015,77,0,-1,19,15,43710,333,2.7,2.3
2019,7,22,19:30,UTC,8,1015,78,0,-1,18.9,15,49190,338,2.7,2.1
2019,7,22,19:40,UTC,8,1014.9,77,0,-1,18.9,14.8,50000,337,2.8,2.1
2019,7,22,19:50,UTC,8,1014.9,78,0,-1,18.9,14.9,42450,324,2.1,1.7
2019,7,22,20:00,UTC,8,1014.9,78,0,-1,18.7,14.8,48030,323,2.4,1.8
2019,7,22,20:10,UTC,8,1014.9,78,0,-1,18.7,14.8,43090,322,2.4,1.9
2019,7,22,20:20,UTC,7,1014.8,78,0,-1,18.6,14.7,47050,327,2.4,1.8
2019,7,22,20:30,UTC,8,1014.8,79,0,-1,18.5,14.8,45140,330,2.3,1.6
2019,7,22,20:40,UTC,7,1014.8,80,0,-1,18.4,14.9,48000,324,2,1.6
2019,7,22,20:50,UTC,7,1014.9,80,0,-1,18.3,14.7,43390,308,2,1.5
2019,7,22,21:00,UTC,8,1014.9,80,0,-1,18.3,14.8,45650,321,2.3,1.8
2019,7,22,21:10,UTC,7,1015,81,0,-1,18.1,14.8,43360,333,2.6,2.1
2019,7,22,21:20,UTC,5,1015,80,0,-1,18.1,14.5,41320,298,2.3,1.6
2019,7,22,21:30,UTC,7,1015,79,0,-1,18,14.3,46930,322,2.5,2
2019,7,22,21:40,UTC,5,1015,82,0,-1,17.7,14.6,45760,333,2.5,2.2
2019,7,22,21:50,UTC,5,1015,83,0,-1,17.4,14.5,46700,332,2.8,2
2019,7,22,22:00,UTC,3,1015,84,0,-1,17.4,14.6,46340,330,2.3,1.8
2019,7,22,22:10,UTC,5,1015,83,0,-1,17.4,14.5,47310,350,2.7,1.7
2019,7,22,22:20,UTC,3,1015,84,0,-1,17.2,14.4,41160,351,2.3,1.7
2019,7,22,22:30,UTC,5,1015.1,86,0,-1,17.1,14.7,37280,360,2.6,1.6
2019,7,22,22:40,UTC,5,1015.1,84,0,-1,17,14.4,44620,11,2.4,1.4
2019,7,22,22:50,UTC,5,1015.1,84,0,-1,17.1,14.4,37320,360,2.4,1.2
2019,7,22,23:00,UTC,5,1015.1,85,0,-1,16.8,14.3,42920,353,2.5,1.2
2019,7,22,23:10,UTC,5,1015.1,85,0,-1,16.6,14.2,39360,356,2.8,1.4
2019,7,22,23:20,UTC,7,1015.1,86,0,-1,16.7,14.4,35930,357,2.3,1.2
2019,7,22,23:30,UTC,7,1015.2,87,0,-1,16.6,14.3,40180,5,2,1.3
2019,7,22,23:40,UTC,7,1015.2,87,0,-1,16.4,14.3,37280,22,2.1,1.3
2019,7,22,23:50,UTC,7,1015.1,88,0,-1,16.5,14.5,34760,19,3.4,2
2019,7,23,00:00,UTC,3,1015.2,88,0,-1,16.4,14.5,38800,22,3.2,1.9
2019,7,23,00:10,UTC,3,1015.2,89,0,-1,16.3,14.4,40370,17,3.4,2.2
2019,7,23,00:20,UTC,5,1015.2,88,0,-1,16.4,14.4,42720,12,3.1,2
2019,7,23,00:30,UTC,7,1015.2,88,0,-1,16.6,14.6,36580,1,2.9,1.7
2019,7,23,00:40,UTC,7,1015.2,87,0,-1,16.6,14.5,41690,8,2.9,1.6
2019,7,23,00:50,UTC,7,1015.2,87,0,-1,16.7,14.6,39750,355,3,1.2
2019,7,23,01:00,UTC,7,1015.1,88,0,-1,16.8,14.7,38960,321,1.5,0.8
2019,7,23,01:10,UTC,8,1015.1,87,0,-1,17,14.8,46470,315,1.8,1.2
2019,7,23,01:20,UTC,7,1015.1,88,0,-1,17,15,35580,332,2.2,1.8
2019,7,23,01:30,UTC,7,1015.1,87,0,-1,17.2,15,39250,336,2.3,1.7
2019,7,23,01:40,UTC,8,1015,86,0,-1,17.3,14.9,35740,339,1.8,1.3
2019,7,23,01:50,UTC,8,1015,88,0,-1,17.1,15.1,40260,323,2,1.4
2019,7,23,02:00,UTC,8,1015,88,0,-1,17,15,40750,292,1.6,0.9
2019,7,23,02:10,UTC,8,1014.9,88,0,-1,17,15.1,37120,283,1.4,0.8
2019,7,23,02:20,UTC,7,1014.9,89,0,-1,17,15.2,35180,277,1.2,0.8
2019,7,23,02:30,UTC,7,1014.9,90,0,-1,17.1,15.4,37080,318,1.4,0.7
2019,7,23,02:40,UTC,7,1014.9,88,0,-1,17.2,15.2,33900,9,1.6,0.7
2019,7,23,02:50,UTC,7,1014.9,85,0,-1,17.6,15.1,43330,351,1.5,0.7
2019,7,23,03:00,UTC,7,1015,84,0,-1,17.8,15,43810,327,1.6,1
2019,7,23,03:10,UTC,7,1014.9,85,0,-1,18.1,15.4,40790,36,2.3,1.1
2019,7,23,03:20,UTC,7,1015,82,0,-1,18.4,15.2,42800,36,2.1,1.1
2019,7,23,03:30,UTC,7,1015,80,0,-1,18.6,15.2,38090,342,2.1,1.2
2019,7,23,03:40,UTC,7,1015,79,0,-1,18.8,15.2,42180,359,2.4,1.2
2019,7,23,03:50,UTC,7,1015,80,0,-1,19,15.4,40460,31,2.3,1
2019,7,23,04:00,UTC,7,1015,78,0,-1,19.1,15.3,42530,348,1.6,0.9
2019,7,23,04:10,UTC,7,1015,76,0,-1,19.3,15.1,39870,348,2.2,1.4
2019,7,23,04:20,UTC,7,1015,77,0,-1,19.6,15.6,40370,1,1.8,1.1
2019,7,23,04:30,UTC,7,1015.1,75,0,-1,19.9,15.3,35900,24,2.5,1.1
2019,7,23,04:40,UTC,7,1015.1,71,0,-1,20.4,15,39790,19,1.9,0.7
2019,7,23,04:50,UTC,7,1015.1,69,0,-1,20.5,14.6,41830,36,2.5,1.4
2019,7,23,05:00,UTC,7,1015.1,69,0,-1,20.9,14.9,35540,36,2.2,1.1
2019,7,23,05:10,UTC,7,1015.1,65,0,-1,21.9,14.9,36590,6,2.6,1.1
2019,7,23,05:20,UTC,7,1015,62,0,-1,22.6,15,35070,334,1.5,0.9
2019,7,23,05:30,UTC,7,1015.1,59,0,-1,23.3,14.9,34560,360,2.2,1.1
2019,7,23,05:40,UTC,5,1015.1,56,0,-1,23.1,14,34040,59,3.6,1.7
2019,7,23,05:50,UTC,5,1015.1,58,0,-1,23.4,14.6,39780,93,3.2,2
2019,7,23,06:00,UTC,3,1015.2,57,0,-1,23.1,14,38830,89,2.6,1.8
2019,7,23,06:10,UTC,1,1015.2,53,0,-1,23.4,13.4,37700,126,3.3,2.1
2019,7,23,06:20,UTC,1,1015.2,50,0,-1,23.6,12.6,38320,108,3.4,2
2019,7,23,06:30,UTC,1,1015.3,51,0,-1,23.2,12.6,43530,114,3.9,2.2
2019,7,23,06:40,UTC,1,1015.3,56,0,-1,23.5,14.2,40130,106,3.2,1.9
2019,7,23,06:50,UTC,1,1015.3,52,0,-1,23.6,13.3,42140,102,2.9,1.9
2019,7,23,07:00,UTC,1,1015.4,47,0,-1,23.7,11.9,35650,110,3.3,2.2
2019,7,23,07:10,UTC,1,1015.4,50,0,-1,24,13,37190,122,3,1.8
2019,7,23,07:20,UTC,1,1015.4,47,0,-1,23.7,11.5,33450,96,3.7,1.9
2019,7,23,07:30,UTC,1,1015.5,48,0,-1,23.9,12.1,42670,117,4.7,1.7
2019,7,23,07:40,UTC,1,1015.5,47,0,-1,23.9,11.8,39070,119,3.3,2.2
2019,7,23,07:50,UTC,0,1015.6,43,0,-1,24.1,10.7,41570,137,3.2,2.1
2019,7,23,08:00,UTC,0,1015.6,44,0,-1,24,11,31760,153,3.2,1.8
2019,7,23,08:10,UTC,0,1015.6,43,0,-1,24.2,10.6,38690,141,3.1,1.9
2019,7,23,08:20,UTC,0,1015.6,40,0,-1,24.4,9.9,40340,157,3.8,2.1
2019,7,23,08:30,UTC,0,1015.6,44,0,-1,24.8,11.6,46490,146,3,2.2
2019,7,23,08:40,UTC,0,1015.6,41,0,-1,25,11,37050,143,3.4,2.1
2019,7,23,08:50,UTC,0,1015.6,42,0,-1,24.9,11.1,39100,136,2.9,2
2019,7,23,09:00,UTC,0,1015.7,41,0,-1,25,11,31030,132,3.3,2.2
2019,7,23,09:10,UTC,0,1015.8,40,0,-1,25.2,10.7,38280,132,3.4,2.2
2019,7,23,09:20,UTC,0,1015.8,40,0,-1,25.1,10.6,43130,140,3.7,2.2
2019,7,23,09:30,UTC,1,1015.9,43,0,-1,25.4,11.8,43360,155,3.8,2.6
2019,7,23,09:40,UTC,3,1015.8,41,0,-1,25.6,11.2,33580,136,3.9,2.2
2019,7,23,09:50,UTC,3,1015.8,38,0,-1,24.9,9.7,40030,172,4.4,2.4
2019,7,23,10:00,UTC,1,1015.8,41,0,-1,25.4,11.2,37190,188,5,3.3
2019,7,23,10:10,UTC,1,1015.8,38,0,-1,25,9.9,37130,208,4.4,3
2019,7,23,10:20,UTC,0,1015.7,40,0,-1,24.8,10.3,31690,207,5.2,3.2
2019,7,23,10:30,UTC,0,1015.7,42,0,-1,24.6,10.7,32740,212,4.7,3.3
2019,7,23,10:40,UTC,1,1015.6,37,0,-1,24.6,8.8,35900,206,4.9,3.1
2019,7,23,10:50,UTC,3,1015.6,40,0,-1,25.3,10.5,32150,190,5.1,3.5
2019,7,23,11:00,UTC,3,1015.7,39,0,-1,24.1,9.3,34610,198,5.8,3.7
2019,7,23,11:10,UTC,1,1015.6,39,0,-1,24.3,9.4,42920,219,4.8,3.4
2019,7,23,11:20,UTC,1,1015.6,40,0,-1,25.2,10.8,9790,211,4.7,3.2
2019,7,23,11:30,UTC,0,1015.5,42,0,-1,24.8,11,23180,200,5,3.2
2019,7,23,11:40,UTC,1,1015.4,42,0,-1,24.8,11.1,35540,223,5.6,3.8
2019,7,23,11:50,UTC,5,1015.4,43,0,-1,25,11.4,42290,224,5.7,4.2
2019,7,23,12:00,UTC,3,1015.4,41,0,-1,24.8,10.6,31960,218,6.2,4.7
2019,7,23,12:10,UTC,3,1015.4,39,0,-1,24.5,9.5,33850,218,5.9,4.6
2019,7,23,12:20,UTC,3,1015.3,41,0,-1,24.6,10.4,37010,219,6,4.8
2019,7,23,12:30,UTC,5,1015.3,41,0,-1,24.5,10.3,43970,227,6.4,5
2019,7,23,12:40,UTC,7,1015.3,41,0,-1,24.2,10,36960,223,6.1,4.9
2019,7,23,12:50,UTC,3,1015.3,44,0,-1,24.4,11.5,31400,227,6.4,4.5
2019,7,23,13:00,UTC,5,1015.2,44,0,-1,24.8,11.7,33990,228,6,4.2
2019,7,23,13:10,UTC,5,1015.2,43,0,-1,25,11.4,31080,228,6.3,3.8
2019,7,23,13:20,UTC,7,1015.1,42,0,-1,24.8,10.9,36280,215,6.6,4.9
2019,7,23,13:30,UTC,7,1015.1,42,0,-1,24.3,10.5,36830,222,5.9,3.8
2019,7,23,13:40,UTC,5,1015.2,42,0,-1,24.5,10.7,40720,234,6.4,3.9
2019,7,23,13:50,UTC,3,1015.1,41,0,-1,24.4,10.4,50000,232,6.1,3.8
2019,7,23,14:00,UTC,1,1015,41,0,-1,24.3,10.1,47480,234,4.7,3
2019,7,23,14:10,UTC,1,1015.1,42,0,-1,24.3,10.7,45900,230,4.7,2.9
2019,7,23,14:20,UTC,1,1015.1,43,0,-1,24.1,10.9,48490,253,5.1,2.9
2019,7,23,14:30,UTC,3,1015,47,0,-1,24.2,12.1,40880,279,4.7,3
2019,7,23,14:40,UTC,3,1015,48,0,-1,24,12.4,48580,246,3.6,2.2
2019,7,23,14:50,UTC,1,1015,51,0,-1,24.1,13.2,45240,271,2.9,1.8
2019,7,23,15:00,UTC,3,1015,48,0,-1,25.1,13.4,43470,294,6.5,2.9
2019,7,23,15:10,UTC,5,1015,48,0,-1,24.9,13.3,47300,302,8.2,4.1
2019,7,23,15:20,UTC,7,1015.1,50,0,-1,24.8,13.7,44650,280,6.7,5.2
2019,7,23,15:30,UTC,7,1015.2,52,0,-1,24.6,14.2,44610,300,6.2,4
2019,7,23,15:40,UTC,7,1015.2,55,0,-1,24.1,14.5,44660,333,8.1,5.5
2019,7,23,15:50,UTC,7,1015.2,57,0,-1,23.8,14.8,40300,332,6.4,4.8
2019,7,23,16:00,UTC,7,1015.2,56,0,-1,23.5,14.3,38250,338,6.5,4.8
2019,7,23,16:10,UTC,7,1015.3,56,0,-1,23.3,14,43120,357,4.9,3.2
2019,7,23,16:20,UTC,7,1015.2,56,0,-1,23.2,13.9,50000,338,4.9,3.2
2019,7,23,16:30,UTC,7,1015.2,55,0,-1,23,13.5,50000,329,3.7,2.5
2019,7,23,16:40,UTC,7,1015.3,55,0,-1,22.8,13.3,50000,30,3.3,2.2
2019,7,23,16:50,UTC,7,1015.4,58,0,-1,22.6,13.8,44370,54,5,2.6
2019,7,23,17:00,UTC,7,1015.4,58,0,-1,22.6,13.8,49770,45,3.5,1.8
2019,7,23,17:10,UTC,7,1015.4,59,0,-1,22.6,14.1,48230,15,1.9,1
2019,7,23,17:20,UTC,7,1015.5,61,0,-1,22.5,14.5,43180,13,1.4,0.7
2019,7,23,17:30,UTC,7,1015.5,61,0,-1,22.2,14.4,47310,320,1.8,1.2
2019,7,23,17:40,UTC,7,1015.5,61,0,-1,22.1,14.3,48500,303,2.8,1.9
2019,7,23,17:50,UTC,7,1015.5,61,0,-1,22.4,14.5,46290,284,3.2,2.2
2019,7,23,18:00,UTC,5,1015.5,62,0,-1,22.7,15.2,48910,298,3.7,2.1
2019,7,23,18:10,UTC,3,1015.5,63,0,-1,22.6,15.1,48570,281,4.3,3.3
2019,7,23,18:20,UTC,5,1015.5,64,0,-1,22.3,15.2,49170,307,4.5,3
2019,7,23,18:30,UTC,5,1015.5,65,0,-1,22.1,15.2,44910,319,4.1,2.6
2019,7,23,18:40,UTC,3,1015.5,65,0,-1,21.8,15,46100,317,4.2,3.1
2019,7,23,18:50,UTC,3,1015.6,66,0,-1,21.5,14.9,48730,322,3.4,1.9
2019,7,23,19:00,UTC,5,1015.5,66,0,-1,21.4,14.8,50000,323,2.4,1.3
2019,7,23,19:10,UTC,7,1015.5,66,0,-1,21.4,14.7,46830,320,2.7,1.9
2019,7,23,19:20,UTC,8,1015.5,64,0,-1,21.6,14.3,50000,315,3.9,2.9
2019,7,23,19:30,UTC,7,1015.5,63,0,-1,21.6,14.2,49830,306,4.8,3.1
2019,7,23,19:40,UTC,7,1015.6,63,0,-1,21.2,14,46230,313,4.9,3.1
2019,7,23,19:50,UTC,5,1015.6,65,0,-1,21,14.2,36550,310,3.8,2.4
2019,7,23,20:00,UTC,5,1015.6,66,0,-1,20.5,13.9,47090,312,4,2.6
2019,7,23,20:10,UTC,3,1015.6,67,0,-1,20.2,14,50000,318,3.6,2.6
2019,7,23,20:20,UTC,1,1015.6,69,0,-1,19.9,14,46960,324,4.3,2.8
2019,7,23,20:30,UTC,0,1015.6,70,0,-1,19.7,14.2,49160,316,4.2,2.9
2019,7,23,20:40,UTC,0,1015.7,70,0,-1,19.7,14.1,50000,323,4,2.8
2019,7,23,20:50,UTC,0,1015.6,72,0,-1,19.5,14.3,47360,324,4,2.6
2019,7,23,21:00,UTC,0,1015.6,73,0,-1,19.2,14.3,48290,332,3.6,2.4
2019,7,23,21:10,UTC,1,1015.6,75,0,-1,18.9,14.4,50000,330,3.6,2.7
2019,7,23,21:20,UTC,1,1015.6,76,0,-1,18.9,14.6,49940,333,4.3,2.9
2019,7,23,21:30,UTC,1,1015.7,77,0,-1,18.9,14.7,50000,323,3.8,2.9
2019,7,23,21:40,UTC,1,1015.7,78,0,-1,18.8,14.8,50000,325,3.3,2.4
2019,7,23,21:50,UTC,1,1015.8,78,0,-1,18.8,14.9,46050,324,2.9,2.3
2019,7,23,22:00,UTC,1,1015.8,79,0,-1,18.5,14.8,44220,317,3.6,2.6
2019,7,23,22:10,UTC,1,1015.9,80,0,-1,18.5,14.9,34030,332,3.3,2.4
2019,7,23,22:20,UTC,0,1015.9,81,0,-1,18.2,14.8,39620,320,3.3,2.6
2019,7,23,22:30,UTC,0,1015.9,82,0,-1,18.1,14.9,46000,339,4.7,2.8
2019,7,23,22:40,UTC,0,1016,82,0,-1,18.2,15,46030,347,4.7,2.9
2019,7,23,22:50,UTC,0,1015.9,80,0,-1,18.5,14.9,45080,350,4.8,3.2
2019,7,23,23:00,UTC,0,1015.9,80,0,-1,18.5,15,47210,350,5.2,3.4
2019,7,23,23:10,UTC,0,1016,80,0,-1,18.5,15,47220,351,4.6,3.1
2019,7,23,23:20,UTC,0,1016,81,0,-1,18.2,14.9,48240,344,4.7,3.1
2019,7,23,23:30,UTC,0,1016,82,0,-1,18.1,14.9,45620,353,3.9,2.4
2019,7,23,23:40,UTC,0,1016,82,0,-1,18,14.9,41790,346,4.7,3.5
2019,7,23,23:50,UTC,0,1016,82,0,-1,17.9,14.8,46430,347,4.8,3.3
2019,7,24,00:00,UTC,0,1016,82,0,-1,18,14.8,49740,350,4.9,3.3
2019,7,24,00:10,UTC,0,1015.9,82,0,-1,17.9,14.7,47170,348,5.2,3.6
2019,7,24,00:20,UTC,0,1015.9,83,0,-1,17.5,14.7,44520,336,4.4,2.5
2019,7,24,00:30,UTC,0,1016,84,0,-1,17.4,14.6,43070,340,4.5,2.6
2019,7,24,00:40,UTC,0,1016,84,0,-1,17.3,14.6,44140,339,4.5,3
2019,7,24,00:50,UTC,0,1015.9,84,0,-1,17.2,14.6,43630,334,4.1,2.6
2019,7,24,01:00,UTC,0,1015.9,85,0,-1,17.1,14.6,44570,338,3.5,2.1
2019,7,24,01:10,UTC,0,1015.9,85,0,-1,17.1,14.5,47030,343,4.4,2.7
2019,7,24,01:20,UTC,0,1015.9,85,0,-1,17,14.5,39340,345,3.6,2.4
2019,7,24,01:30,UTC,0,1016,86,0,-1,16.8,14.5,34280,340,4.1,2.7
2019,7,24,01:40,UTC,0,1015.9,87,0,-1,16.8,14.6,39220,323,3.7,2.5
2019,7,24,01:50,UTC,0,1016,87,0,-1,16.7,14.5,39410,323,3.3,2.5
2019,7,24,02:00,UTC,0,1016,87,0,-1,16.7,14.5,45450,329,3.8,2.9
2019,7,24,02:10,UTC,0,1015.9,88,0,-1,16.5,14.5,47060,329,4.1,2.5
2019,7,24,02:20,UTC,0,1015.9,88,0,-1,16.4,14.5,41270,327,3.3,2.4
2019,7,24,02:30,UTC,0,1016,88,0,-1,16.4,14.5,44420,322,4.5,3.2
2019,7,24,02:40,UTC,0,1016,88,0,-1,16.5,14.5,43790,327,3.5,2.6
2019,7,24,02:50,UTC,0,1016,88,0,-1,16.7,14.6,40740,322,3.6,2.7
2019,7,24,03:00,UTC,0,1016,87,0,-1,16.8,14.6,41600,325,3.7,2.8
2019,7,24,03:10,UTC,0,1016,87,0,-1,16.8,14.7,36970,330,3.7,2.9
2019,7,24,03:20,UTC,0,1016,86,0,-1,17.1,14.7,44420,342,4.4,2.6
2019,7,24,03:30,UTC,0,1016,83,0,-1,17.5,14.7,44610,341,3.3,2.5
2019,7,24,03:40,UTC,0,1016,82,0,-1,17.7,14.7,43140,339,3.2,2
2019,7,24,03:50,UTC,0,1016.1,81,0,-1,18,14.8,44100,330,3.4,2.6
2019,7,24,04:00,UTC,0,1016.2,77,0,-1,18.8,14.6,45460,332,3.6,2.4
2019,7,24,04:10,UTC,0,1016.2,76,0,-1,19.1,14.7,43740,320,3.3,2.2
2019,7,24,04:20,UTC,0,1016.2,75,0,-1,19.5,15,43330,325,4.1,2.7
2019,7,24,04:30,UTC,0,1016.2,72,0,-1,20,14.9,46920,328,4,2.7
2019,7,24,04:40,UTC,0,1016.2,70,0,-1,20.5,14.9,45480,327,2.9,1.9
2019,7,24,04:50,UTC,0,1016.2,70,0,-1,20.9,15.2,36970,318,2.6,1.3
2019,7,24,05:00,UTC,0,1016.1,67,0,-1,21.4,15,39290,317,2.4,1.5
2019,7,24,05:10,UTC,0,1016.1,67,0,-1,21.7,15.2,38700,321,2.9,1.7
2019,7,24,05:20,UTC,0,1016.1,68,0,-1,22,15.8,38810,315,3.5,2.3
2019,7,24,05:30,UTC,0,1016.2,64,0,-1,22.3,15.1,45210,320,3.9,2.4
2019,7,24,05:40,UTC,0,1016.1,63,0,-1,22.6,15.3,34150,322,4.5,2.3
2019,7,24,05:50,UTC,0,1016.1,61,0,-1,22.8,15,41930,325,4.4,2.5
2019,7,24,06:00,UTC,0,1016.2,62,0,-1,23,15.2,46320,318,3.8,2.6
2019,7,24,06:10,UTC,0,1016.2,61,0,-1,23.3,15.5,41740,327,4.2,2.8
2019,7,24,06:20,UTC,0,1016.2,58,0,-1,23.8,15,43280,325,3.9,2.6
2019,7,24,06:30,UTC,0,1016.2,57,0,-1,23.8,14.7,31840,317,4.4,2.9
2019,7,24,06:40,UTC,0,1016.2,54,0,-1,24.6,14.8,36030,330,4.7,3.3
2019,7,24,06:50,UTC,0,1016.2,54,0,-1,24.8,14.9,40280,342,4.6,2.9
2019,7,24,07:00,UTC,0,1016.2,51,0,-1,25.1,14.3,43120,322,4.1,2.8
2019,7,24,07:10,UTC,0,1016.2,53,0,-1,25.2,15.1,39710,316,5.9,3.1
2019,7,24,07:20,UTC,0,1016.2,52,0,-1,25,14.3,42010,338,5.4,3.6
2019,7,24,07:30,UTC,0,1016.2,47,0,-1,26,14,38150,350,5,2.8
2019,7,24,07:40,UTC,0,1016.2,46,0,-1,25.4,12.7,42920,323,5.7,3.1
2019,7,24,07:50,UTC,0,1016.2,46,0,-1,25.8,13.4,38490,327,6.5,4
2019,7,24,08:00,UTC,0,1016.2,47,0,-1,26.2,14.1,33390,347,5.6,3.2
2019,7,24,08:10,UTC,0,1016.3,47,0,-1,26.1,13.9,39580,335,5.6,2.7
2019,7,24,08:20,UTC,0,1016.2,45,0,-1,26.6,13.7,41100,324,7,4
2019,7,24,08:30,UTC,0,1016.2,44,0,-1,26.4,13.1,37560,318,5.8,3.6
2019,7,24,08:40,UTC,0,1016.2,43,0,-1,26.7,13.2,44500,326,6.9,4.2
2019,7,24,08:50,UTC,1,1016.2,42,0,-1,26.5,12.5,40810,315,6.3,3.7
2019,7,24,09:00,UTC,1,1016.2,40,0,-1,27,12.5,43440,330,8,3.6
2019,7,24,09:10,UTC,1,1016.2,44,0,-1,27.5,14.1,38540,341,6.3,3.2
2019,7,24,09:20,UTC,1,1016.2,36,0,-1,27.5,10.9,37470,12,6.4,3.6
2019,7,24,09:30,UTC,1,1016.2,39,0,-1,26.8,11.6,39380,340,5.6,2.5
2019,7,24,09:40,UTC,1,1016.1,35,0,-1,27.9,11,36660,12,6.8,3.3
2019,7,24,09:50,UTC,1,1016.1,35,0,-1,28,11.3,39800,329,7.9,4.1
2019,7,24,10:00,UTC,1,1016.1,35,0,-1,27.9,11.1,33360,325,7,3.4
2019,7,24,10:10,UTC,1,1016.2,37,0,-1,27.9,12,29770,333,5.1,3.1
2019,7,24,10:20,UTC,1,1016.1,34,0,-1,28.5,11.2,39640,334,8.2,4.5
2019,7,24,10:30,UTC,1,1016.1,35,0,-1,28.3,11.4,34910,19,7.6,3.1
2019,7,24,10:40,UTC,3,1016,35,0,-1,28.4,11.6,42700,331,6.8,3.3
2019,7,24,10:50,UTC,5,1016.1,39,0,-1,26.7,11.6,42990,348,10.2,4
2019,7,24,11:00,UTC,3,1016.1,39,0,-1,27.3,12.1,35400,336,7.1,4.9
2019,7,24,11:10,UTC,1,1016.1,34,0,-1,27.9,10.8,39600,327,7.4,4.5
2019,7,24,11:20,UTC,1,1016.1,34,0,-1,28.5,11.1,39670,333,4.8,3.2
2019,7,24,11:30,UTC,1,1016.1,38,0,-1,27.7,12.1,44440,317,6.5,2
2019,7,24,11:40,UTC,1,1016.1,34,0,-1,27.5,10,40240,333,6.9,4.3
2019,7,24,11:50,UTC,3,1015.9,33,0,-1,28.5,10.8,42600,309,7.3,3.1
2019,7,24,12:00,UTC,3,1016.1,36,0,-1,27.4,11,34550,333,8.2,4.7
2019,7,24,12:10,UTC,3,1016,33,0,-1,28.1,10.4,33490,347,6.3,3.7
2019,7,24,12:20,UTC,1,1016,34,0,-1,27.3,10.2,47290,347,7.3,4.2
2019,7,24,12:30,UTC,1,1015.8,30,0,-1,28.1,9.1,37840,328,5.7,3.8
2019,7,24,12:40,UTC,3,1015.8,35,0,-1,27.7,10.9,42220,292,7.1,4.2
2019,7,24,12:50,UTC,3,1015.8,38,0,-1,27.2,11.7,48100,332,6.8,4.3
2019,7,24,13:00,UTC,3,1015.7,33,0,-1,28,10.2,42960,328,7.5,3.5
2019,7,24,13:10,UTC,3,1015.7,33,0,-1,28.1,10.3,40250,340,5.5,3.2
2019,7,24,13:20,UTC,5,1015.7,32,0,-1,28.1,9.8,43520,2,6.9,2.4
2019,7,24,13:30,UTC,3,1015.7,33,0,-1,27.8,10,42700,16,6.6,3.9
2019,7,24,13:40,UTC,1,1015.7,32,0,-1,27.6,9.5,49520,15,6.1,3.3
2019,7,24,13:50,UTC,1,1015.6,32,0,-1,28.3,10.2,43710,327,7.6,5
2019,7,24,14:00,UTC,1,1015.6,32,0,-1,27.8,9.7,41000,330,7.1,4.4
2019,7,24,14:10,UTC,1,1015.5,31,0,-1,28.1,9.4,36310,325,5.7,2.6
2019,7,24,14:20,UTC,1,1015.5,31,0,-1,28.3,9.5,44330,345,6.7,3.1
2019,7,24,14:30,UTC,1,1015.5,31,0,-1,28.4,9.8,46710,331,8.5,5.7
2019,7,24,14:40,UTC,0,1015.5,30,0,-1,28.3,9.2,50000,335,7.1,4.1
2019,7,24,14:50,UTC,0,1015.5,31,0,-1,28.3,9.5,40610,343,7.2,4.4
2019,7,24,15:00,UTC,0,1015.5,31,0,-1,28.2,9.3,40580,318,8.8,5
2019,7,24,15:10,UTC,0,1015.5,32,0,-1,28.2,10,44160,323,8.3,5
2019,7,24,15:20,UTC,0,1015.4,31,0,-1,27.8,9.1,46640,342,7.3,3.9
2019,7,24,15:30,UTC,0,1015.3,32,0,-1,28.1,9.8,50000,346,8.2,4.8
2019,7,24,15:40,UTC,0,1015.3,31,0,-1,28,9.5,46750,339,8.1,4.9
2019,7,24,15:50,UTC,0,1015.3,33,0,-1,27.9,10.1,46050,344,6.5,4.2
2019,7,24,16:00,UTC,0,1015.3,30,0,-1,28.3,9,50000,337,6.7,5.2
2019,7,24,16:10,UTC,0,1015.4,32,0,-1,27.4,9.3,47820,354,6.3,3.6
2019,7,24,16:20,UTC,0,1015.4,33,0,-1,27.8,10.1,47210,330,7.8,5
2019,7,24,16:30,UTC,0,1015.3,33,0,-1,27.7,10.1,47770,327,8.2,4.8
2019,7,24,16:40,UTC,0,1015.3,34,0,-1,27.2,10.2,47520,328,6.8,4.1
2019,7,24,16:50,UTC,0,1015.3,34,0,-1,27.1,10,45620,330,6.6,4.7
2019,7,24,17:00,UTC,0,1015.3,35,0,-1,26.9,10.4,45740,329,6.7,4.9
2019,7,24,17:10,UTC,0,1015.3,34,0,-1,27.2,10,47990,332,7.2,5.5
2019,7,24,17:20,UTC,0,1015.4,36,0,-1,26.6,10.2,50000,348,6.5,4.2
2019,7,24,17:30,UTC,0,1015.4,37,0,-1,26.3,10.5,46800,338,6.4,4.2
2019,7,24,17:40,UTC,0,1015.5,38,0,-1,26.1,10.6,48220,343,7.5,3.6
2019,7,24,17:50,UTC,0,1015.6,38,0,-1,25.8,10.5,46680,345,5.3,3.4
2019,7,24,18:00,UTC,0,1015.7,40,0,-1,25.5,11,50000,343,5,3.2
2019,7,24,18:10,UTC,0,1015.7,41,0,-1,24.9,10.8,50000,339,5.5,3.5
2019,7,24,18:20,UTC,0,1015.8,42,0,-1,24.6,10.9,50000,338,5.5,3.4
2019,7,24,18:30,UTC,0,1015.8,44,0,-1,24.1,11,43360,332,4,3
2019,7,24,18:40,UTC,0,1015.9,44,0,-1,23.7,10.9,46810,330,3.4,2.6
2019,7,24,18:50,UTC,0,1015.9,48,0,-1,23.3,11.8,39540,327,3.4,2.5
2019,7,24,19:00,UTC,0,1016,47,0,-1,22.9,11.1,45560,320,2.8,2.2
2019,7,24,19:10,UTC,0,1016,52,0,-1,22.4,12.1,47930,327,3.1,2.4
2019,7,24,19:20,UTC,0,1016,52,0,-1,21.9,11.5,42060,331,3.4,2.4
2019,7,24,19:30,UTC,0,1016.1,53,0,-1,21.5,11.4,50000,333,2.9,2.4
2019,7,24,19:40,UTC,0,1016,53,0,-1,21.2,11.3,50000,330,2.8,2
2019,7,24,19:50,UTC,0,1016.1,52,0,-1,20.9,10.8,48410,331,2.2,1.8
2019,7,24,20:00,UTC,0,1016.1,53,0,-1,20.6,10.8,50000,327,2.6,2.1
2019,7,24,20:10,UTC,0,1016.2,54,0,-1,20.4,10.9,47830,326,2.5,2.2
2019,7,24,20:20,UTC,0,1016.2,55,0,-1,20.6,11.1,43870,321,3.5,2.4
2019,7,24,20:30,UTC,0,1016.2,56,0,-1,20.5,11.3,48880,323,4.2,2.8
2019,7,24,20:40,UTC,0,1016.3,56,0,-1,20.7,11.6,41750,317,4.9,2.9
2019,7,24,20:50,UTC,0,1016.3,58,0,-1,20.5,11.8,50000,322,4.9,3.4
2019,7,24,21:00,UTC,0,1016.5,60,0,-1,20.7,12.7,49920,323,5.9,3.7
2019,7,24,21:10,UTC,0,1016.5,62,0,-1,20.8,13.2,46050,324,5.5,3.4
2019,7,24,21:20,UTC,0,1016.6,62,0,-1,21.3,13.6,49800,327,5.9,4.2
2019,7,24,21:30,UTC,0,1016.6,61,0,-1,21.5,13.8,44430,329,7,4.7
2019,7,24,21:40,UTC,0,1016.7,60,0,-1,21.6,13.5,50000,327,6.4,4.5
2019,7,24,21:50,UTC,0,1016.7,60,0,-1,21.5,13.4,50000,328,6.8,4.3
2019,7,24,22:00,UTC,0,1016.7,59,0,-1,21.5,13.3,35740,329,6.5,4.5
2019,7,24,22:10,UTC,0,1016.7,60,0,-1,21.4,13.3,50000,329,7.1,4.5
2019,7,24,22:20,UTC,1,1016.8,60,0,-1,21.3,13.2,50000,327,6,4.3
2019,7,24,22:30,UTC,1,1016.8,59,0,-1,21.2,13,50000,326,6.7,4.3
2019,7,24,22:40,UTC,1,1016.8,58,0,-1,21.3,12.8,50000,329,6.6,4.5
2019,7,24,22:50,UTC,1,1016.8,59,0,-1,21.2,12.7,50000,329,6.2,4.8
2019,7,24,23:00,UTC,0,1016.8,59,0,-1,21,12.6,50000,330,7.1,4.5
2019,7,24,23:10,UTC,0,1016.7,60,0,-1,20.8,12.7,50000,328,7.2,4.9
2019,7,24,23:20,UTC,0,1016.7,60,0,-1,20.6,12.6,50000,324,6.4,4.8
2019,7,24,23:30,UTC,0,1016.6,61,0,-1,20.4,12.7,50000,328,6,4.5
2019,7,24,23:40,UTC,0,1016.6,60,0,-1,20.5,12.6,50000,329,6.8,4.8
2019,7,24,23:50,UTC,0,1016.6,61,0,-1,20.4,12.5,50000,330,6.2,4.8
2019,7,25,00:00,UTC,0,1016.6,62,0,-1,20.1,12.6,50000,326,6.5,4.7
2019,7,25,00:10,UTC,0,1016.6,62,0,-1,20,12.6,50000,329,6.6,4.9
2019,7,25,00:20,UTC,0,1016.7,64,0,-1,19.7,12.8,50000,328,6.4,4.4
2019,7,25,00:30,UTC,0,1016.8,64,0,-1,19.5,12.7,50000,336,5.7,3.6
2019,7,25,00:40,UTC,0,1016.7,64,0,-1,19.7,12.7,50000,345,6,3.6
2019,7,25,00:50,UTC,0,1016.7,66,0,-1,19.4,12.8,50000,339,7.5,4.7
2019,7,25,01:00,UTC,0,1016.8,66,0,-1,19.2,12.8,50000,338,7.5,4
2019,7,25,01:10,UTC,0,1016.8,68,0,-1,19,12.9,50000,332,5.3,3.5
2019,7,25,01:20,UTC,0,1016.8,68,0,-1,19,12.8,50000,335,5.8,3.9
2019,7,25,01:30,UTC,0,1016.7,68,0,-1,18.8,12.9,50000,339,4.5,3.1
2019,7,25,01:40,UTC,0,1016.8,69,0,-1,18.7,12.9,45530,338,6.2,3.2
2019,7,25,01:50,UTC,0,1016.8,70,0,-1,18.7,13,50000,346,5.6,3.1
2019,7,25,02:00,UTC,0,1016.8,70,0,-1,18.7,13.1,50000,352,5.5,3.3
2019,7,25,02:10,UTC,0,1016.9,71,0,-1,18.6,13.3,50000,348,5.3,3.6
2019,7,25,02:20,UTC,0,1016.9,71,0,-1,18.7,13.4,50000,352,5.6,3.4
2019,7,25,02:30,UTC,0,1016.9,71,0,-1,18.7,13.2,48290,353,5.8,3.7
2019,7,25,02:40,UTC,0,1017,72,0,-1,18.5,13.3,50000,357,5.5,3.5
2019,7,25,02:50,UTC,0,1017.1,71,0,-1,18.7,13.3,50000,8,5.5,3.4
2019,7,25,03:00,UTC,0,1017.2,71,0,-1,18.8,13.4,49320,2,5.6,3.3
2019,7,25,03:10,UTC,0,1017.3,71,0,-1,18.8,13.4,50000,2,5.6,3.1
2019,7,25,03:20,UTC,0,1017.4,70,0,-1,18.9,13.3,50000,9,5.8,3.5
2019,7,25,03:30,UTC,0,1017.5,70,0,-1,19,13.4,50000,18,6.3,3.8
2019,7,25,03:40,UTC,0,1017.5,71,0,-1,18.9,13.4,50000,28,6.1,3.7
2019,7,25,03:50,UTC,0,1017.6,71,0,-1,19,13.6,44980,21,6.2,3.3
2019,7,25,04:00,UTC,0,1017.6,68,0,-1,19.7,13.7,44460,29,5.8,3.9
2019,7,25,04:10,UTC,0,1017.6,69,0,-1,19.9,14.2,49460,27,6,3.5
2019,7,25,04:20,UTC,0,1017.7,67,0,-1,20.2,14,49850,35,4.4,2.5
2019,7,25,04:30,UTC,0,1017.7,68,0,-1,20.2,14.1,44530,52,3.6,2.1
2019,7,25,04:40,UTC,0,1017.8,67,0,-1,20.6,14.2,44010,50,5.3,3.2
2019,7,25,04:50,UTC,0,1017.9,66,0,-1,21,14.4,36840,48,4.3,2.7
2019,7,25,05:00,UTC,0,1018,66,0,-1,21.2,14.6,35580,50,4,2.4
2019,7,25,05:10,UTC,0,1018.1,65,0,-1,21.8,15,38780,60,3.6,2.2
2019,7,25,05:20,UTC,0,1018.2,64,0,-1,21.8,14.7,38870,66,4.1,2.8
2019,7,25,05:30,UTC,0,1018.3,63,0,-1,21.7,14.4,35590,90,5,3.5
2019,7,25,05:40,UTC,0,1018.4,62,0,-1,22,14.5,39820,85,5.1,3.3
2019,7,25,05:50,UTC,0,1018.3,62,0,-1,22.2,14.6,41200,103,4.6,3.2
2019,7,25,06:00,UTC,0,1018.2,60,0,-1,22.5,14.4,33510,103,4.2,2.8
2019,7,25,06:10,UTC,0,1018.2,58,0,-1,22.6,13.9,41350,104,4.2,2.7
2019,7,25,06:20,UTC,0,1018.3,57,0,-1,23.1,14,35200,81,3.6,2
2019,7,25,06:30,UTC,0,1018.3,54,0,-1,23.3,13.4,38770,44,3.7,2.6
2019,7,25,06:40,UTC,0,1018.5,53,0,-1,23.2,13.2,41200,47,3.7,1.8
2019,7,25,06:50,UTC,0,1018.4,54,0,-1,23.5,13.8,42180,59,3.4,1.9
2019,7,25,07:00,UTC,0,1018.4,53,0,-1,23.7,13.5,41410,73,4.5,2.6
2019,7,25,07:10,UTC,0,1018.4,53,0,-1,23.6,13.5,43280,84,4,2.9
2019,7,25,07:20,UTC,0,1018.3,53,0,-1,24.1,13.9,38660,84,5.5,3.4
2019,7,25,07:30,UTC,0,1018.3,56,0,-1,23.9,14.5,38490,73,5.1,2.7
2019,7,25,07:40,UTC,0,1018.4,55,0,-1,23.4,13.8,37510,86,3.4,2.2
2019,7,25,07:50,UTC,0,1018.4,55,0,-1,23.6,14,43240,125,4.7,3
2019,7,25,08:00,UTC,0,1018.5,58,0,-1,23.2,14.6,42590,122,5.4,3.8
2019,7,25,08:10,UTC,0,1018.7,65,0,-1,22.6,15.6,37660,129,6.3,4.3
2019,7,25,08:20,UTC,0,1018.7,63,0,-1,22.6,15.2,37160,120,6.8,4.6
2019,7,25,08:30,UTC,0,1018.9,63,0,-1,22.5,15.2,39920,120,6.4,4.6
2019,7,25,08:40,UTC,0,1019,69,0,-1,22.2,16.2,35420,124,7,4.5
2019,7,25,08:50,UTC,0,1019.1,69,0,-1,22,15.9,41440,127,8.4,5.8
2019,7,25,09:00,UTC,0,1019.2,67,0,-1,21.9,15.4,33400,131,7.9,5.8
2019,7,25,09:10,UTC,0,1019.2,68,0,-1,21.9,15.6,34790,122,7.7,5.4
2019,7,25,09:20,UTC,0,1019.2,65,0,-1,21.8,14.9,37520,113,7.1,4.4
2019,7,25,09:30,UTC,0,1019.2,68,0,-1,21.7,15.5,39780,124,6.7,4.5
2019,7,25,09:40,UTC,0,1019.3,65,0,-1,22,15.1,36420,130,6.9,5
2019,7,25,09:50,UTC,0,1019.2,67,0,-1,21.5,15.1,39330,124,8.7,6.1
2019,7,25,10:00,UTC,0,1019.4,65,0,-1,21.6,14.8,39040,123,8.2,6
2019,7,25,10:10,UTC,0,1019.4,65,0,-1,21.7,15,35300,118,7.4,4.8
2019,7,25,10:20,UTC,0,1019.4,65,0,-1,21.4,14.5,32690,116,8.4,5.8
2019,7,25,10:30,UTC,1,1019.3,62,0,-1,21.5,14,38220,113,8,5
2019,7,25,10:40,UTC,0,1019.3,60,0,-1,22.3,14.3,41110,122,7,4.9
2019,7,25,10:50,UTC,0,1019.4,64,0,-1,22,14.8,38510,130,7.8,4.5
2019,7,25,11:00,UTC,1,1019.4,63,0,-1,22,14.5,48580,162,7.3,4.9
2019,7,25,11:10,UTC,0,1019.4,64,0,-1,22.5,15.3,37630,141,6.5,3.5
2019,7,25,11:20,UTC,0,1019.4,62,0,-1,22.6,14.9,37360,129,5.9,3.5
2019,7,25,11:30,UTC,0,1019.5,61,0,-1,22,14.1,38630,163,7,5
2019,7,25,11:40,UTC,0,1019.5,62,0,-1,22.1,14.4,41830,160,6.1,4.1
2019,7,25,11:50,UTC,0,1019.4,61,0,-1,22.8,14.8,43600,138,6.3,3.6
2019,7,25,12:00,UTC,0,1019.5,62,0,-1,22.3,14.7,39710,120,6.6,3.7
2019,7,25,12:10,UTC,0,1019.5,61,0,-1,22.4,14.4,34850,143,6.5,4.3
2019,7,25,12:20,UTC,0,1019.3,62,0,-1,21.7,14.2,33960,152,5.6,4
2019,7,25,12:30,UTC,0,1019.3,63,0,-1,22.2,14.8,40240,147,5.5,3.8
2019,7,25,12:40,UTC,0,1019.3,65,0,-1,21.4,14.5,45960,139,5.7,4.1
2019,7,25,12:50,UTC,0,1019.1,63,0,-1,22.4,14.9,45490,129,5.2,3.4
2019,7,25,13:00,UTC,0,1019.2,62,0,-1,22.2,14.6,50000,125,6.2,3.9
2019,7,25,13:10,UTC,0,1019.2,62,0,-1,22,14.5,46830,146,6,4
2019,7,25,13:20,UTC,0,1019.3,59,0,-1,21.8,13.5,45880,152,5.2,3.5
2019,7,25,13:30,UTC,0,1019.3,59,0,-1,22.2,13.8,45590,138,5.2,3.3
2019,7,25,13:40,UTC,0,1019.3,58,0,-1,22.2,13.6,50000,137,4.7,2.8
2019,7,25,13:50,UTC,0,1019.2,58,0,-1,22.5,14,39930,134,4.2,2.8
2019,7,25,14:00,UTC,0,1019.1,60,0,-1,22.3,14,37880,156,4,2.5
2019,7,25,14:10,UTC,0,1019,59,0,-1,22.3,13.9,45540,139,4.8,3.3
2019,7,25,14:20,UTC,0,1019,56,0,-1,22.4,13.2,36340,140,5.6,3.4
2019,7,25,14:30,UTC,0,1019.1,58,0,-1,22.5,13.7,42540,142,5.5,3.2
2019,7,25,14:40,UTC,0,1019.1,58,0,-1,22.3,13.7,50000,146,4.9,3.3
2019,7,25,14:50,UTC,0,1019.1,54,0,-1,22.7,13.1,50000,168,3.9,2.2
2019,7,25,15:00,UTC,0,1019.2,53,0,-1,22.5,12.5,47410,181,4.8,2.9
2019,7,25,15:10,UTC,0,1019.2,55,0,-1,22.6,13.2,44750,193,3.6,1.9
2019,7,25,15:20,UTC,0,1019.2,54,0,-1,22.6,12.8,50000,188,3.9,2.4
2019,7,25,15:30,UTC,0,1019.3,50,0,-1,22.7,11.9,50000,156,4.1,2.6
2019,7,25,15:40,UTC,0,1019.4,50,0,-1,22.6,11.7,50000,177,3.9,2.2
2019,7,25,15:50,UTC,0,1019.4,51,0,-1,22.4,11.8,50000,181,3.8,2.5
2019,7,25,16:00,UTC,0,1019.4,52,0,-1,22.4,12.1,50000,164,4.5,2.9
2019,7,25,16:10,UTC,0,1019.5,53,0,-1,22.1,12,47560,159,4.4,2.5
2019,7,25,16:20,UTC,0,1019.6,55,0,-1,22.1,12.5,49360,190,4.4,2.9
2019,7,25,16:30,UTC,0,1019.6,55,0,-1,22.1,12.5,50000,179,4.7,2.9
2019,7,25,16:40,UTC,0,1019.5,55,0,-1,22.2,12.6,50000,201,3,1.9
2019,7,25,16:50,UTC,0,1019.6,55,0,-1,22.1,12.5,42840,193,3.7,2
2019,7,25,17:00,UTC,0,1019.7,53,0,-1,22.3,12.4,43900,218,3,1.7
2019,7,25,17:10,UTC,0,1019.8,55,0,-1,22.2,12.9,48660,242,3,1.9
2019,7,25,17:20,UTC,0,1019.8,53,0,-1,22.2,12.2,48690,240,2.8,1.4
2019,7,25,17:30,UTC,0,1019.9,55,0,-1,22.3,12.8,50000,264,3.4,1.8
2019,7,25,17:40,UTC,0,1019.9,58,0,-1,21.7,13.1,48030,280,3.8,2.3
2019,7,25,17:50,UTC,0,1019.9,60,0,-1,21.1,13,48980,289,2.6,2
2019,7,25,18:00,UTC,0,1019.9,59,0,-1,21.1,12.8,48490,277,2.8,1.8
2019,7,25,18:10,UTC,0,1020,60,0,-1,20.7,12.7,50000,286,3.3,2.3
2019,7,25,18:20,UTC,0,1020,61,0,-1,20.4,12.6,50000,287,2.6,1.4
2019,7,25,18:30,UTC,0,1020,60,0,-1,20.4,12.4,50000,287,2.1,0.9
2019,7,25,18:40,UTC,0,1020,61,0,-1,20.2,12.3,49430,267,1.7,1.1
2019,7,25,18:50,UTC,0,1020,63,0,-1,19.8,12.5,50000,273,1.8,1.3
2019,7,25,19:00,UTC,0,1020,63,0,-1,19.7,12.5,50000,297,1.8,1.2
2019,7,25,19:10,UTC,0,1020,67,0,-1,19.3,12.9,50000,310,2,1.2
2019,7,25,19:20,UTC,0,1020,67,0,-1,19.4,13.1,43660,240,1.3,0.8
2019,7,25,19:30,UTC,0,1020,70,0,-1,19.3,13.7,50000,284,2,1.4
2019,7,25,19:40,UTC,0,1020,71,0,-1,18.9,13.5,50000,304,1.6,1.3
2019,7,25,19:50,UTC,0,1020.1,69,0,-1,18.7,12.9,50000,315,1.5,1.2
2019,7,25,20:00,UTC,0,1020.1,71,0,-1,18.6,13.2,45330,291,1.4,0.8
2019,7,25,20:10,UTC,0,1020.2,70,0,-1,18.3,12.8,50000,298,2,1.5
2019,7,25,20:20,UTC,0,1020.2,71,0,-1,18.2,12.9,49850,308,2.5,2
2019,7,25,20:30,UTC,0,1020.2,73,0,-1,18,13.2,48890,313,3.1,2
2019,7,25,20:40,UTC,0,1020.2,75,0,-1,18,13.5,50000,319,2,1.6
2019,7,25,20:50,UTC,0,1020.3,74,0,-1,17.8,13,50000,327,2.5,2.1
2019,7,25,21:00,UTC,0,1020.4,72,0,-1,18.2,13,50000,322,3.2,2.3
2019,7,25,21:10,UTC,0,1020.4,71,0,-1,18.3,13,49300,318,3.2,2.4
2019,7,25,21:20,UTC,0,1020.4,69,0,-1,18.7,12.9,50000,320,3.5,2.6
2019,7,25,21:30,UTC,0,1020.3,69,0,-1,18.5,12.8,50000,325,3.7,2.5
2019,7,25,21:40,UTC,0,1020.3,70,0,-1,18.5,12.8,46290,329,3.3,2.6
2019,7,25,21:50,UTC,0,1020.3,71,0,-1,18.2,12.8,50000,329,3.5,2.7
2019,7,25,22:00,UTC,0,1020.4,72,0,-1,18.1,12.9,49510,326,3.3,2.4
2019,7,25,22:10,UTC,0,1020.3,72,0,-1,18.1,13,46880,328,2.9,2.2
2019,7,25,22:20,UTC,0,1020.4,73,0,-1,18,13.1,50000,331,3,2.3
2019,7,25,22:30,UTC,0,1020.4,74,0,-1,17.9,13.3,46230,335,3.1,2.3
2019,7,25,22:40,UTC,0,1020.6,75,0,-1,18,13.4,50000,343,3.4,2.1
2019,7,25,22:50,UTC,0,1020.7,74,0,-1,18.1,13.3,31900,10,3.1,1.6
2019,7,25,23:00,UTC,0,1020.7,74,0,-1,18.1,13.4,50000,12,3.6,1.8
2019,7,25,23:10,UTC,0,1020.7,74,0,-1,18,13.4,50000,14,4,2.3
2019,7,25,23:20,UTC,0,1020.6,74,0,-1,18.2,13.4,50000,18,3,1.5
2019,7,25,23:30,UTC,0,1020.6,75,0,-1,17.9,13.4,50000,354,2.5,1
2019,7,25,23:40,UTC,0,1020.6,76,0,-1,17.8,13.5,50000,2,2.4,0.7
2019,7,25,23:50,UTC,0,1020.6,78,0,-1,17.5,13.6,45610,26,2.3,1.2
2019,7,26,00:00,UTC,0,1020.6,76,0,-1,17.7,13.5,38620,45,3.4,1.8
2019,7,26,00:10,UTC,0,1020.7,75,0,-1,18.1,13.5,50000,53,3.3,2.1
2019,7,26,00:20,UTC,0,1020.7,72,0,-1,18.5,13.5,50000,61,4,2.5
2019,7,26,00:30,UTC,0,1020.8,73,0,-1,18.5,13.5,49080,74,3.5,2
2019,7,26,00:40,UTC,0,1021,74,0,-1,18.3,13.6,46970,72,3.4,1.8
2019,7,26,00:50,UTC,0,1021.1,75,0,-1,18.4,13.8,50000,65,3.5,1.9
2019,7,26,01:00,UTC,0,1021.1,76,0,-1,18.2,13.9,49200,57,3,1.8
2019,7,26,01:10,UTC,0,1021.1,77,0,-1,18.2,14,50000,48,3.4,2.1
2019,7,26,01:20,UTC,0,1021.1,77,0,-1,18.1,14.1,50000,57,3,2.1
2019,7,26,01:30,UTC,0,1021.2,80,0,-1,17.9,14.3,50000,57,3.1,2.2
2019,7,26,01:40,UTC,0,1021.2,80,0,-1,17.8,14.3,50000,59,2.8,1.8
2019,7,26,01:50,UTC,0,1021.2,83,0,-1,17.5,14.5,50000,59,2.9,1.6
2019,7,26,02:00,UTC,0,1021.3,82,0,-1,17.7,14.6,49860,61,2.7,1.7
2019,7,26,02:10,UTC,0,1021.3,81,0,-1,17.9,14.7,45310,68,3.4,1.6
2019,7,26,02:20,UTC,0,1021.3,81,0,-1,18,14.7,44460,75,3.5,2.1
2019,7,26,02:30,UTC,0,1021.2,82,0,-1,18.3,15,47430,59,4.2,2.7
2019,7,26,02:40,UTC,0,1021.3,80,0,-1,18.7,15.1,46430,55,4.2,2.8
2019,7,26,02:50,UTC,0,1021.4,80,0,-1,18.6,15,44230,61,4.8,3.1
2019,7,26,03:00,UTC,0,1021.4,81,0,-1,18.5,15.2,47720,56,4.7,2.9
2019,7,26,03:10,UTC,0,1021.4,81,0,-1,18.5,15.2,45430,48,3.9,1.8
2019,7,26,03:20,UTC,0,1021.6,82,0,-1,18.6,15.4,46580,49,2.9,1.8
2019,7,26,03:30,UTC,0,1021.6,82,0,-1,18.6,15.4,46650,56,3.7,2.2
2019,7,26,03:40,UTC,0,1021.6,81,0,-1,18.6,15.4,43220,72,4.1,2.4
2019,7,26,03:50,UTC,0,1021.7,80,0,-1,18.9,15.4,33330,61,4.6,3
2019,7,26,04:00,UTC,0,1021.8,78,0,-1,19.5,15.5,32960,50,4.1,2.3
2019,7,26,04:10,UTC,0,1021.9,76,0,-1,20.1,15.7,36710,61,4.7,3
2019,7,26,04:20,UTC,0,1022,75,0,-1,20.1,15.6,40560,65,4.4,3.1
2019,7,26,04:30,UTC,0,1022,73,0,-1,20.6,15.7,39890,70,5.1,3.2
2019,7,26,04:40,UTC,0,1021.9,73,0,-1,20.9,15.9,36460,74,5.7,3.7
2019,7,26,04:50,UTC,0,1022,72,0,-1,21.1,15.9,39980,64,4.8,3
2019,7,26,05:00,UTC,0,1022,71,0,-1,21.5,16,38500,61,4.9,3.4
2019,7,26,05:10,UTC,0,1022.1,70,0,-1,21.9,16.2,35510,62,5.7,3.8
2019,7,26,05:20,UTC,0,1022.1,71,0,-1,21.6,16.1,36030,73,5.6,3.7
2019,7,26,05:30,UTC,0,1022.2,69,0,-1,21.9,16,39600,63,4.4,2.8
2019,7,26,05:40,UTC,0,1022.2,70,0,-1,22.2,16.5,31180,79,3.9,2.8
2019,7,26,05:50,UTC,0,1022.3,72,0,-1,22.2,16.8,31980,90,5,3.1
2019,7,26,06:00,UTC,1,1022.4,71,0,-1,22.2,16.6,38350,117,5.2,4.1
2019,7,26,06:10,UTC,1,1022.5,72,0,-1,22.4,17.1,36210,108,5.7,4.4
2019,7,26,06:20,UTC,0,1022.5,73,0,-1,22.2,17,31710,113,5.2,3.8
2019,7,26,06:30,UTC,0,1022.5,72,0,-1,22.6,17.2,39540,113,5.6,3.8
2019,7,26,06:40,UTC,0,1022.6,71,0,-1,22.9,17.2,34970,117,5.4,4
2019,7,26,06:50,UTC,0,1022.6,72,0,-1,22.5,17.3,32980,113,4.8,3.6
2019,7,26,07:00,UTC,0,1022.6,73,0,-1,22.5,17.5,32490,109,5,3.7
2019,7,26,07:10,UTC,0,1022.6,70,0,-1,23.1,17.4,29050,114,5.5,3.9
2019,7,26,07:20,UTC,0,1022.6,69,0,-1,23.4,17.5,35920,113,5.7,3.8
2019,7,26,07:30,UTC,0,1022.7,67,0,-1,23.5,17,36900,115,6.2,4.4
2019,7,26,07:40,UTC,0,1022.7,66,0,-1,23.4,16.7,33090,112,6.5,4.2
2019,7,26,07:50,UTC,0,1022.7,66,0,-1,24.1,17.3,34350,113,6.4,4.6
2019,7,26,08:00,UTC,0,1022.8,66,0,-1,23.4,16.8,34150,112,7.5,5.1
2019,7,26,08:10,UTC,0,1022.9,65,0,-1,24.1,17.2,39940,113,7.9,5.3
2019,7,26,08:20,UTC,0,1022.8,66,0,-1,23.7,17,38190,111,7.2,5
2019,7,26,08:30,UTC,0,1022.8,64,0,-1,24.1,16.8,22470,111,7.6,5.2
2019,7,26,08:40,UTC,0,1022.8,64,0,-1,24.7,17.5,39850,109,7.4,5.1
2019,7,26,08:50,UTC,0,1022.7,63,0,-1,24.5,17,39600,103,7.8,4.8
2019,7,26,09:00,UTC,0,1022.7,63,0,-1,24.1,16.7,32880,112,6.7,4.9
2019,7,26,09:10,UTC,0,1022.8,67,0,-1,24,17.6,36860,106,6.9,4.8
2019,7,26,09:20,UTC,0,1022.8,67,0,-1,24.3,17.7,40490,99,7.4,5.2
2019,7,26,09:30,UTC,0,1022.7,66,0,-1,24.3,17.7,41680,102,6.3,4.5
2019,7,26,09:40,UTC,0,1022.7,65,0,-1,25.1,18,27960,97,7.4,5
2019,7,26,09:50,UTC,0,1022.6,67,0,-1,24.4,17.9,36680,99,7.5,4.8
2019,7,26,10:00,UTC,0,1022.6,66,0,-1,24.5,17.7,33730,106,7.4,4.9
2019,7,26,10:10,UTC,,,,,,,,,104,7.4,5
2019,7,26,10:20,UTC,0,1022.6,65,0,-1,24.3,17.4,40980,101,7.3,5
2019,7,26,10:30,UTC,0,1022.7,63,0,-1,24.2,16.7,33240,108,7.6,5.4
2019,7,26,10:40,UTC,0,1022.6,64,0,-1,24.7,17.4,29760,106,8.8,5.7
2019,7,26,10:50,UTC,0,1022.6,60,0,-1,25.2,16.9,38210,109,7.4,5
2019,7,26,11:00,UTC,0,1022.6,62,0,-1,24.9,17.2,32790,113,7.7,5.1
2019,7,26,11:10,UTC,0,1022.6,61,0,-1,24.5,16.5,37120,109,8.6,5.2
2019,7,26,11:20,UTC,0,1022.7,61,0,-1,24.9,16.9,34060,104,8.8,5.4
2019,7,26,11:30,UTC,0,1022.7,60,0,-1,24.9,16.6,39600,99,7.9,5.3
2019,7,26,11:40,UTC,0,1022.6,64,0,-1,24.4,17.1,31110,102,8.6,5.6
2019,7,26,11:50,UTC,0,1022.6,60,0,-1,24.9,16.5,32820,103,7.8,5.5
2019,7,26,12:00,UTC,0,1022.6,60,0,-1,24.7,16.3,33700,106,9.3,6
2019,7,26,12:10,UTC,0,1022.5,59,0,-1,25,16.3,40510,108,9.1,6.4
2019,7,26,12:20,UTC,0,1022.5,59,0,-1,25.3,16.7,37850,110,8.2,5
2019,7,26,12:30,UTC,0,1022.4,60,0,-1,24.9,16.7,34950,107,7.7,4.9
2019,7,26,12:40,UTC,0,1022.4,60,0,-1,25,16.9,42770,103,6.8,4.8
2019,7,26,12:50,UTC,0,1022.4,58,0,-1,25.1,16.4,46330,103,7.2,5.1
2019,7,26,13:00,UTC,0,1022.4,58,0,-1,25.3,16.3,41570,102,8.7,5.5
2019,7,26,13:10,UTC,0,1022.5,58,0,-1,25.1,16.1,38560,107,7.7,5
2019,7,26,13:20,UTC,0,1022.4,58,0,-1,25.2,16.4,48780,103,7.7,4.9
2019,7,26,13:30,UTC,0,1022.4,57,0,-1,25.4,16.4,42560,103,7.6,4.6
2019,7,26,13:40,UTC,0,1022.3,57,0,-1,25.3,16.1,44360,100,7.9,4.9
2019,7,26,13:50,UTC,0,1022.3,58,0,-1,25.2,16.5,43460,99,8,5.2
2019,7,26,14:00,UTC,0,1022.3,58,0,-1,25.3,16.4,31610,106,8.2,5.4
2019,7,26,14:10,UTC,0,1022.3,58,0,-1,25.3,16.4,36320,102,8.2,5.2
2019,7,26,14:20,UTC,0,1022.3,58,0,-1,25.5,16.7,49450,108,7.3,5.2
2019,7,26,14:30,UTC,0,1022.2,59,0,-1,25.3,16.6,35660,109,8.4,5.7
2019,7,26,14:40,UTC,0,1022.2,60,0,-1,25.3,16.9,31920,104,6.7,4.8
2019,7,26,14:50,UTC,0,1022.1,58,0,-1,25.4,16.6,34180,100,7.2,4.8
2019,7,26,15:00,UTC,0,1022.1,61,0,-1,25.2,17,42540,102,7.2,4.8
2019,7,26,15:10,UTC,0,1022,61,0,-1,24.9,17,43490,96,7.2,4.9
2019,7,26,15:20,UTC,0,1022,62,0,-1,24.9,17.1,42330,99,6.6,4.2
2019,7,26,15:30,UTC,0,1021.9,61,0,-1,25.1,17.1,43920,98,5.4,3.8
2019,7,26,15:40,UTC,0,1021.8,60,0,-1,25.4,17.1,42110,94,6.3,4.4
2019,7,26,15:50,UTC,0,1021.8,59,0,-1,25.4,16.8,46800,98,6,4.1
2019,7,26,16:00,UTC,0,1021.8,61,0,-1,24.9,16.8,37310,92,6.4,4.4
2019,7,26,16:10,UTC,0,1021.8,61,0,-1,24.8,16.8,39790,95,6.4,4.2
2019,7,26,16:20,UTC,0,1021.8,63,0,-1,24.7,17.1,40040,98,6,3.6
2019,7,26,16:30,UTC,0,1021.7,62,0,-1,24.6,16.9,41380,105,5,3.3
2019,7,26,16:40,UTC,0,1021.7,62,0,-1,24.7,17,42900,106,5.9,4.1
2019,7,26,16:50,UTC,0,1021.6,62,0,-1,24.7,16.9,46260,99,4.9,2.9
2019,7,26,17:00,UTC,0,1021.6,63,0,-1,24.4,16.9,42960,92,4.6,3.2
2019,7,26,17:10,UTC,0,1021.7,63,0,-1,24.3,16.9,35040,99,4.5,3
2019,7,26,17:20,UTC,0,1021.7,63,0,-1,24.3,16.7,43450,108,3.9,2.4
2019,7,26,17:30,UTC,0,1021.6,64,0,-1,24.1,16.8,45010,113,3.9,2.5
2019,7,26,17:40,UTC,0,1021.7,63,0,-1,24.1,16.6,38970,109,3.4,2.3
2019,7,26,17:50,UTC,0,1021.7,63,0,-1,24.1,16.6,46280,97,3,1.9
2019,7,26,18:00,UTC,0,1021.7,64,0,-1,23.9,16.7,44870,112,2.7,1.7
2019,7,26,18:10,UTC,0,1021.7,65,0,-1,23.6,16.7,42260,113,2.9,2.2
2019,7,26,18:20,UTC,0,1021.8,66,0,-1,23.3,16.6,35600,113,3,2.1
2019,7,26,18:30,UTC,0,1021.7,69,0,-1,23,17.1,41380,105,2.1,1.2
2019,7,26,18:40,UTC,0,1021.7,70,0,-1,22.8,17.1,35110,97,1.4,0.9
2019,7,26,18:50,UTC,0,1021.6,70,0,-1,22.5,16.8,34820,93,1.3,0.9
2019,7,26,19:00,UTC,0,1021.7,71,0,-1,22.2,16.6,40370,93,1.1,0.7
2019,7,26,19:10,UTC,0,1021.7,73,0,-1,21.9,16.9,39250,32,1.1,0.7
2019,7,26,19:20,UTC,0,1021.6,76,0,-1,21.6,17.2,39080,17,1.6,1
2019,7,26,19:30,UTC,0,1021.6,76,0,-1,21.5,17,35280,55,1.7,1.1
2019,7,26,19:40,UTC,0,1021.6,76,0,-1,21.3,16.8,32570,56,1.7,1.2
2019,7,26,19:50,UTC,0,1021.5,77,0,-1,21.1,16.9,30100,49,2.1,1.4
2019,7,26,20:00,UTC,0,1021.5,77,0,-1,21.1,17,31610,43,2.1,1.3
2019,7,26,20:10,UTC,0,1021.6,79,0,-1,21,17.2,29200,33,2.9,1.9
2019,7,26,20:20,UTC,0,1021.6,79,0,-1,21,17.2,29680,44,3.1,1.8
2019,7,26,20:30,UTC,0,1021.7,77,0,-1,20.8,16.7,32830,50,2.6,1.3
2019,7,26,20:40,UTC,0,1021.7,77,0,-1,20.8,16.6,34270,43,2.5,1.7
2019,7,26,20:50,UTC,0,1021.7,79,0,-1,20.8,17,28780,44,2.2,1.6
2019,7,26,21:00,UTC,0,1021.8,75,0,-1,21,16.3,31840,46,2.7,1.8
2019,7,26,21:10,UTC,0,1021.8,75,0,-1,20.9,16.4,35420,48,3.3,1.9
2019,7,26,21:20,UTC,0,1021.7,74,0,-1,20.8,16.1,29180,55,3.1,1.7
2019,7,26,21:30,UTC,0,1021.7,75,0,-1,20.8,16.2,31000,44,2.8,1.7
2019,7,26,21:40,UTC,0,1021.7,75,0,-1,20.6,16.1,32920,44,2.5,1.6
2019,7,26,21:50,UTC,0,1021.8,75,0,-1,20.6,16.1,37170,37,2.6,1.6
2019,7,26,22:00,UTC,0,1021.9,75,0,-1,20.6,16.1,39480,24,3,1.7
2019,7,26,22:10,UTC,0,1021.9,77,0,-1,20.4,16.2,32060,37,2.5,1.3
2019,7,26,22:20,UTC,0,1021.8,77,0,-1,20.1,16,35270,42,3,1.3
2019,7,26,22:30,UTC,0,1021.8,77,0,-1,20,15.8,38180,40,2.6,1.4
2019,7,26,22:40,UTC,0,1021.7,78,0,-1,19.9,15.9,34820,32,2,1.4
2019,7,26,22:50,UTC,0,1021.7,80,0,-1,19.8,16.2,36620,40,2.8,1.7
2019,7,26,23:00,UTC,0,1021.8,79,0,-1,19.7,15.9,35940,45,3.1,2
2019,7,26,23:10,UTC,0,1021.8,81,0,-1,19.7,16.4,36890,33,3,1.5
2019,7,26,23:20,UTC,0,1021.8,80,0,-1,19.7,16.1,34630,39,2.7,1.3
2019,7,26,23:30,UTC,0,1021.9,79,0,-1,19.6,16,38300,43,3.3,2
2019,7,26,23:40,UTC,0,1021.9,79,0,-1,19.6,15.8,37390,48,3.9,1.9
2019,7,26,23:50,UTC,0,1021.9,78,0,-1,19.7,15.7,35030,34,3.7,2
2019,7,27,00:00,UTC,0,1021.8,77,0,-1,19.8,15.7,35310,35,3.8,2
2019,7,27,00:10,UTC,0,1021.8,75,0,-1,20,15.4,32810,36,4.4,2
2019,7,27,00:20,UTC,0,1021.7,73,0,-1,20.2,15.3,22070,31,4.2,2.4
2019,7,27,00:30,UTC,0,1021.7,73,0,-1,20.2,15.2,37220,35,3.9,2.3
2019,7,27,00:40,UTC,0,1021.6,73,0,-1,20.1,15.1,40530,37,3.8,2
2019,7,27,00:50,UTC,0,1021.6,74,0,-1,20,15.2,36900,35,3.1,1.3
2019,7,27,01:00,UTC,0,1021.6,74,0,-1,19.9,15.1,37740,36,4.3,1.7
2019,7,27,01:10,UTC,0,1021.6,74,0,-1,19.7,15,42610,32,2.6,1.3
2019,7,27,01:20,UTC,0,1021.6,75,0,-1,19.6,15,36770,30,3.6,1.1
2019,7,27,01:30,UTC,0,1021.6,75,0,-1,19.6,15,39960,42,2.3,1.2
2019,7,27,01:40,UTC,0,1021.5,76,0,-1,19.5,15.1,43310,31,2.2,1.2
2019,7,27,01:50,UTC,0,1021.6,76,0,-1,19.4,15,39440,35,3.4,1.6
2019,7,27,02:00,UTC,0,1021.6,76,0,-1,19.4,15,42620,38,3.4,1.9
2019,7,27,02:10,UTC,0,1021.5,77,0,-1,19.3,15.2,34980,31,3.9,1.7
2019,7,27,02:20,UTC,0,1021.5,76,0,-1,19.5,15.2,39880,34,2.8,1.3
2019,7,27,02:30,UTC,0,1021.5,76,0,-1,19.4,15.1,41930,45,2.4,1.1
2019,7,27,02:40,UTC,0,1021.5,76,0,-1,19.5,15.1,41360,52,2.7,1.5
2019,7,27,02:50,UTC,0,1021.5,77,0,-1,19.6,15.5,44100,55,2.6,1.5
2019,7,27,03:00,UTC,0,1021.5,75,0,-1,19.8,15.3,45630,65,2.4,1.6
2019,7,27,03:10,UTC,0,1021.5,75,0,-1,20.1,15.5,42030,48,2.5,1.4
2019,7,27,03:20,UTC,0,1021.5,74,0,-1,20.1,15.3,42510,58,2.4,1.4
2019,7,27,03:30,UTC,0,1021.5,74,0,-1,20.3,15.5,41060,55,2.1,1.2
2019,7,27,03:40,UTC,0,1021.5,74,0,-1,20.5,15.7,39260,49,2.5,1.1
2019,7,27,03:50,UTC,0,1021.6,69,0,-1,21.4,15.4,48610,37,2.8,1.5
2019,7,27,04:00,UTC,0,1021.6,68,0,-1,22.6,16.4,44840,46,3,1.3
2019,7,27,04:10,UTC,0,1021.6,62,0,-1,23.3,15.6,43870,44,2.9,1.4
2019,7,27,04:20,UTC,0,1021.7,62,0,-1,23.5,15.7,42460,55,2.9,1.3
2019,7,27,04:30,UTC,0,1021.7,60,0,-1,24.3,16,45930,26,2.5,0.9
2019,7,27,04:40,UTC,0,1021.7,58,0,-1,24.5,15.7,40770,22,2,0.8
2019,7,27,04:50,UTC,0,1021.6,59,0,-1,24.5,16,47680,31,2.9,1.2
2019,7,27,05:00,UTC,0,1021.6,57,0,-1,24.6,15.6,47760,47,3.8,2.2
2019,7,27,05:10,UTC,0,1021.5,57,0,-1,25.1,15.8,37430,51,4,2.5
2019,7,27,05:20,UTC,0,1021.5,55,0,-1,25.4,15.8,44710,55,3.1,1.4
2019,7,27,05:30,UTC,1,1021.4,56,0,-1,25.3,16,42850,70,2.7,1.6
2019,7,27,05:40,UTC,1,1021.4,56,0,-1,25.4,15.9,41350,56,3.2,2
2019,7,27,05:50,UTC,0,1021.5,55,0,-1,25.9,16.1,39960,52,4.1,2.2
2019,7,27,06:00,UTC,0,1021.5,55,0,-1,26.8,17,37170,62,3.2,1.8
2019,7,27,06:10,UTC,0,1021.5,52,0,-1,27.1,16.6,42000,67,3.2,1.8
2019,7,27,06:20,UTC,0,1021.4,51,0,-1,27.6,16.4,43450,47,3,2
2019,7,27,06:30,UTC,0,1021.4,50,0,-1,27.7,16.3,38100,67,2.7,1.9
2019,7,27,06:40,UTC,0,1021.4,51,0,-1,27.5,16.4,42930,38,2.4,1.4
2019,7,27,06:50,UTC,0,1021.3,50,0,-1,28,16.6,35820,60,2.5,1.2
2019,7,27,07:00,UTC,0,1021.3,47,0,-1,28.1,15.9,41780,81,3.3,1.7
2019,7,27,07:10,UTC,0,1021.2,49,0,-1,28.4,16.6,44140,63,3.8,2.3
2019,7,27,07:20,UTC,0,1021.1,48,0,-1,28.5,16.4,37260,66,4.7,3.1
2019,7,27,07:30,UTC,0,1021.1,46,0,-1,28.7,15.8,36820,68,4.2,3
2019,7,27,07:40,UTC,0,1021,46,0,-1,28.7,15.8,33740,45,4.3,2.4
2019,7,27,07:50,UTC,0,1021,47,0,-1,28.6,16.4,42000,64,4.9,3.1
2019,7,27,08:00,UTC,0,1021,47,0,-1,28.3,16,50000,97,5.3,3.3
2019,7,27,08:10,UTC,0,1021,49,0,-1,29,17.3,42580,96,5.5,3
2019,7,27,08:20,UTC,0,1021,50,0,-1,28.6,17.1,29520,116,5.7,3.8
2019,7,27,08:30,UTC,0,1020.9,49,0,-1,28.8,16.9,36320,114,5.3,3.6
2019,7,27,08:40,UTC,0,1020.9,49,0,-1,28.9,17,32310,103,5.2,3.4
2019,7,27,08:50,UTC,0,1020.8,50,0,-1,28.8,17.3,36330,118,6.1,4.4
2019,7,27,09:00,UTC,0,1020.8,48,0,-1,28.6,16.6,33300,120,5.8,3.7
2019,7,27,09:10,UTC,0,1020.7,49,0,-1,28.7,17,32640,126,5.9,4.1
2019,7,27,09:20,UTC,0,1020.7,50,0,-1,28.7,17.2,32790,116,6.1,3.8
2019,7,27,09:30,UTC,0,1020.6,52,0,-1,28.4,17.7,31080,131,5.4,3.6
2019,7,27,09:40,UTC,0,1020.5,52,0,-1,28.3,17.5,30700,131,4.8,2.6
2019,7,27,09:50,UTC,0,1020.5,53,0,-1,28.1,17.5,36950,146,4.7,3
2019,7,27,10:00,UTC,0,1020.5,52,0,-1,27.9,17.2,31600,153,5.4,4
2019,7,27,10:10,UTC,0,1020.3,52,0,-1,27.8,17.2,32300,156,5.1,3.5
2019,7,27,10:20,UTC,0,1020.3,53,0,-1,27.9,17.4,40590,155,5.7,3.7
2019,7,27,10:30,UTC,0,1020.2,51,0,-1,27.9,17,31910,155,5.6,4.1
2019,7,27,10:40,UTC,0,1020.1,51,0,-1,27.9,16.8,28560,157,5.6,3.8
2019,7,27,10:50,UTC,0,1020,49,0,-1,28.7,16.9,33570,152,5.4,3.7
2019,7,27,11:00,UTC,0,1019.9,52,0,-1,28.3,17.5,35490,154,5,3.7
2019,7,27,11:10,UTC,0,1019.8,49,0,-1,28.4,16.5,30910,152,5.6,4.2
2019,7,27,11:20,UTC,0,1019.7,50,0,-1,28.3,16.8,34550,149,5.3,4.1
2019,7,27,11:30,UTC,0,1019.6,49,0,-1,28.4,16.6,29560,149,5.4,3.9
2019,7,27,11:40,UTC,0,1019.5,48,0,-1,28.6,16.4,30790,143,4.9,3.8
2019,7,27,11:50,UTC,0,1019.5,47,0,-1,28.8,16.4,32770,142,5.2,3.5
2019,7,27,12:00,UTC,0,1019.3,50,0,-1,28.6,17.2,27970,142,5.2,3.3
2019,7,27,12:10,UTC,0,1019.2,51,0,-1,28.4,17.2,34700,160,4.9,2.8
2019,7,27,12:20,UTC,0,1019.1,50,0,-1,28.7,17.2,28050,166,4.6,2.9
2019,7,27,12:30,UTC,0,1019,49,0,-1,28.2,16.5,30790,169,5.3,3.5
2019,7,27,12:40,UTC,0,1018.9,50,0,-1,27.9,16.4,37900,162,5.3,4
2019,7,27,12:50,UTC,0,1018.8,50,0,-1,27.7,16.4,36460,182,4.1,2.6
2019,7,27,13:00,UTC,0,1018.7,48,0,-1,27.9,15.7,43790,187,4.8,3.1
2019,7,27,13:10,UTC,0,1018.7,47,0,-1,28.1,15.8,37440,173,4.2,2.8
2019,7,27,13:20,UTC,0,1018.6,48,0,-1,27.6,15.6,44100,192,4.7,3
2019,7,27,13:30,UTC,0,1018.5,47,0,-1,27.4,15.2,39930,192,5.3,3.2
2019,7,27,13:40,UTC,0,1018.5,49,0,-1,27.1,15.4,42830,186,4.8,3.2
2019,7,27,13:50,UTC,0,1018.3,48,0,-1,27.4,15.5,34460,179,5.2,3.3
2019,7,27,14:00,UTC,0,1018.3,47,0,-1,27.6,15.3,34540,203,4.7,2.8
2019,7,27,14:10,UTC,0,1018.2,46,0,-1,27.9,15.2,36120,197,4.4,2.8
2019,7,27,14:20,UTC,0,1018,45,0,-1,27.9,15,35590,176,4.2,2.6
2019,7,27,14:30,UTC,0,1017.9,46,0,-1,27.9,15.1,40460,166,4.6,2.9
2019,7,27,14:40,UTC,0,1017.8,44,0,-1,27.8,14.4,37270,210,4.1,2.4
2019,7,27,14:50,UTC,0,1017.7,46,0,-1,27.7,15.1,35460,190,3.8,2.8
2019,7,27,15:00,UTC,0,1017.6,45,0,-1,27.8,14.9,36380,203,4.1,2.6
2019,7,27,15:10,UTC,0,1017.5,45,0,-1,27.6,14.6,41750,205,3.9,2.5
2019,7,27,15:20,UTC,0,1017.3,48,0,-1,27.6,15.5,43170,201,3.4,1.9
2019,7,27,15:30,UTC,0,1017.2,44,0,-1,27.7,14.4,44950,198,3.3,1.9
2019,7,27,15:40,UTC,0,1017.2,43,0,-1,27.8,14,40300,199,3.3,2.3
2019,7,27,15:50,UTC,0,1017.1,45,0,-1,27.6,14.4,42480,204,3.4,2.1
2019,7,27,16:00,UTC,0,1017,45,0,-1,27.9,14.9,41870,220,3.4,2.1
2019,7,27,16:10,UTC,0,1016.9,45,0,-1,27.5,14.5,44060,201,3.1,2.3
2019,7,27,16:20,UTC,0,1016.8,43,0,-1,27.8,14.1,37660,204,3.6,2
2019,7,27,16:30,UTC,0,1016.7,43,0,-1,27.6,13.9,38120,224,2.2,1.4
2019,7,27,16:40,UTC,0,1016.7,43,0,-1,27.1,13.6,41820,217,2.9,1.9
2019,7,27,16:50,UTC,0,1016.7,44,0,-1,27.1,13.9,40540,227,3,2.1
2019,7,27,17:00,UTC,0,1016.7,42,0,-1,27.5,13.4,41560,252,3.6,2.3
2019,7,27,17:10,UTC,0,1016.6,47,0,-1,27.2,15,45500,256,3.1,2.4
2019,7,27,17:20,UTC,0,1016.5,47,0,-1,26.7,14.6,41580,263,4,2.7
2019,7,27,17:30,UTC,0,1016.5,53,0,-1,26.1,15.7,34480,266,3.3,2.4
2019,7,27,17:40,UTC,0,1016.4,53,0,-1,25.6,15.4,44500,280,2.6,1.3
2019,7,27,17:50,UTC,0,1016.4,56,0,-1,25.2,15.7,38070,276,1.8,0.8
2019,7,27,18:00,UTC,0,1016.3,53,0,-1,25.4,15.2,46630,274,2,1.3
2019,7,27,18:10,UTC,0,1016.3,55,0,-1,25.2,15.5,41490,273,2.2,1.6
2019,7,27,18:20,UTC,0,1016.3,58,0,-1,24.8,15.8,43260,272,1.9,1.2
2019,7,27,18:30,UTC,0,1016.2,55,0,-1,24.5,14.9,41390,268,2.3,1.6
2019,7,27,18:40,UTC,0,1016.2,58,0,-1,24.3,15.5,32880,268,2.9,2.1
2019,7,27,18:50,UTC,0,1016.2,60,0,-1,24,15.6,36470,264,2.4,1.8
2019,7,27,19:00,UTC,0,1016.2,59,0,-1,23.6,15.1,41650,259,2.1,1.2
2019,7,27,19:10,UTC,0,1016.2,57,0,-1,23.5,14.5,38090,247,1.7,1.2
2019,7,27,19:20,UTC,0,1016.1,58,0,-1,23.2,14.5,42160,254,1.5,1.1
2019,7,27,19:30,UTC,0,1016.2,58,0,-1,23,14.3,41720,260,1.8,1.4
2019,7,27,19:40,UTC,0,1016.1,60,0,-1,22.7,14.5,46990,267,2.3,1.5
2019,7,27,19:50,UTC,0,1016.1,61,0,-1,22.7,14.9,42740,273,2.3,1.6
2019,7,27,20:00,UTC,0,1016.2,63,0,-1,23,15.5,43020,284,2.5,1.7
2019,7,27,20:10,UTC,0,1016.2,63,0,-1,22.8,15.3,40670,288,2.7,1.9
2019,7,27,20:20,UTC,0,1016.1,63,0,-1,22.6,15.3,41260,295,2.6,1.7
2019,7,27,20:30,UTC,0,1016.1,64,0,-1,22.5,15.5,38120,297,2.4,1.6
2019,7,27,20:40,UTC,0,1016.1,65,0,-1,22.5,15.6,42890,307,2.7,1.6
2019,7,27,20:50,UTC,0,1016.1,66,0,-1,22.1,15.6,39120,313,2.3,1.5
2019,7,27,21:00,UTC,0,1016,68,0,-1,22.2,16,37290,315,2.2,1.6
2019,7,27,21:10,UTC,0,1016,67,0,-1,22.2,15.8,35520,328,2.2,1.8
2019,7,27,21:20,UTC,0,1015.9,68,0,-1,22,15.8,35130,329,3.1,2.4
2019,7,27,21:30,UTC,0,1015.9,70,0,-1,21.9,16.1,39760,325,2.8,2.3
2019,7,27,21:40,UTC,0,1015.8,71,0,-1,21.7,16.2,35390,324,2.4,2.1
2019,7,27,21:50,UTC,0,1015.8,72,0,-1,21.5,16.3,35810,327,3.1,2.4
2019,7,27,22:00,UTC,0,1015.7,74,0,-1,21.5,16.6,29380,328,2.6,2.3
2019,7,27,22:10,UTC,0,1015.7,72,0,-1,21.5,16.2,36490,345,2.2,1.7
2019,7,27,22:20,UTC,0,1015.7,73,0,-1,21.1,16.2,32820,347,1.8,1.5
2019,7,27,22:30,UTC,0,1015.7,75,0,-1,20.9,16.3,28690,352,2,1.7
2019,7,27,22:40,UTC,0,1015.5,76,0,-1,20.8,16.4,33060,5,2.6,1.9
2019,7,27,22:50,UTC,0,1015.5,76,0,-1,20.8,16.3,32410,352,2.5,1.8
2019,7,27,23:00,UTC,0,1015.4,76,0,-1,20.8,16.4,26720,358,2.3,1.7
2019,7,27,23:10,UTC,0,1015.4,74,0,-1,20.8,16.1,29750,3,3,1.8
2019,7,27,23:20,UTC,0,1015.4,74,0,-1,20.7,15.9,30930,355,2.6,1.8
2019,7,27,23:30,UTC,0,1015.3,75,0,-1,20.8,16.1,34130,352,2.3,1.5
2019,7,27,23:40,UTC,0,1015.3,73,0,-1,20.8,15.9,36040,340,2.5,1.4
2019,7,27,23:50,UTC,0,1015.4,72,0,-1,20.9,15.7,35620,340,2.5,1.5
2019,7,28,00:00,UTC,0,1015.3,73,0,-1,20.7,15.6,34270,333,2,1.1
2019,7,28,00:10,UTC,0,1015.2,73,0,-1,20.8,15.8,35000,319,2.1,1.3
2019,7,28,00:20,UTC,0,1015.2,72,0,-1,20.6,15.5,37930,311,1.8,1.1
2019,7,28,00:30,UTC,0,1015.2,74,0,-1,20.6,15.9,35950,295,2.2,1.2
2019,7,28,00:40,UTC,0,1015.1,73,0,-1,20.7,15.7,37790,293,2.1,1.1
2019,7,28,00:50,UTC,0,1015.1,72,0,-1,20.5,15.3,36650,290,1.7,1.3
2019,7,28,01:00,UTC,0,1015.1,73,0,-1,20.5,15.5,38400,313,1.8,1.4
2019,7,28,01:10,UTC,0,1015,73,0,-1,20.5,15.4,32950,324,1.8,1.2
2019,7,28,01:20,UTC,0,1015,72,0,-1,20.5,15.2,36590,305,1.7,1.1
2019,7,28,01:30,UTC,0,1015,73,0,-1,20.4,15.4,42730,320,1.8,1.3
2019,7,28,01:40,UTC,0,1014.9,74,0,-1,20.3,15.5,42350,326,2,1.3
2019,7,28,01:50,UTC,0,1014.9,73,0,-1,20.3,15.2,41030,329,1.8,1.2
2019,7,28,02:00,UTC,0,1014.8,73,0,-1,20.2,15.1,39110,330,1.8,1.1
2019,7,28,02:10,UTC,1,1014.8,73,0,-1,20.3,15.2,43470,334,2.2,1.4
2019,7,28,02:20,UTC,1,1014.8,75,0,-1,20.3,15.6,34520,325,2.2,1.5
2019,7,28,02:30,UTC,1,1014.7,74,0,-1,20.4,15.6,38420,328,2.2,1.6
2019,7,28,02:40,UTC,1,1014.7,73,0,-1,20.4,15.4,43310,319,2,1.3
2019,7,28,02:50,UTC,1,1014.7,73,0,-1,20.3,15.3,39710,310,1.8,1.3
2019,7,28,03:00,UTC,0,1014.6,73,0,-1,20.4,15.4,44290,310,2,1.6
2019,7,28,03:10,UTC,0,1014.6,72,0,-1,20.6,15.4,41230,326,2.5,1.8
2019,7,28,03:20,UTC,0,1014.5,74,0,-1,20.7,15.9,40700,334,2.4,2
2019,7,28,03:30,UTC,0,1014.5,73,0,-1,21,16,40110,341,3,1.9
2019,7,28,03:40,UTC,0,1014.4,69,0,-1,21.7,15.7,38400,351,4,2.2
2019,7,28,03:50,UTC,0,1014.3,67,0,-1,22.3,15.8,38530,346,4.4,2.4
2019,7,28,04:00,UTC,0,1014.2,63,0,-1,23.2,15.7,36770,338,3.7,2.7
2019,7,28,04:10,UTC,0,1014.1,61,0,-1,23.9,15.8,41220,340,3,2.3
2019,7,28,04:20,UTC,0,1014.1,59,0,-1,24.7,16.2,47700,340,2.9,2
2019,7,28,04:30,UTC,0,1014,56,0,-1,25.4,16,40220,340,2.8,1.9
2019,7,28,04:40,UTC,0,1014,57,0,-1,26.3,17.1,39790,341,2.9,2
2019,7,28,04:50,UTC,0,1013.9,55,0,-1,26.4,16.7,38850,344,2.5,1.6
2019,7,28,05:00,UTC,0,1013.9,53,0,-1,26.8,16.4,39220,341,2.4,1.6
2019,7,28,05:10,UTC,0,1013.8,51,0,-1,27.1,15.9,37290,339,3.3,1.8
2019,7,28,05:20,UTC,0,1013.7,50,0,-1,27.4,16.2,40810,335,2.4,1.6
2019,7,28,05:30,UTC,0,1013.6,51,0,-1,27.9,16.9,40400,333,2.4,1.7
2019,7,28,05:40,UTC,0,1013.6,49,0,-1,28.2,16.5,31940,335,2.1,1.3
2019,7,28,05:50,UTC,0,1013.6,50,0,-1,28.4,16.8,39830,325,2.4,1.6
2019,7,28,06:00,UTC,0,1013.6,49,0,-1,28.9,17.1,33650,328,2.4,1.8
2019,7,28,06:10,UTC,0,1013.5,49,0,-1,29.1,17.2,39620,325,2.6,1.7
2019,7,28,06:20,UTC,0,1013.5,45,0,-1,29.5,16.3,30390,340,2.7,1.8
2019,7,28,06:30,UTC,0,1013.5,46,0,-1,30,17.1,38620,351,4.5,2.3
2019,7,28,06:40,UTC,0,1013.5,44,0,-1,30.4,16.7,35180,359,3.8,2.4
2019,7,28,06:50,UTC,0,1013.5,44,0,-1,30.5,17,37360,326,2.5,1.4
2019,7,28,07:00,UTC,0,1013.4,44,0,-1,30.8,17.3,41570,319,3.5,1.9
2019,7,28,07:10,UTC,0,1013.4,44,0,-1,31.1,17.5,31860,329,4.4,2.7
2019,7,28,07:20,UTC,0,1013.4,43,0,-1,31,16.9,31440,324,5.3,2.8
2019,7,28,07:30,UTC,0,1013.3,43,0,-1,31.2,17.1,39020,344,5.5,3.6
2019,7,28,07:40,UTC,1,1013.3,43,0,-1,31.2,17,36810,345,5.2,3.5
2019,7,28,07:50,UTC,1,1013.2,45,0,-1,30.7,17.4,31860,349,6.3,4.3
2019,7,28,08:00,UTC,1,1013.1,43,0,-1,31.1,17.1,34120,336,6.2,4.3
2019,7,28,08:10,UTC,1,1013,43,0,-1,31,16.9,39950,341,5.9,4.1
2019,7,28,08:20,UTC,3,1013,42,0,-1,31.1,16.8,30930,3,5.4,3.8
2019,7,28,08:30,UTC,3,1013,40,0,-1,31.6,16.5,36540,357,5.4,2.9
2019,7,28,08:40,UTC,1,1012.9,41,0,-1,31.5,16.8,33530,12,4.7,2.8
2019,7,28,08:50,UTC,1,1012.7,40,0,-1,31.8,16.5,38070,343,4.4,2.4
2019,7,28,09:00,UTC,1,1012.6,39,0,-1,32.1,16.4,36160,6,5.6,3.4
2019,7,28,09:10,UTC,1,1012.5,41,0,-1,32.6,17.4,42610,41,5.6,3
2019,7,28,09:20,UTC,1,1012.5,40,0,-1,32.2,16.8,41470,355,6.5,3.3
2019,7,28,09:30,UTC,1,1012.5,39,0,-1,31,15.3,36270,346,8.2,4.2
2019,7,28,09:40,UTC,1,1012.4,39,0,-1,31.9,16.2,34970,331,6.7,4.5
2019,7,28,09:50,UTC,3,1012.4,40,0,-1,31.3,16.2,37640,329,7.8,4.1
2019,7,28,10:00,UTC,3,1012.2,40,0,-1,32,16.7,32150,338,6.6,3.9
2019,7,28,10:10,UTC,5,1012.2,42,0,-1,31,16.6,38180,349,7,4.6
2019,7,28,10:20,UTC,1,1012.3,37,0,-1,32.7,16.1,35180,5,7.2,4.3
2019,7,28,10:30,UTC,1,1012.2,35,0,-1,32.7,15.2,35480,344,6.8,4.4
2019,7,28,10:40,UTC,0,1012.1,32,0,-1,33,14.4,30120,12,6.2,3.7
2019,7,28,10:50,UTC,1,1012.1,35,0,-1,32.7,15.1,32710,13,4.9,3
2019,7,28,11:00,UTC,1,1012,31,0,-1,32.9,13.7,41360,350,5,2.7
2019,7,28,11:10,UTC,3,1011.9,33,0,-1,31.7,13.3,43440,37,6.2,3.7
2019,7,28,11:20,UTC,1,1011.9,32,0,-1,33.2,14.2,34440,24,7.4,3.7
2019,7,28,11:30,UTC,1,1011.7,30,0,-1,32.7,13.1,34350,48,5.7,3.5
2019,7,28,11:40,UTC,1,1011.7,33,0,-1,32.9,14.5,35700,352,7.4,3.2
2019,7,28,11:50,UTC,1,1011.7,34,0,-1,32.7,14.6,37750,46,7.5,4.1
2019,7,28,12:00,UTC,3,1011.7,38,0,-1,31.4,15.3,39970,60,8.1,5.2
2019,7,28,12:10,UTC,3,1011.7,37,0,-1,32.3,15.9,33620,53,7.6,4.7
2019,7,28,12:20,UTC,3,1011.7,39,0,-1,31.3,15.7,44860,48,7.4,3.9
2019,7,28,12:30,UTC,1,1011.6,41,0,-1,31.6,16.8,32730,18,6.3,3.8
2019,7,28,12:40,UTC,3,1011.5,36,0,-1,31.8,15,35020,19,5.6,3
2019,7,28,12:50,UTC,1,1011.5,43,0,-1,30.4,16.3,44410,39,7.1,3.7
2019,7,28,13:00,UTC,3,1011.4,43,0,-1,30.8,16.7,40450,70,5.2,3.1
2019,7,28,13:10,UTC,3,1011.4,43,0,-1,29.9,16,33630,154,6.1,3
2019,7,28,13:20,UTC,1,1011.3,43,0,-1,30.7,16.6,32920,140,4.8,1.9
2019,7,28,13:30,UTC,3,1011.4,42,0,-1,30.7,16.3,39070,120,3.5,1.7
2019,7,28,13:40,UTC,3,1011.3,43,0,-1,29.9,16.1,37110,125,5.4,2.6
2019,7,28,13:50,UTC,3,1011.2,44,0,-1,29.6,15.9,43820,133,4.4,2.3
2019,7,28,14:00,UTC,3,1011.2,42,0,-1,30.1,15.7,37300,119,4.2,2
2019,7,28,14:10,UTC,3,1011.2,43,0,-1,29.8,16,39120,83,4.5,1.9
2019,7,28,14:20,UTC,3,1011.1,44,0,-1,30,16.5,34390,99,4.4,2.3
2019,7,28,14:30,UTC,5,1011.1,42,0,-1,30.1,15.8,32980,95,5.1,2.1
2019,7,28,14:40,UTC,5,1011.1,44,0,-1,29.6,15.9,37530,114,5.6,3.4
2019,7,28,14:50,UTC,7,1011.2,47,0,-1,29.1,16.6,31740,107,4,2.9
2019,7,28,15:00,UTC,7,1011.8,60,0,-1,27.6,19.1,25190,106,11.3,4.4
2019,7,28,15:10,UTC,7,1012,70,0,-1,24.9,18.9,24240,107,13.2,9.3
2019,7,28,15:20,UTC,7,1012.1,68,0,-1,24.8,18.4,29630,114,12.2,7.6
2019,7,28,15:30,UTC,5,1012.2,71,0,-1,24.3,18.7,28840,111,10.5,7.4
2019,7,28,15:40,UTC,5,1012.3,69,0,-1,24.5,18.5,29870,109,12.1,7.8
2019,7,28,15:50,UTC,5,1012.2,69,0,-1,24.1,17.9,25970,106,12,7.7
2019,7,28,16:00,UTC,1,1012.2,73,0,-1,23.8,18.6,29200,113,12.2,8.9
2019,7,28,16:10,UTC,1,1012.3,76,0,-1,23.5,19.1,32370,114,12.1,9.1
2019,7,28,16:20,UTC,0,1012.4,78,0,-1,23.1,19.1,29040,115,10.5,7.1
2019,7,28,16:30,UTC,1,1012.5,78,0,-1,22.7,18.6,32920,115,11.4,8.2
2019,7,28,16:40,UTC,3,1012.6,78,0,-1,22.5,18.4,26820,117,10.7,7.5
2019,7,28,16:50,UTC,5,1012.7,79,0,-1,22.4,18.6,34670,119,10.9,7
2019,7,28,17:00,UTC,5,1012.9,80,0,-1,22.4,18.7,27190,109,8.9,5.9
2019,7,28,17:10,UTC,5,1012.9,79,0,-1,22.1,18.3,31240,113,10.7,7.2
2019,7,28,17:20,UTC,5,1012.9,75,0,-1,22.1,17.5,33770,114,10.3,7.4
2019,7,28,17:30,UTC,5,1012.9,72,0,-1,22,16.6,31560,111,11.2,7.4
2019,7,28,17:40,UTC,5,1013,72,0,-1,21.9,16.7,32440,115,9.8,6.7
2019,7,28,17:50,UTC,5,1012.9,75,0,-1,21.9,17.2,30650,111,9.8,6.7
2019,7,28,18:00,UTC,3,1013.1,73,0,-1,21.6,16.4,31450,115,9.3,6.5
2019,7,28,18:10,UTC,5,1013.1,72,0,-1,21.5,16.2,39140,113,9.1,6.3
2019,7,28,18:20,UTC,5,1013.2,72,0,-1,21.3,16.1,31380,114,10.1,7.2
2019,7,28,18:30,UTC,3,1013.3,74,0,-1,21.1,16.3,34780,116,8.5,5.8
2019,7,28,18:40,UTC,1,1013.3,72,0,-1,21.1,15.7,35750,113,10.3,6.7
2019,7,28,18:50,UTC,0,1013.4,72,0,-1,21,15.7,33680,112,9.3,6.3
2019,7,28,19:00,UTC,0,1013.6,72,0,-1,20.9,15.6,29220,111,8.6,5.6
2019,7,28,19:10,UTC,0,1013.6,72,0,-1,20.7,15.5,32080,105,9.7,6.1
2019,7,28,19:20,UTC,0,1013.7,72,0,-1,20.6,15.4,43300,105,8.9,5.4
2019,7,28,19:30,UTC,1,1013.8,72,0,-1,20.6,15.3,39360,113,8.2,5.4
2019,7,28,19:40,UTC,1,1013.7,72,0,-1,20.4,15.3,34280,104,7.9,5
2019,7,28,19:50,UTC,1,1013.8,73,0,-1,20.4,15.4,33970,107,8.1,5.1
2019,7,28,20:00,UTC,0,1013.8,71,0,-1,20.3,15,39060,109,6.7,4.3
2019,7,28,20:10,UTC,0,1013.9,72,0,-1,20.2,15,42980,109,8.1,4.7
2019,7,28,20:20,UTC,0,1013.9,72,0,-1,20.1,14.9,35160,111,8.6,5.8
2019,7,28,20:30,UTC,0,1014,72,0,-1,20.1,14.8,39360,107,7.2,4.5
2019,7,28,20:40,UTC,0,1014,71,0,-1,20,14.7,34620,108,9.1,5
2019,7,28,20:50,UTC,0,1014,69,0,-1,19.9,14.1,42880,113,9.4,6.5
2019,7,28,21:00,UTC,0,1014.2,72,0,-1,19.8,14.5,40010,109,10.5,5.3
2019,7,28,21:10,UTC,1,1014.3,70,0,-1,19.6,13.9,40990,114,9,5.7
2019,7,28,21:20,UTC,0,1014.4,68,0,-1,19.5,13.6,49240,117,8.5,6
2019,7,28,21:30,UTC,0,1014.4,69,0,-1,19.5,13.6,45900,112,8.7,5.6
2019,7,28,21:40,UTC,0,1014.4,68,0,-1,19.4,13.4,41840,110,8.2,5.9
2019,7,28,21:50,UTC,0,1014.6,68,0,-1,19.3,13.3,49860,109,7.6,4.7
2019,7,28,22:00,UTC,0,1014.5,68,0,-1,19.2,13.2,46870,113,9.4,5.7
2019,7,28,22:10,UTC,0,1014.5,67,0,-1,19.2,12.9,50000,112,9.3,7.1
2019,7,28,22:20,UTC,0,1014.5,67,0,-1,19,12.6,48260,112,8.8,5.9
2019,7,28,22:30,UTC,1,1014.4,67,0,-1,18.9,12.5,49690,110,8.5,5.7
2019,7,28,22:40,UTC,0,1014.4,66,0,-1,18.8,12.4,47360,108,9.8,6.8
2019,7,28,22:50,UTC,1,1014.4,65,0,-1,18.7,11.9,50000,110,9.4,5.7
2019,7,28,23:00,UTC,1,1014.5,65,0,-1,18.6,11.9,50000,110,8.4,5.5
2019,7,28,23:10,UTC,1,1014.5,65,0,-1,18.5,11.9,47180,108,8.6,5.3
2019,7,28,23:20,UTC,0,1014.7,66,0,-1,18.3,11.8,50000,110,9.2,6.3
2019,7,28,23:30,UTC,0,1014.7,66,0,-1,18.3,11.8,50000,109,8.3,5.4
2019,7,28,23:40,UTC,0,1014.7,66,0,-1,18.1,11.7,50000,111,10.4,6.2
2019,7,28,23:50,UTC,1,1014.7,66,0,-1,18,11.5,50000,105,7.5,5.4
2019,7,29,00:00,UTC,1,1014.8,65,0,-1,18,11.4,49530,113,8.5,6.1
2019,7,29,00:10,UTC,0,1014.8,67,0,-1,17.8,11.6,42580,108,9.1,6.1
2019,7,29,00:20,UTC,1,1014.8,66,0,-1,17.7,11.2,50000,107,9.1,5.5
2019,7,29,00:30,UTC,1,1014.8,66,0,-1,17.6,11.3,50000,118,8.1,5.5
2019,7,29,00:40,UTC,1,1014.8,66,0,-1,17.5,11.2,50000,120,8.6,5.7
2019,7,29,00:50,UTC,3,1014.9,66,0,-1,17.4,11,50000,120,8.9,6
2019,7,29,01:00,UTC,1,1014.9,66,0,-1,17.4,11,47210,121,7.4,4.9
2019,7,29,01:10,UTC,1,1014.9,67,0,-1,17.3,11.1,50000,115,8.8,5.6
2019,7,29,01:20,UTC,1,1014.9,67,0,-1,17.2,11,50000,116,9,5.9
2019,7,29,01:30,UTC,1,1014.9,67,0,-1,17.1,10.8,50000,120,7,4.7
2019,7,29,01:40,UTC,1,1014.9,66,0,-1,17.1,10.8,50000,123,7.9,4.3
2019,7,29,01:50,UTC,1,1015,67,0,-1,17.1,10.8,50000,118,7.9,5.2
2019,7,29,02:00,UTC,1,1015,67,0,-1,17,10.7,50000,115,7.6,5.3
2019,7,29,02:10,UTC,1,1015,67,0,-1,16.9,10.7,50000,123,7.3,4.6
2019,7,29,02:20,UTC,0,1015,66,0,-1,16.9,10.5,50000,114,7.8,5.2
2019,7,29,02:30,UTC,1,1015,68,0,-1,17,11.1,50000,115,6.1,4.3
2019,7,29,02:40,UTC,1,1015,69,0,-1,16.8,11.2,48280,121,6.9,4.6
2019,7,29,02:50,UTC,1,1015,69,0,-1,16.8,11.1,50000,128,6.7,4.6
2019,7,29,03:00,UTC,1,1015,70,0,-1,16.6,11.1,50000,129,7.4,4.1
2019,7,29,03:10,UTC,1,1014.9,70,0,-1,16.7,11.2,48970,130,5.7,3.7
2019,7,29,03:20,UTC,1,1014.9,68,0,-1,16.9,10.9,50000,131,6.5,4.2
2019,7,29,03:30,UTC,3,1015,69,0,-1,16.9,11.2,50000,126,6.4,4.1
2019,7,29,03:40,UTC,5,1015,68,0,-1,17.1,11.1,50000,136,6,3.7
2019,7,29,03:50,UTC,5,1015,68,0,-1,17,11.1,48980,135,6.9,4.7
2019,7,29,04:00,UTC,3,1014.9,68,0,-1,16.9,11,50000,118,5.3,3.5
2019,7,29,04:10,UTC,3,1014.8,67,0,-1,17.6,11.3,48720,125,5.2,3.1
2019,7,29,04:20,UTC,3,1014.8,66,0,-1,17.6,11.1,50000,115,6.7,4.2
2019,7,29,04:30,UTC,5,1014.8,64,0,-1,18.2,11.2,50000,129,6.3,3.6
2019,7,29,04:40,UTC,5,1014.8,63,0,-1,18.1,11,50000,131,7,4.1
2019,7,29,04:50,UTC,3,1014.8,63,0,-1,17.1,10.1,46650,120,6.5,3.6
2019,7,29,05:00,UTC,3,1014.8,64,0,-1,17.4,10.5,50000,117,5,3.5
2019,7,29,05:10,UTC,5,1014.8,61,0,-1,17.7,10.2,50000,123,5.9,3.9
2019,7,29,05:20,UTC,3,1014.7,63,0,-1,17.6,10.4,50000,109,5.8,3.8
2019,7,29,05:30,UTC,5,1014.7,62,0,-1,17.9,10.6,46620,132,5.4,3.4
2019,7,29,05:40,UTC,5,1014.8,66,0,-1,17.1,10.7,42950,119,5.6,3.4
2019,7,29,05:50,UTC,7,1014.8,64,0,-1,18.1,11.1,45110,148,4.5,3.3
2019,7,29,06:00,UTC,5,1014.8,65,0,-1,17.1,10.6,47530,145,4.8,3
2019,7,29,06:10,UTC,7,1014.7,67,0,-1,17.1,11,45600,147,5.9,3.3
2019,7,29,06:20,UTC,3,1014.7,66,0,-1,17.2,10.9,49550,146,4.9,2.7
2019,7,29,06:30,UTC,5,1014.6,66,0,-1,17.3,10.9,49500,156,5,3.2
2019,7,29,06:40,UTC,5,1014.6,63,0,-1,17.9,10.8,49110,138,4.4,2.2
2019,7,29,06:50,UTC,8,1014.5,66,0,-1,17.5,11,38770,161,4.6,2.4
2019,7,29,07:00,UTC,8,1014.6,66,0,-1,17.1,10.8,50000,162,4.6,3.3
2019,7,29,07:10,UTC,7,1014.5,65,0,-1,17.1,10.5,50000,160,5,2.8
2019,7,29,07:20,UTC,7,1014.6,62,0,-1,17.9,10.4,42690,192,5.6,2.5
2019,7,29,07:30,UTC,7,1014.6,65,0,-1,17.2,10.4,44330,212,5.9,3.7
2019,7,29,07:40,UTC,7,1014.6,65,0,-1,17.1,10.4,46210,213,5.4,3.1
2019,7,29,07:50,UTC,7,1014.6,66,0,-1,16.7,10.3,42670,207,5.4,2.9
2019,7,29,08:00,UTC,7,1014.6,66,0,-1,16.7,10.3,48940,167,4.7,3
2019,7,29,08:10,UTC,7,1014.6,66,0,-1,17,10.7,45030,205,3.9,2.6
2019,7,29,08:20,UTC,7,1014.6,65,0,-1,17,10.3,49190,180,3.9,2.3
2019,7,29,08:30,UTC,7,1014.5,65,0,-1,17,10.3,44220,162,5.3,3.1
2019,7,29,08:40,UTC,7,1014.4,65,0,-1,17,10.4,47860,199,4.5,2.5
2019,7,29,08:50,UTC,7,1014.4,65,0,-1,17.3,10.7,47170,216,3.8,2
2019,7,29,09:00,UTC,7,1014.3,66,0,-1,17,10.6,48140,224,4.6,2.8
2019,7,29,09:10,UTC,7,1014.1,63,0,-1,17.2,10.1,45300,213,4,1.9
2019,7,29,09:20,UTC,3,1014,63,0,-1,18.4,11.1,39950,163,3.5,2.2
2019,7,29,09:30,UTC,1,1014,59,0,-1,18.7,10.4,43500,190,4.5,2.2
2019,7,29,09:40,UTC,,,,,,,,,,,
2019,7,29,09:50,UTC,,,,,,,,,,,
2019,7,29,10:00,UTC,1,1013.7,59,0,-1,19.1,10.8,37090,,,
2019,7,29,10:10,UTC,,,,,,,,,,,
2019,7,29,10:20,UTC,,,,,,,,,,,
2019,7,29,10:30,UTC,5,1013.4,60,0,-1,18.6,10.6,49440,189,4,2.3
2019,7,29,10:40,UTC,7,1013.4,58,0,-1,18.8,10.4,39360,176,5,2.8
2019,7,29,10:50,UTC,5,1013.4,63,0,-1,18.8,11.6,45270,168,5.4,3.1
2019,7,29,11:00,UTC,5,1013.3,59,0,-1,18.7,10.4,38780,162,5.9,3.3
2019,7,29,11:10,UTC,5,1013.1,60,0,-1,19,11.1,44710,182,6.2,3.3
2019,7,29,11:20,UTC,7,1013.1,59,0,-1,19,10.7,43530,204,5,3.1
2019,7,29,11:30,UTC,7,1013.1,61,0,-1,18.9,11.3,40890,188,5.7,3.3
2019,7,29,11:40,UTC,5,1013,57,0,-1,19.1,10.3,42640,193,4.8,2.8
2019,7,29,11:50,UTC,5,1013,59,0,-1,19.8,11.5,43400,184,6.1,3.9
2019,7,29,12:00,UTC,3,1012.9,57,0,-1,19.1,10.3,42320,207,6,4
2019,7,29,12:10,UTC,1,1012.9,59,0,-1,19.3,10.9,44300,207,7.4,4.6
2019,7,29,12:20,UTC,1,1012.7,60,0,-1,18.5,10.5,42140,215,6.8,4.9
2019,7,29,12:30,UTC,1,1012.6,60,0,-1,18.6,10.6,44620,209,6.5,4
2019,7,29,12:40,UTC,1,1012.6,61,0,-1,18.1,10.4,40780,210,6.5,4
2019,7,29,12:50,UTC,1,1012.5,60,0,-1,18.5,10.6,50000,200,6.6,4
2019,7,29,13:00,UTC,0,1012.4,60,0,-1,18.5,10.6,42670,213,6.5,3.7
2019,7,29,13:10,UTC,0,1012.4,60,0,-1,18.7,10.7,50000,232,5.2,3.2
2019,7,29,13:20,UTC,0,1012.2,62,0,-1,18.3,10.8,50000,219,4.7,2.8
2019,7,29,13:30,UTC,1,1012.1,61,0,-1,18.1,10.5,50000,221,4.8,2.8
2019,7,29,13:40,UTC,1,1012,62,0,-1,18.1,10.7,38160,217,5.8,3.7
2019,7,29,13:50,UTC,1,1011.9,62,0,-1,18.1,10.7,50000,205,5.7,3.9
2019,7,29,14:00,UTC,1,1011.9,63,0,-1,18,10.9,42860,207,6.7,4.3
2019,7,29,14:10,UTC,3,1011.9,62,0,-1,17.8,10.5,50000,188,6.2,3.6
2019,7,29,14:20,UTC,5,1011.8,63,0,-1,17.7,10.5,50000,198,5.9,3.4
2019,7,29,14:30,UTC,5,1011.8,64,0,-1,17.7,10.7,46750,209,6.6,4.5
2019,7,29,14:40,UTC,7,1011.8,66,0,-1,17.7,11.2,49770,190,5.3,3.8
2019,7,29,14:50,UTC,5,1011.7,64,0,-1,17.5,10.6,49200,193,6.4,3.7
2019,7,29,15:00,UTC,7,1011.7,64,0,-1,17.5,10.7,50000,198,5.6,3.3
2019,7,29,15:10,UTC,7,1011.6,65,0,-1,17.5,10.9,50000,207,5.2,3.3
2019,7,29,15:20,UTC,5,1011.5,62,0,-1,18,10.7,50000,223,6.8,4.6
2019,7,29,15:30,UTC,5,1011.5,64,0,-1,17.8,11,50000,240,6.6,4.2
2019,7,29,15:40,UTC,5,1011.4,65,0,-1,17.8,11.2,50000,226,6.1,3.6
2019,7,29,15:50,UTC,5,1011.4,64,0,-1,17.8,11,48160,223,6.4,4
2019,7,29,16:00,UTC,5,1011.3,64,0,-1,17.7,10.8,50000,234,6.2,3.6
2019,7,29,16:10,UTC,5,1011.3,64,0,-1,17.7,10.8,48850,215,7,4.2
2019,7,29,16:20,UTC,7,1011.2,64,0,-1,18.1,11.1,50000,220,7.2,4.9
2019,7,29,16:30,UTC,7,1011.1,63,0,-1,18.4,11.2,50000,222,6.3,3.9
2019,7,29,16:40,UTC,7,1011.1,62,0,-1,18.4,11.1,50000,222,6.7,4.2
2019,7,29,16:50,UTC,7,1011.1,62,0,-1,18.6,11.1,50000,221,5.9,3.6
2019,7,29,17:00,UTC,5,1011.1,64,0,-1,18.3,11.3,43390,230,5.7,3.4
2019,7,29,17:10,UTC,3,1011,63,0,-1,18.6,11.3,49180,229,5,3.4
2019,7,29,17:20,UTC,1,1011,63,0,-1,18.5,11.3,49830,235,6,3.7
2019,7,29,17:30,UTC,1,1010.9,64,0,-1,18.5,11.5,50000,226,5.8,3.7
2019,7,29,17:40,UTC,3,1010.8,64,0,-1,18.4,11.4,50000,236,5.2,3
2019,7,29,17:50,UTC,5,1010.7,63,0,-1,18.6,11.3,49100,239,4.4,2.5
2019,7,29,18:00,UTC,5,1010.7,62,0,-1,18.5,11.1,50000,247,4.9,3.2
2019,7,29,18:10,UTC,3,1010.6,62,0,-1,18.4,11,50000,258,5.4,3.9
2019,7,29,18:20,UTC,1,1010.7,63,0,-1,18.1,11,50000,258,5.8,3.9
2019,7,29,18:30,UTC,3,1010.8,64,0,-1,18.1,11.1,50000,257,4.6,3.1
2019,7,29,18:40,UTC,3,1010.7,65,0,-1,17.9,11.3,50000,265,4.9,3.5
2019,7,29,18:50,UTC,3,1010.8,65,0,-1,17.8,11.1,50000,266,4.7,3.6
2019,7,29,19:00,UTC,5,1010.8,66,0,-1,17.7,11.3,50000,278,4.2,3
2019,7,29,19:10,UTC,5,1010.9,64,0,-1,17.9,11,50000,285,3.5,2.2
2019,7,29,19:20,UTC,7,1010.8,64,0,-1,17.9,11.1,50000,285,3.5,2.2
2019,7,29,19:30,UTC,8,1010.8,66,0,-1,17.6,11.2,50000,274,3.7,2.2
2019,7,29,19:40,UTC,7,1010.8,66,0,-1,17.6,11.2,48200,286,2.6,1.7
2019,7,29,19:50,UTC,7,1010.7,66,0,-1,17.6,11.2,50000,277,2.4,1.6
2019,7,29,20:00,UTC,8,1010.8,69,0,-1,17.3,11.6,50000,291,2.6,1.7
2019,7,29,20:10,UTC,8,1010.8,68,0,-1,17.3,11.4,13580,313,2.3,1.7
2019,7,29,20:20,UTC,7,1010.9,69,0,-1,17.2,11.5,50000,320,1.7,1.1
2019,7,29,20:30,UTC,8,1010.8,70,0,-1,17.2,11.6,50000,305,2.2,1.3
2019,7,29,20:40,UTC,7,1010.8,70,0,-1,17.1,11.5,50000,306,1.7,1
2019,7,29,20:50,UTC,7,1010.8,70,0,-1,17.2,11.6,50000,334,1.8,1
2019,7,29,21:00,UTC,7,1010.8,70,0,-1,17.2,11.6,50000,340,2.4,1.8
2019,7,29,21:10,UTC,7,1010.9,70,0,-1,17.1,11.7,50000,343,2.5,2.1
2019,7,29,21:20,UTC,7,1010.9,71,0,-1,17,11.7,50000,337,2.3,2
2019,7,29,21:30,UTC,7,1011,70,0,-1,16.9,11.4,50000,356,3.2,1.9
2019,7,29,21:40,UTC,7,1011.1,60,0,-1,17.3,9.5,45560,43,7.2,3.4
2019,7,29,21:50,UTC,7,1011.2,59,0,-1,17,8.8,43250,63,6.7,4.1
2019,7,29,22:00,UTC,3,1011.3,57,0,-1,16.7,8.1,50000,61,7.1,4.8
2019,7,29,22:10,UTC,3,1011.3,56,0,-1,16.6,7.9,50000,65,6.4,4.5
2019,7,29,22:20,UTC,3,1011.4,57,0,-1,16.3,7.7,49140,59,6.9,4.7
2019,7,29,22:30,UTC,3,1011.6,58,0,-1,15.8,7.5,50000,54,8.4,5
2019,7,29,22:40,UTC,1,1011.7,58,0,-1,15.5,7.2,50000,60,8.2,4.7
2019,7,29,22:50,UTC,3,1011.7,59,0,-1,15.1,7.2,50000,62,9,5.6
2019,7,29,23:00,UTC,1,1011.8,60,0,-1,15,7.2,50000,60,9.5,5.5
2019,7,29,23:10,UTC,3,1011.8,59,0,-1,14.8,7,50000,61,8.5,5.7
2019,7,29,23:20,UTC,5,1011.9,60,0,-1,14.7,7,50000,60,8.9,6.1
2019,7,29,23:30,UTC,5,1011.9,61,0,-1,14.5,7,50000,61,8.6,6.3
2019,7,29,23:40,UTC,3,1011.9,61,0,-1,14.3,6.9,50000,62,11,7.1
2019,7,29,23:50,UTC,3,1011.9,61,0,-1,14.3,6.7,50000,59,10.2,6.3
2019,7,30,00:00,UTC,3,1012,61,0,-1,14.2,6.7,50000,55,9.1,6.1
2019,7,30,00:10,UTC,5,1012,61,0,-1,14,6.5,50000,58,9.6,5.4
2019,7,30,00:20,UTC,7,1012.1,61,0,-1,14,6.6,50000,58,8.7,5.6
2019,7,30,00:30,UTC,5,1012.2,59,0,-1,13.9,6,50000,59,9.7,5.1
2019,7,30,00:40,UTC,3,1012.3,59,0,-1,13.9,5.9,50000,58,8.3,5.8
2019,7,30,00:50,UTC,3,1012.3,60,0,-1,13.8,6,50000,51,8.9,5.3
2019,7,30,01:00,UTC,3,1012.4,60,0,-1,13.6,5.9,50000,56,9.6,5.6
2019,7,30,01:10,UTC,5,1012.5,60,0,-1,13.6,6,50000,56,7.9,4.7
2019,7,30,01:20,UTC,5,1012.5,61,0,-1,13.5,6.1,50000,54,8.7,4.8
2019,7,30,01:30,UTC,7,1012.5,59,0,-1,13.4,5.7,50000,56,9.2,5.2
2019,7,30,01:40,UTC,7,1012.4,61,0,-1,13.3,5.9,50000,58,7.6,4.9
2019,7,30,01:50,UTC,7,1012.4,60,0,-1,13.2,5.6,50000,62,8.6,5.2
2019,7,30,02:00,UTC,8,1012.4,60,0,-1,13.2,5.7,50000,62,9,5.3
2019,7,30,02:10,UTC,8,1012.3,59,0,-1,13.1,5.4,50000,60,8.7,5.3
2019,7,30,02:20,UTC,8,1012.4,61,0,-1,13.2,5.7,50000,63,7.8,4.8
2019,7,30,02:30,UTC,7,1012.6,60,0,-1,13,5.4,50000,63,8.9,5.6
2019,7,30,02:40,UTC,7,1012.6,59,0,-1,12.9,5.2,50000,56,8.2,5.2
2019,7,30,02:50,UTC,7,1012.7,61,0,-1,12.8,5.4,50000,52,10,5.5
2019,7,30,03:00,UTC,7,1012.9,59,0,-1,12.8,5,50000,55,9.1,5.7
2019,7,30,03:10,UTC,7,1012.9,61,0,-1,12.6,5.2,50000,53,10,5.7
2019,7,30,03:20,UTC,7,1012.9,62,0,-1,12.4,5.3,48830,50,10.3,6.3
2019,7,30,03:30,UTC,8,1013,64,0,-1,12.1,5.5,49150,55,10.2,6.4
2019,7,30,03:40,UTC,8,1013.2,68,0,-1,11.8,6.2,45030,50,7.5,4.9
2019,7,30,03:50,UTC,7,1013.4,72,0,-1,11.5,6.6,50000,39,6.9,4.2
2019,7,30,04:00,UTC,8,1013.3,70,0,-1,11.6,6.3,50000,45,5.8,3.5
2019,7,30,04:10,UTC,8,1013.2,68,0,-1,11.6,5.9,50000,55,4.9,2.9
2019,7,30,04:20,UTC,7,1013.1,67,0,-1,11.6,5.7,50000,53,5.8,3.2
2019,7,30,04:30,UTC,7,1013.2,68,0,-1,11.8,6.1,50000,44,6.4,3.6
2019,7,30,04:40,UTC,7,1013.2,67,0,-1,11.8,6,50000,26,6.6,4.4
2019,7,30,04:50,UTC,7,1013.2,66,0,-1,11.9,5.8,50000,43,7.3,3.5
2019,7,30,05:00,UTC,7,1013.2,65,0,-1,12.2,5.7,48980,41,6.5,3.6
2019,7,30,05:10,UTC,7,1013.2,65,0,-1,13,6.5,49380,36,6.7,3.7
2019,7,30,05:20,UTC,7,1013.3,59,0,-1,13.4,5.4,48710,44,7.3,4.4
2019,7,30,05:30,UTC,5,1013.3,57,0,-1,13.5,5.1,43740,48,8.3,4.8
2019,7,30,05:40,UTC,7,1013.3,55,0,-1,13.8,5,46870,58,8,5.4
2019,7,30,05:50,UTC,5,1013.2,59,0,-1,13,5.2,50000,61,8.7,5.7
2019,7,30,06:00,UTC,1,1013.1,56,0,-1,13.3,4.7,46020,67,7.6,5.1
2019,7,30,06:10,UTC,1,1013.1,56,0,-1,13.7,5.2,49460,52,7.2,4.6
2019,7,30,06:20,UTC,0,1013.1,54,0,-1,14,4.8,50000,64,8.2,5.4
2019,7,30,06:30,UTC,1,1013.1,54,0,-1,13.9,4.8,50000,37,6.3,3.8
2019,7,30,06:40,UTC,0,1013.1,54,0,-1,14,4.9,45780,37,10.1,5.8
2019,7,30,06:50,UTC,0,1013.1,52,0,-1,14.5,4.7,50000,26,8.2,5.2
2019,7,30,07:00,UTC,0,1013.2,53,0,-1,14.8,5.2,50000,40,7.8,4.5
2019,7,30,07:10,UTC,0,1013.2,50,0,-1,14.8,4.6,49980,60,8.2,4
2019,7,30,07:20,UTC,1,1013.3,49,0,-1,14.6,4,49480,39,7.7,4.9
2019,7,30,07:30,UTC,0,1013.3,51,0,-1,14,4,50000,53,7,4.4
2019,7,30,07:40,UTC,1,1013.3,51,0,-1,14.3,4.2,50000,50,7.5,4.4
2019,7,30,07:50,UTC,1,1013.3,51,0,-1,14.1,4.1,50000,13,7.7,4.7
2019,7,30,08:00,UTC,5,1013.3,48,0,-1,15.3,4.3,50000,25,5.4,2.9
2019,7,30,08:10,UTC,5,1013.3,47,0,-1,15.3,3.9,39000,9,8.2,4.6
2019,7,30,08:20,UTC,5,1013.3,47,0,-1,15.4,4,42010,36,7.8,4.4
2019,7,30,08:30,UTC,1,1013.3,46,0,-1,15.3,3.8,50000,19,7.1,4.5
2019,7,30,08:40,UTC,1,1013.2,48,0,-1,15.5,4.5,48250,25,7.8,4.6
2019,7,30,08:50,UTC,1,1013.2,43,0,-1,16.4,3.8,42450,28,7.3,4.2
2019,7,30,09:00,UTC,5,1013.2,43,0,-1,16.2,3.5,47270,14,9.7,4.5
2019,7,30,09:10,UTC,7,1013.3,48,0,-1,15.3,4.3,50000,360,9.2,5.8
2019,7,30,09:20,UTC,7,1013.2,47,0,-1,15.5,4.2,43350,8,8.8,4.8
2019,7,30,09:30,UTC,5,1013.2,45,0,-1,16.2,4.2,46830,39,8.2,4.9
2019,7,30,09:40,UTC,3,1013.1,42,0,-1,16.6,3.7,45860,15,7.4,4.2
2019,7,30,09:50,UTC,3,1013.1,41,0,-1,16.3,3.1,41940,30,8.8,4.5
2019,7,30,10:00,UTC,3,1013.2,45,0,-1,16.1,4.2,50000,12,8.4,5
2019,7,30,10:10,UTC,5,1013.1,42,0,-1,16.6,3.7,43620,46,8.1,4.3
2019,7,30,10:20,UTC,5,1013.2,43,0,-1,15.9,3.4,50000,19,7.3,4.5
2019,7,30,10:30,UTC,7,1013.1,45,0,-1,16.3,4.4,43150,18,8.2,4.7
2019,7,30,10:40,UTC,5,1013.2,42,0,-1,16.7,3.6,41610,10,10,4.8
2019,7,30,10:50,UTC,3,1013.1,39,0,-1,18.1,4.1,41120,45,9.3,5
2019,7,30,11:00,UTC,5,1013.2,46,0,-1,16.3,4.5,50000,360,9.2,5.7
2019,7,30,11:10,UTC,5,1013.3,48,0,-1,15.6,4.5,49560,350,9.6,6
2019,7,30,11:20,UTC,5,1013.2,49,0,-1,16.4,5.5,44670,358,8.5,5.6
2019,7,30,11:30,UTC,5,1013.1,43,0,-1,17,4.3,46860,350,9.5,5.5
2019,7,30,11:40,UTC,1,1013,45,0,-1,17.2,5,42310,346,9.7,6.3
2019,7,30,11:50,UTC,5,1013.2,45,0,-1,16.7,4.7,40010,345,10.2,6.4
2019,7,30,12:00,UTC,5,1013.1,43,0,-1,16.5,3.8,42500,358,10.1,5.5
2019,7,30,12:10,UTC,7,1013.3,45,0,-1,16,4.2,50000,8,10.9,6.4
2019,7,30,12:20,UTC,7,1013.3,46,0,-1,15.8,4.3,44410,21,10.3,6.5
2019,7,30,12:30,UTC,7,1013.4,47,0,-1,15.6,4.3,36640,8,8.8,5.7
2019,7,30,12:40,UTC,7,1013.5,49,0,-1,16.1,5.4,50000,1,11.7,7.2
2019,7,30,12:50,UTC,7,1013.5,47,0,-1,15.8,4.7,47920,16,10.2,5.8
2019,7,30,13:00,UTC,7,1013.6,51,0,-1,15.5,5.3,46180,357,8,5.2
2019,7,30,13:10,UTC,7,1013.5,49,0,-1,15,4.3,50000,17,8.7,4.9
2019,7,30,13:20,UTC,7,1013.4,49,0,-1,14.9,4.4,47060,9,8.8,4.2
2019,7,30,13:30,UTC,8,1013.3,48,0,-1,15.2,4.2,50000,16,8.1,5
2019,7,30,13:40,UTC,7,1013.3,50,0,-1,15,4.5,50000,25,7.9,4.1
2019,7,30,13:50,UTC,7,1013.3,49,0,-1,15.3,4.8,46210,7,9.4,5.2
2019,7,30,14:00,UTC,7,1013.2,48,0,-1,15.2,4.3,50000,351,9.9,5.7
2019,7,30,14:10,UTC,7,1013.1,51,0,-1,15,4.8,50000,4,10.4,4.9
2019,7,30,14:20,UTC,7,1013.2,49,0,-1,14.9,4.4,50000,357,9.6,5.1
2019,7,30,14:30,UTC,8,1013.1,48,0,-1,15,4.2,50000,6,9.3,5.4
2019,7,30,14:40,UTC,7,1013,50,0,-1,15.1,4.8,50000,353,7.9,4.7
2019,7,30,14:50,UTC,7,1012.9,48,0,-1,15.2,4.3,50000,356,6.9,4.1
2019,7,30,15:00,UTC,7,1013,50,0,-1,15.3,5,50000,352,8.9,4.7
2019,7,30,15:10,UTC,7,1012.9,48,0,-1,15.2,4.3,50000,336,9.8,6.1
2019,7,30,15:20,UTC,7,1012.9,48,0,-1,15.2,4.2,50000,339,9.3,5.8
2019,7,30,15:30,UTC,8,1012.8,50,0,-1,15,4.5,50000,337,9.1,6
2019,7,30,15:40,UTC,8,1012.8,50,0,-1,14.9,4.7,50000,346,8.9,6
2019,7,30,15:50,UTC,7,1012.7,50,0,-1,15.1,4.9,50000,357,8.7,5.6
2019,7,30,16:00,UTC,7,1012.7,50,0,-1,15.1,4.7,50000,342,10.4,5.8
2019,7,30,16:10,UTC,8,1012.7,51,0,-1,15.1,5,50000,341,9.1,5
2019,7,30,16:20,UTC,7,1012.6,50,0,-1,15.1,4.7,50000,345,9.3,5.9
2019,7,30,16:30,UTC,7,1012.6,50,0,-1,15.1,4.8,50000,344,9.2,6.1
2019,7,30,16:40,UTC,7,1012.6,50,0,-1,15,4.8,50000,338,9.9,6.1
2019,7,30,16:50,UTC,7,1012.6,51,0,-1,15,5,50000,344,9.7,6.1
2019,7,30,17:00,UTC,7,1012.6,51,0,-1,14.8,4.7,47920,356,9.7,5.8
2019,7,30,17:10,UTC,8,1012.6,51,0,-1,14.8,4.7,50000,337,10,6.6
2019,7,30,17:20,UTC,8,1012.6,52,0,-1,14.7,5.1,50000,337,8.7,5.7
2019,7,30,17:30,UTC,7,1012.5,52,0,-1,14.7,5,50000,341,7.9,4.4
2019,7,30,17:40,UTC,7,1012.4,52,0,-1,14.5,4.8,48360,349,8.4,4.6
2019,7,30,17:50,UTC,7,1012.4,52,0,-1,14.6,4.9,50000,342,8.1,4.8
2019,7,30,18:00,UTC,7,1012.4,52,0,-1,14.5,4.7,50000,342,8.5,5.4
2019,7,30,18:10,UTC,8,1012.5,53,0,-1,14.4,5.1,50000,340,9.1,5.8
2019,7,30,18:20,UTC,8,1012.5,51,0,-1,14.5,4.5,50000,344,7.8,5.1
2019,7,30,18:30,UTC,8,1012.5,53,0,-1,14.3,4.9,50000,356,7.3,4.4
2019,7,30,18:40,UTC,8,1012.5,51,0,-1,14.3,4.3,50000,354,9.9,4.4
2019,7,30,18:50,UTC,7,1012.5,52,0,-1,14.2,4.5,50000,358,9,5
2019,7,30,19:00,UTC,7,1012.5,53,0,-1,14,4.7,50000,356,8.5,5.2
2019,7,30,19:10,UTC,7,1012.4,54,0,-1,13.9,4.7,49690,358,8.7,4.7
2019,7,30,19:20,UTC,3,1012.4,55,0,-1,13.5,4.7,50000,1,8.5,4.2
2019,7,30,19:30,UTC,5,1012.4,56,0,-1,13.6,4.9,50000,357,9,4.6
2019,7,30,19:40,UTC,5,1012.4,56,0,-1,13.7,5,50000,358,6.9,4.4
2019,7,30,19:50,UTC,7,1012.3,55,0,-1,13.6,4.8,50000,4,8.3,5.2
2019,7,30,20:00,UTC,7,1012.3,56,0,-1,13.5,5,47180,360,6.3,3.6
2019,7,30,20:10,UTC,8,1012.3,57,0,-1,13.4,5,50000,345,6,3.3
2019,7,30,20:20,UTC,8,1012.4,57,0,-1,13.3,5,45330,360,8.8,4.1
2019,7,30,20:30,UTC,7,1012.4,57,0,-1,13.3,4.9,50000,360,9,5.4
2019,7,30,20:40,UTC,7,1012.4,56,0,-1,13.3,4.6,50000,346,8,5.2
2019,7,30,20:50,UTC,7,1012.3,57,0,-1,13,4.6,50000,352,10.5,5.9
2019,7,30,21:00,UTC,7,1012.4,58,0,-1,12.9,4.7,50000,360,9.9,5.5
2019,7,30,21:10,UTC,5,1012.4,58,0,-1,12.7,4.7,50000,1,8.9,4.5
2019,7,30,21:20,UTC,5,1012.4,59,0,-1,12.6,4.8,50000,358,7.2,3.9
2019,7,30,21:30,UTC,5,1012.4,60,0,-1,12.6,5,50000,349,6.3,4.1
2019,7,30,21:40,UTC,7,1012.4,59,0,-1,12.7,5,50000,345,8.4,4.2
2019,7,30,21:50,UTC,8,1012.4,60,0,-1,12.8,5.2,50000,340,6.8,4.1
2019,7,30,22:00,UTC,7,1012.4,60,0,-1,12.8,5.1,50000,338,8.4,4.8
2019,7,30,22:10,UTC,8,1012.4,59,0,-1,12.7,5,50000,337,8.3,4.5
2019,7,30,22:20,UTC,8,1012.3,61,0,-1,12.7,5.5,50000,333,7.5,5.1
2019,7,30,22:30,UTC,8,1012.4,60,0,-1,12.7,5.1,47150,337,7.2,4.7
2019,7,30,22:40,UTC,8,1012.4,60,0,-1,12.7,5,48310,335,6.9,4.6
2019,7,30,22:50,UTC,8,1012.4,61,0,-1,12.6,5.3,50000,341,8.1,5.4
2019,7,30,23:00,UTC,7,1012.5,64,0,-1,12.4,5.8,50000,347,9.8,5.4
2019,7,30,23:10,UTC,8,1012.6,65,0,-1,12.2,5.7,41060,4,8.9,5.5
2019,7,30,23:20,UTC,8,1012.5,66,0,-1,12.1,5.9,50000,16,8.6,4.6
2019,7,30,23:30,UTC,7,1012.4,66,0,-1,12.1,5.9,50000,2,8.5,4.2
2019,7,30,23:40,UTC,8,1012.4,64,0,-1,12.2,5.6,50000,354,7.7,4.3
2019,7,30,23:50,UTC,8,1012.5,65,0,-1,12.1,5.8,50000,340,10,6.1
2019,7,31,00:00,UTC,7,1012.6,68,0,-1,11.9,6.1,47040,356,8,4.6
2019,7,31,00:10,UTC,8,1012.5,70,0,-1,11.8,6.4,49590,5,9.8,5.9
2019,7,31,00:20,UTC,8,1012.5,69,0,-1,11.8,6.4,50000,360,9.3,5.1
2019,7,31,00:30,UTC,8,1012.4,69,0,-1,11.8,6.2,50000,355,8.2,4.8
2019,7,31,00:40,UTC,8,1012.3,68,0,-1,11.8,6.1,50000,340,6.9,4
2019,7,31,00:50,UTC,8,1012.3,71,0,-1,11.6,6.6,50000,351,7.1,4.5
2019,7,31,01:00,UTC,7,1012.4,73,0,-1,11.5,6.9,50000,350,8.2,5.4
2019,7,31,01:10,UTC,8,1012.3,73,0,-1,11.6,6.8,50000,346,7.7,4.9
2019,7,31,01:20,UTC,8,1012.3,72,0,-1,11.5,6.6,50000,345,8.7,4.9
2019,7,31,01:30,UTC,8,1012.2,73,0,-1,11.5,6.8,50000,344,7.3,4.5
2019,7,31,01:40,UTC,8,1012.3,73,0,-1,11.6,6.8,50000,339,7.1,4.3
2019,7,31,01:50,UTC,7,1012.3,73,0,-1,11.5,6.8,50000,340,7.9,5.1
2019,7,31,02:00,UTC,7,1012.3,74,0,-1,11.5,7,50000,339,8,4.6
2019,7,31,02:10,UTC,8,1012.3,74,0,-1,11.4,7,50000,338,7.8,4.7
2019,7,31,02:20,UTC,8,1012.3,74,0,-1,11.4,7,50000,343,6,4
2019,7,31,02:30,UTC,8,1012.2,74,0,-1,11.5,7,50000,346,6.5,4.1
2019,7,31,02:40,UTC,7,1012.3,73,0,-1,11.5,6.8,50000,341,7.4,4.1
2019,7,31,02:50,UTC,7,1012.3,72,0,-1,11.7,6.8,50000,340,9.4,5
2019,7,31,03:00,UTC,7,1012.3,73,0,-1,11.8,7,50000,338,8.1,5.4
2019,7,31,03:10,UTC,8,1012.4,72,0,-1,11.8,6.9,47010,336,7.3,4.9
2019,7,31,03:20,UTC,8,1012.4,72,0,-1,11.7,6.8,44270,337,8.7,4.9
2019,7,31,03:30,UTC,7,1012.4,72,0,-1,11.9,7,50000,339,7.9,4.8
2019,7,31,03:40,UTC,7,1012.3,71,0,-1,12.1,6.9,50000,342,8.2,4.2
2019,7,31,03:50,UTC,7,1012.3,70,0,-1,12,6.8,50000,343,6.9,4.2
2019,7,31,04:00,UTC,7,1012.3,71,0,-1,12.2,7.1,50000,346,8,4.6
2019,7,31,04:10,UTC,7,1012.3,71,0,-1,12.2,7,50000,349,8.4,5.2
2019,7,31,04:20,UTC,7,1012.3,70,0,-1,12.4,7,50000,350,7.2,3.7
2019,7,31,04:30,UTC,7,1012.3,69,0,-1,12.6,7,50000,343,7,4.3
2019,7,31,04:40,UTC,7,1012.3,69,0,-1,12.7,7.1,50000,355,8.3,4
2019,7,31,04:50,UTC,7,1012.3,68,0,-1,12.7,6.9,50000,353,8.8,5.2
2019,7,31,05:00,UTC,7,1012.2,69,0,-1,12.5,7,50000,351,6.8,4.3
2019,7,31,05:10,UTC,7,1012.2,68,0,-1,12.9,7.2,48160,354,7.2,4.6
2019,7,31,05:20,UTC,3,1012.2,67,0,-1,13.2,7.2,50000,349,8.3,4.7
2019,7,31,05:30,UTC,5,1012.2,67,0,-1,13.2,7.2,49190,6,8.5,4.2
2019,7,31,05:40,UTC,3,1012.3,66,0,-1,13.2,7,22820,1,8.3,4.7
2019,7,31,05:50,UTC,5,1012.3,67,0,-1,13.4,7.4,50000,6,8.2,4
2019,7,31,06:00,UTC,5,1012.3,66,0,-1,13.6,7.5,50000,5,7.7,4.7
2019,7,31,06:10,UTC,3,1012.2,63,0,-1,14.7,7.6,47420,9,8.5,5.7
2019,7,31,06:20,UTC,1,1012.4,61,0,-1,14.6,7.1,48130,355,9.3,5.3
2019,7,31,06:30,UTC,1,1012.4,59,0,-1,15.1,7,43260,14,8.1,4.3
2019,7,31,06:40,UTC,1,1012.4,59,0,-1,15.3,7.3,42740,354,8.8,5.3
2019,7,31,06:50,UTC,1,1012.5,58,0,-1,15.3,7.1,49050,3,8.8,5.6
2019,7,31,07:00,UTC,0,1012.4,58,0,-1,15.7,7.5,7340,10,7.8,4.8
2019,7,31,07:10,UTC,,,,,,,,,359,7.7,4.8
2019,7,31,07:20,UTC,,,,,,,,,25,7.5,4.3
2019,7,31,07:30,UTC,5,1012.7,53,0,-1,16.5,6.7,38440,9,8.8,5.1
2019,7,31,07:40,UTC,3,1012.8,54,0,-1,16.7,7.4,43490,359,8.1,5
2019,7,31,07:50,UTC,1,1012.8,53,0,-1,16.6,6.9,44760,12,6.4,3.4
2019,7,31,08:00,UTC,0,1012.9,51,0,-1,17.1,6.7,41980,12,6.6,3.4
2019,7,31,08:10,UTC,0,1012.8,54,0,-1,17.2,7.9,50000,345,7.4,4.4
2019,7,31,08:20,UTC,0,1012.9,57,0,-1,17.6,9,32730,3,7.8,4.6
2019,7,31,08:30,UTC,0,1012.9,51,0,-1,17.5,7.2,37570,6,8.5,5.3
2019,7,31,08:40,UTC,0,1012.9,53,0,-1,17.9,8.3,38230,358,8,4.8
2019,7,31,08:50,UTC,0,1013,49,0,-1,18,7.2,44310,7,8.3,4.5
2019,7,31,09:00,UTC,0,1013,48,0,-1,18.3,6.9,40650,353,8.2,4.8
2019,7,31,09:10,UTC,0,1013.2,51,0,-1,18.4,8.1,39500,352,10,5.6
2019,7,31,09:20,UTC,0,1013.2,50,0,-1,18.7,7.9,41270,347,7.6,5
2019,7,31,09:30,UTC,0,1013.2,47,0,-1,18.5,7,42650,359,8.8,5
2019,7,31,09:40,UTC,0,1013.3,48,0,-1,19.2,8,36360,20,9.2,5.3
2019,7,31,09:50,UTC,0,1013.2,49,0,-1,19.1,8,41150,17,8.1,5.1
2019,7,31,10:00,UTC,0,1013.2,46,0,-1,19.3,7.4,45800,355,8.5,5.1
2019,7,31,10:10,UTC,0,1013.3,45,0,-1,19.5,7.3,40380,344,8.3,4.7
2019,7,31,10:20,UTC,0,1013.3,45,0,-1,19.6,7.2,32760,351,7.9,4.5
2019,7,31,10:30,UTC,0,1013.3,45,0,-1,20.7,8.2,33940,2,8.8,4.7
2019,7,31,10:40,UTC,0,1013.3,40,0,-1,19.7,5.7,39250,15,8.7,5.2
2019,7,31,10:50,UTC,0,1013.4,42,0,-1,20.3,6.9,39130,13,8.8,4.6
2019,7,31,11:00,UTC,0,1013.3,41,0,-1,20.4,6.7,37030,31,8.6,4.2
2019,7,31,11:10,UTC,0,1013.3,38,0,-1,20.5,5.6,39970,24,8.2,5.3
2019,7,31,11:20,UTC,0,1013.5,39,0,-1,20.8,6.5,44320,360,7.8,4.4
2019,7,31,11:30,UTC,0,1013.5,39,0,-1,20.5,6.1,46510,24,7.4,4
2019,7,31,11:40,UTC,0,1013.5,39,0,-1,20.6,5.9,40160,358,8.9,3.9
2019,7,31,11:50,UTC,0,1013.5,38,0,-1,20.9,6,36020,353,8.1,4.9
2019,7,31,12:00,UTC,0,1013.5,37,0,-1,21.2,6,40430,2,8.1,5
2019,7,31,12:10,UTC,0,1013.5,38,0,-1,20.5,5.8,38680,15,7.2,3.9
2019,7,31,12:20,UTC,0,1013.7,40,0,-1,20.8,6.6,36470,16,6.7,3.8
2019,7,31,12:30,UTC,0,1013.7,38,0,-1,20.5,5.7,39680,8,8.3,4.3
2019,7,31,12:40,UTC,0,1013.7,38,0,-1,20.4,5.5,46760,4,6.5,3.7
2019,7,31,12:50,UTC,1,1013.6,37,0,-1,20.5,5.3,39900,32,7,3.9
2019,7,31,13:00,UTC,1,1013.6,35,0,-1,20.7,4.8,43340,50,7.1,3.5
2019,7,31,13:10,UTC,1,1013.7,36,0,-1,20.5,4.7,50000,39,7.6,4.4
2019,7,31,13:20,UTC,1,1013.7,37,0,-1,20.5,5.2,50000,40,6.4,3.3
2019,7,31,13:30,UTC,1,1013.7,35,0,-1,20.5,4.5,47540,39,7,3.9
2019,7,31,13:40,UTC,1,1013.6,36,0,-1,20.6,5,44910,13,6.5,3.3
2019,7,31,13:50,UTC,1,1013.7,37,0,-1,20.6,5.2,46950,34,6.2,3.9
2019,7,31,14:00,UTC,1,1013.5,36,0,-1,20.5,5,45330,31,7.4,4
2019,7,31,14:10,UTC,0,1013.5,38,0,-1,20.7,5.8,44400,358,4.9,2.6
2019,7,31,14:20,UTC,0,1013.4,36,0,-1,20.7,5.3,40830,354,6.3,3
2019,7,31,14:30,UTC,0,1013.5,37,0,-1,20.9,5.8,41890,5,6,3.5
2019,7,31,14:40,UTC,1,1013.4,37,0,-1,20.4,5.1,47660,45,6.9,3.9
2019,7,31,14:50,UTC,1,1013.5,36,0,-1,20.6,4.8,50000,11,7,3.7
2019,7,31,15:00,UTC,1,1013.6,54,0,-1,19.2,9.7,50000,357,4.8,2.3
2019,7,31,15:10,UTC,0,1013.6,59,0,-1,18.2,10,47110,70,6.4,3.3
2019,7,31,15:20,UTC,0,1013.6,60,0,-1,18.1,10.1,50000,185,5.3,3.7
2019,7,31,15:30,UTC,0,1013.5,61,0,-1,18,10.2,49790,175,6.1,4
2019,7,31,15:40,UTC,0,1013.6,60,0,-1,17.9,10.1,49020,184,5.4,3.5
2019,7,31,15:50,UTC,0,1013.7,62,0,-1,17.7,10.2,41160,174,5.4,3.4
2019,7,31,16:00,UTC,0,1013.7,63,0,-1,17.7,10.6,50000,177,5.9,3.4
2019,7,31,16:10,UTC,0,1013.8,62,0,-1,17.6,10.2,50000,176,5.2,3.2
2019,7,31,16:20,UTC,0,1013.8,59,0,-1,18,9.9,49930,182,5.4,3.2
2019,7,31,16:30,UTC,1,1013.8,60,0,-1,18.2,10.4,50000,172,4.6,2.9
2019,7,31,16:40,UTC,1,1013.9,60,0,-1,18.2,10.2,48340,172,4.2,2.9
2019,7,31,16:50,UTC,1,1014,59,0,-1,18,9.9,47190,170,4,2.1
2019,7,31,17:00,UTC,0,1014,61,0,-1,17.9,10.3,50000,162,3.7,2.5
2019,7,31,17:10,UTC,0,1014,63,0,-1,17.7,10.6,50000,161,3.6,2.4
2019,7,31,17:20,UTC,1,1014.1,63,0,-1,17.6,10.4,50000,160,3.9,2.4
2019,7,31,17:30,UTC,0,1014.1,65,0,-1,17.4,10.9,50000,144,3.9,2.7
2019,7,31,17:40,UTC,0,1014.1,66,0,-1,17.2,10.7,50000,133,4.3,2.7
2019,7,31,17:50,UTC,0,1014.2,66,0,-1,17.1,10.7,50000,136,4,2.5
2019,7,31,18:00,UTC,0,1014.3,67,0,-1,17,10.8,43640,146,3.7,2.7
2019,7,31,18:10,UTC,0,1014.3,67,0,-1,16.9,10.8,50000,134,4,2.8
2019,7,31,18:20,UTC,0,1014.4,70,0,-1,16.6,11,32700,133,3.5,2.3
2019,7,31,18:30,UTC,0,1014.4,71,0,-1,16.4,11,38290,143,3.9,2.6
2019,7,31,18:40,UTC,0,1014.5,71,0,-1,16.2,10.9,48590,142,3.3,2.4
2019,7,31,18:50,UTC,0,1014.5,72,0,-1,16.2,11.1,46200,149,3.4,2.4
2019,7,31,19:00,UTC,0,1014.5,74,0,-1,16,11.3,50000,137,3.5,2.7
2019,7,31,19:10,UTC,0,1014.5,75,0,-1,16.1,11.6,50000,134,3.6,2.7
2019,7,31,19:20,UTC,1,1014.5,76,0,-1,16,11.8,50000,132,3.5,2.7
2019,7,31,19:30,UTC,3,1014.5,77,0,-1,15.9,11.8,50000,136,3.9,2.4
2019,7,31,19:40,UTC,3,1014.5,77,0,-1,15.8,11.7,47580,135,3.8,2.7
2019,7,31,19:50,UTC,1,1014.6,78,0,-1,15.6,11.7,50000,131,3.4,2.5
2019,7,31,20:00,UTC,0,1014.7,79,0,-1,15.4,11.7,50000,155,3.3,2.4
2019,7,31,20:10,UTC,0,1014.7,79,0,-1,15.4,11.7,50000,154,3.8,2.5
2019,7,31,20:20,UTC,0,1014.8,78,0,-1,15.4,11.6,46390,159,4.4,3.2
2019,7,31,20:30,UTC,0,1014.9,78,0,-1,15.5,11.7,50000,159,4.2,2.8
2019,7,31,20:40,UTC,0,1014.9,79,0,-1,15.4,11.7,49470,150,3.8,2.4
2019,7,31,20:50,UTC,1,1015,80,0,-1,15.3,11.8,37150,148,3.2,2
2019,7,31,21:00,UTC,1,1014.9,79,0,-1,15.2,11.5,50000,140,3.7,2.5
2019,7,31,21:10,UTC,1,1015,79,0,-1,15.3,11.6,50000,136,4.1,2.7
2019,7,31,21:20,UTC,1,1015,81,0,-1,15.2,11.8,49510,141,3.2,2.3
2019,7,31,21:30,UTC,0,1015.1,81,0,-1,15.2,11.9,50000,147,3.1,2.2
2019,7,31,21:40,UTC,0,1015.2,80,0,-1,15.2,11.9,48290,136,3.6,2.5
2019,7,31,21:50,UTC,0,1015.1,81,0,-1,15,11.7,49900,147,3.4,2.1
2019,7,31,22:00,UTC,0,1015.1,81,0,-1,14.9,11.6,50000,158,3.1,2.1
2019,7,31,22:10,UTC,0,1015.2,82,0,-1,14.6,11.5,50000,154,2.5,1.8
2019,7,31,22:20,UTC,0,1015.1,81,0,-1,14.5,11.3,50000,153,2.1,1.5
2019,7,31,22:30,UTC,0,1015.1,83,0,-1,14.1,11.3,49630,145,2.2,1.4
2019,7,31,22:40,UTC,1,1015.2,81,0,-1,14.7,11.5,50000,58,2.7,1.5
2019,7,31,22:50,UTC,3,1015.2,68,0,-1,14.5,8.7,50000,53,5.2,2.9
2019,7,31,23:00,UTC,1,1015.2,65,0,-1,14.4,7.9,48880,62,5.3,3.7
2019,7,31,23:10,UTC,3,1015.3,63,0,-1,14.2,7.2,50000,68,5.9,3.1
2019,7,31,23:20,UTC,3,1015.3,63,0,-1,14.3,7.2,50000,57,4.6,2.7
2019,7,31,23:30,UTC,5,1015.3,63,0,-1,14.3,7.3,50000,52,5.3,3.3
2019,7,31,23:40,UTC,7,1015.3,63,0,-1,14.2,7.2,49370,56,5.3,3.5
2019,7,31,23:50,UTC,7,1015.4,64,0,-1,14,7.2,50000,55,4.7,3.1
2019,8,1,00:00,UTC,5,1015.4,63,0,-1,13.8,6.9,50000,51,4.8,3.3
2019,8,1,00:10,UTC,3,1015.5,65,0,-1,13.6,7.1,50000,50,4.2,2.8
2019,8,1,00:20,UTC,5,1015.5,64,0,-1,13.5,6.8,50000,57,4.4,2.4
2019,8,1,00:30,UTC,5,1015.5,64,0,-1,13.4,6.8,50000,54,4.8,2.7
2019,8,1,00:40,UTC,7,1015.6,65,0,-1,13.3,6.9,50000,51,4.6,3.2
2019,8,1,00:50,UTC,7,1015.6,66,0,-1,13.1,6.8,50000,51,5.5,3.4
2019,8,1,01:00,UTC,7,1015.6,67,0,-1,12.9,6.9,50000,51,5.2,3.2
2019,8,1,01:10,UTC,7,1015.6,68,0,-1,12.6,6.9,50000,56,5.3,3.2
2019,8,1,01:20,UTC,7,1015.5,70,0,-1,12.3,7,50000,61,4.6,2.9
2019,8,1,01:30,UTC,5,1015.6,71,0,-1,12.2,7.2,45760,60,4.2,2.9
2019,8,1,01:40,UTC,7,1015.6,72,0,-1,12.1,7.2,40360,47,5.2,3.1
2019,8,1,01:50,UTC,7,1015.6,71,0,-1,12,7,35080,49,6.1,3.5
2019,8,1,02:00,UTC,7,1015.6,71,0,-1,12,7,31000,48,6.7,4.3
2019,8,1,02:10,UTC,5,1015.6,72,0,-1,11.9,7.1,27790,53,6.2,3.7
2019,8,1,02:20,UTC,7,1015.7,73,0,-1,11.9,7.2,25320,50,5.7,3.7
2019,8,1,02:30,UTC,7,1015.7,72,0,-1,11.8,7,24640,54,5.1,3.4
2019,8,1,02:40,UTC,7,1015.7,72,0,-1,11.7,6.9,24490,51,5.3,3.3
2019,8,1,02:50,UTC,7,1015.7,70,0,-1,11.8,6.6,27110,38,5.1,2.5
2019,8,1,03:00,UTC,7,1015.8,71,0,-1,11.8,6.8,25600,52,4.2,2.5
2019,8,1,03:10,UTC,7,1015.7,69,0,-1,11.8,6.3,20730,63,4.5,3
2019,8,1,03:20,UTC,7,1015.7,67,0,-1,11.9,6,24820,48,5.5,3.5
2019,8,1,03:30,UTC,7,1015.6,67,0,-1,11.9,6,24470,57,5.1,3
2019,8,1,03:40,UTC,7,1015.6,67,0,-1,12,6.1,21960,54,5,3
2019,8,1,03:50,UTC,5,1015.6,67,0,-1,12.2,6.3,23920,44,4.8,2.7
2019,8,1,04:00,UTC,5,1015.6,67,0,-1,12,6,23850,42,5.4,3.2
2019,8,1,04:10,UTC,5,1015.6,68,0,-1,11.9,6.1,24540,25,6.4,4.2
2019,8,1,04:20,UTC,5,1015.6,67,0,-1,12.3,6.4,24290,31,5.7,3.5
2019,8,1,04:30,UTC,3,1015.6,66,0,-1,12.4,6.3,25310,30,5.8,3.6
2019,8,1,04:40,UTC,5,1015.6,63,0,-1,13.5,6.5,31970,35,5.9,3.1
2019,8,1,04:50,UTC,5,1015.6,61,0,-1,13.5,6.1,31090,49,6.2,3.3
2019,8,1,05:00,UTC,3,1015.6,60,0,-1,14.1,6.4,13710,45,5.9,3.7
2019,8,1,05:10,UTC,5,1015.6,59,0,-1,14.2,6.2,26840,42,6,4.1
2019,8,1,05:20,UTC,3,1015.7,60,0,-1,13.7,6,35260,53,5.8,3.8
2019,8,1,05:30,UTC,3,1015.6,59,0,-1,13.9,6.1,29900,31,6,3.7
2019,8,1,05:40,UTC,1,1015.6,60,0,-1,14.6,6.9,33130,39,5.5,3.6
2019,8,1,05:50,UTC,1,1015.6,55,0,-1,14.7,5.7,34370,28,6.2,3.9
2019,8,1,06:00,UTC,0,1015.5,55,0,-1,14.8,5.9,34420,45,5.9,3.7
2019,8,1,06:10,UTC,0,1015.5,53,0,-1,15.2,5.6,38690,31,6.8,3.8
2019,8,1,06:20,UTC,0,1015.6,55,0,-1,15.2,6.2,34450,18,6.1,4.1
2019,8,1,06:30,UTC,0,1015.5,53,0,-1,15.7,6,34710,31,6.4,4.1
2019,8,1,06:40,UTC,0,1015.4,51,0,-1,15.3,5.2,37770,15,5.1,3.1
2019,8,1,06:50,UTC,0,1015.3,52,0,-1,15.4,5.6,35170,24,7.2,4
2019,8,1,07:00,UTC,0,1015.3,51,0,-1,15.8,5.6,40080,29,6.5,3.5
2019,8,1,07:10,UTC,0,1015.3,49,0,-1,16,5.1,34170,30,6.2,3.5
2019,8,1,07:20,UTC,0,1015.3,50,0,-1,16.3,5.8,40730,33,7.7,4.8
2019,8,1,07:30,UTC,0,1015.2,51,0,-1,16,5.9,40620,14,7.4,3
2019,8,1,07:40,UTC,0,1015.2,51,0,-1,16.1,6,38820,3,7.1,4.1
2019,8,1,07:50,UTC,0,1015.1,50,0,-1,16,5.6,29340,7,7,3.7
2019,8,1,08:00,UTC,0,1015.2,48,0,-1,16.1,5,36530,37,6,3.5
2019,8,1,08:10,UTC,0,1015.2,51,0,-1,15.9,5.8,41090,341,6,3.2
2019,8,1,08:20,UTC,0,1015.2,49,0,-1,16.5,5.7,37560,23,6.8,4.2
2019,8,1,08:30,UTC,0,1015.1,46,0,-1,16.9,5.1,38660,21,6.5,3.3
2019,8,1,08:40,UTC,0,1015,47,0,-1,16.6,5.2,32850,10,6.4,3.6
2019,8,1,08:50,UTC,0,1015,48,0,-1,16.9,5.9,40670,11,8.1,4.5
2019,8,1,09:00,UTC,0,1014.9,48,0,-1,17.1,6.1,38070,10,6.7,3.3
2019,8,1,09:10,UTC,0,1014.7,48,0,-1,17.3,6.1,43080,22,6.1,3.7
2019,8,1,09:20,UTC,0,1014.7,48,0,-1,17.3,6,34530,15,7.6,4.5
2019,8,1,09:30,UTC,0,1014.7,48,0,-1,17.1,6.1,37590,22,5.4,2.8
2019,8,1,09:40,UTC,0,1014.6,44,0,-1,17.2,4.7,34470,336,5.8,3.4
2019,8,1,09:50,UTC,0,1014.7,46,0,-1,17.9,6,41310,357,6.9,3.2
2019,8,1,10:00,UTC,0,1014.7,45,0,-1,17.4,5.3,37280,6,6.2,4
2019,8,1,10:10,UTC,1,1014.6,48,0,-1,16.9,5.9,31460,338,7.5,3.7
2019,8,1,10:20,UTC,0,1014.5,50,0,-1,17.5,6.8,19750,325,7.3,3.6
2019,8,1,10:30,UTC,1,1014.5,43,0,-1,17.9,5,30600,5,7.6,3.9
2019,8,1,10:40,UTC,1,1014.5,42,0,-1,17.6,4.7,36270,27,7,3.1
2019,8,1,10:50,UTC,1,1014.4,46,0,-1,18.2,6.4,33850,358,6.4,3.5
2019,8,1,11:00,UTC,1,1014.4,44,0,-1,17.5,5.2,37860,347,7.9,4
2019,8,1,11:10,UTC,0,1014.3,42,0,-1,17.9,5,24760,343,7.4,3.9
2019,8,1,11:20,UTC,0,1014.2,40,0,-1,18.5,4.6,41570,320,7.5,4.1
2019,8,1,11:30,UTC,0,1014.3,47,0,-1,17.7,6.1,34180,343,6.7,3.5
2019,8,1,11:40,UTC,1,1014.2,44,0,-1,18.1,5.6,38930,342,5.2,2.7
2019,8,1,11:50,UTC,1,1014.1,40,0,-1,18.4,4.6,37940,335,7.3,4.2
2019,8,1,12:00,UTC,1,1014,42,0,-1,18.6,5.5,35530,337,4.8,2.4
2019,8,1,12:10,UTC,3,1014.1,44,0,-1,18,5.5,44440,9,5.9,2.4
2019,8,1,12:20,UTC,1,1014,47,0,-1,17.5,6,23530,2,5.6,3.8
2019,8,1,12:30,UTC,1,1014,43,0,-1,17.8,5.1,40040,332,6.6,4.6
2019,8,1,12:40,UTC,1,1013.9,48,0,-1,17.4,6.1,36630,337,5.4,3.5
2019,8,1,12:50,UTC,1,1013.8,46,0,-1,18.2,6.5,37970,335,5.8,2.4
2019,8,1,13:00,UTC,1,1013.8,47,0,-1,17.8,6.3,50000,5,6.6,3.4
2019,8,1,13:10,UTC,1,1013.8,43,0,-1,18.1,5.4,40870,355,6.2,3.2
2019,8,1,13:20,UTC,0,1013.7,43,0,-1,17.9,5,50000,38,4.6,2.4
2019,8,1,13:30,UTC,0,1013.6,42,0,-1,18,4.8,36050,31,3.9,1.9
2019,8,1,13:40,UTC,0,1013.6,41,0,-1,18.4,4.8,44120,15,5.8,2.7
2019,8,1,13:50,UTC,1,1013.6,40,0,-1,17.7,3.8,38170,356,4.7,2.2
2019,8,1,14:00,UTC,3,1013.7,49,0,-1,18.3,7.4,39940,132,4,1.9
2019,8,1,14:10,UTC,1,1013.7,57,0,-1,16.6,8,39430,106,4.7,2.3
2019,8,1,14:20,UTC,3,1013.5,53,0,-1,17.2,7.6,37920,201,5.4,3.1
2019,8,1,14:30,UTC,1,1013.5,52,0,-1,17.3,7.4,29090,188,6.4,3.9
2019,8,1,14:40,UTC,3,1013.5,52,0,-1,17.3,7.3,39360,154,3.7,1.9
2019,8,1,14:50,UTC,5,1013.5,53,0,-1,17.5,7.9,41230,190,4.6,3
2019,8,1,15:00,UTC,7,1013.5,52,0,-1,17.2,7.3,37020,179,4.3,2.6
2019,8,1,15:10,UTC,7,1013.4,54,0,-1,17.1,7.6,37460,203,3.9,2.5
2019,8,1,15:20,UTC,7,1013.4,55,0,-1,16.8,7.7,42940,195,3.9,1.8
2019,8,1,15:30,UTC,7,1013.5,54,0,-1,17,7.7,46350,171,4.9,2.5
2019,8,1,15:40,UTC,7,1013.5,55,0,-1,16.8,7.6,44110,152,3.9,2.2
2019,8,1,15:50,UTC,7,1013.4,55,0,-1,16.4,7.3,45470,131,4.5,2.6
2019,8,1,16:00,UTC,7,1013.4,56,0,-1,16.4,7.6,46510,131,3.6,2.5
2019,8,1,16:10,UTC,7,1013.3,55,0,-1,16.3,7.3,40840,130,3.4,2
2019,8,1,16:20,UTC,7,1013.4,56,0,-1,16.2,7.4,50000,134,2.4,1.4
2019,8,1,16:30,UTC,7,1013.4,57,0,-1,16.1,7.6,45500,146,2.8,1.9
2019,8,1,16:40,UTC,7,1013.4,59,0,-1,16.1,8,40860,128,3.5,2.2
2019,8,1,16:50,UTC,7,1013.4,57,0,-1,16,7.4,38680,105,3.3,1.6
2019,8,1,17:00,UTC,8,1013.4,50,0,-1,16.1,5.6,50000,24,5.4,2.3
2019,8,1,17:10,UTC,7,1013.4,50,0,-1,16.1,5.6,45090,41,6.7,3.7
2019,8,1,17:20,UTC,7,1013.4,51,0,-1,16.1,5.9,45170,20,7.3,4
2019,8,1,17:30,UTC,7,1013.4,51,0,-1,15.9,5.7,50000,3,6.8,4.1
2019,8,1,17:40,UTC,8,1013.4,51,0,-1,15.7,5.6,45620,14,6.6,4.3
2019,8,1,17:50,UTC,8,1013.4,51,0,-1,15.6,5.5,45540,23,6.7,4.3
2019,8,1,18:00,UTC,8,1013.5,51,0,-1,15.4,5.4,50000,47,6.4,4
2019,8,1,18:10,UTC,8,1013.5,51,0,-1,15.2,5.1,34660,38,6.2,3.7
2019,8,1,18:20,UTC,7,1013.5,52,0,-1,14.9,5.1,50000,33,6.1,3.5
2019,8,1,18:30,UTC,7,1013.5,53,0,-1,14.8,5.3,47390,32,6.1,4
2019,8,1,18:40,UTC,7,1013.5,54,0,-1,14.6,5.3,49720,22,5.8,3.1
2019,8,1,18:50,UTC,7,1013.4,54,0,-1,14.4,5.1,50000,17,5,2.9
2019,8,1,19:00,UTC,7,1013.5,54,0,-1,14.3,5.1,47200,19,4.5,2.7
2019,8,1,19:10,UTC,7,1013.5,54,0,-1,14.3,5.2,50000,9,3.5,2
2019,8,1,19:20,UTC,5,1013.4,54,0,-1,14.1,5,45790,7,3.6,2
2019,8,1,19:30,UTC,3,1013.4,56,0,-1,13.6,5.1,49780,10,4.1,2
2019,8,1,19:40,UTC,1,1013.3,57,0,-1,13.4,5.1,40980,360,3.2,1.9
2019,8,1,19:50,UTC,0,1013.3,59,0,-1,13.1,5.2,50000,9,3.5,2.2
2019,8,1,20:00,UTC,0,1013.3,59,0,-1,13,5.2,50000,1,3,1.8
2019,8,1,20:10,UTC,0,1013.3,60,0,-1,12.9,5.2,50000,351,3.2,1.6
2019,8,1,20:20,UTC,0,1013.2,62,0,-1,12.7,5.6,50000,335,2.1,1.4
2019,8,1,20:30,UTC,0,1013.2,61,0,-1,12.5,5,41260,334,2.2,1.8
2019,8,1,20:40,UTC,1,1013.2,62,0,-1,12.2,5.2,50000,331,2.6,1.6
2019,8,1,20:50,UTC,1,1013.2,63,0,-1,12,5.1,46760,333,2,1.5
2019,8,1,21:00,UTC,1,1013,66,0,-1,11.9,5.8,43340,335,2.8,1.9
2019,8,1,21:10,UTC,3,1013,65,0,-1,11.9,5.6,49470,314,2.7,2.1
2019,8,1,21:20,UTC,5,1013.1,65,0,-1,12.1,5.9,48580,327,3.7,2.7
2019,8,1,21:30,UTC,7,1013.1,66,0,-1,12.3,6.1,50000,330,3.2,2.2
2019,8,1,21:40,UTC,8,1013,64,0,-1,12.3,5.7,48950,335,3.2,2.4
2019,8,1,21:50,UTC,7,1012.9,65,0,-1,12.4,6,45000,332,2.8,2.2
2019,8,1,22:00,UTC,7,1012.9,64,0,-1,12.4,5.8,46780,330,3.8,2.7
2019,8,1,22:10,UTC,7,1012.9,65,0,-1,12.5,6.1,45620,340,3.1,2.4
2019,8,1,22:20,UTC,7,1012.9,63,0,-1,12.8,5.9,47310,344,3,2.3
2019,8,1,22:30,UTC,8,1012.9,63,0,-1,12.9,5.9,50000,345,3.7,2.7
2019,8,1,22:40,UTC,7,1012.9,60,0,-1,13.2,5.7,43560,339,4.2,2.5
2019,8,1,22:50,UTC,7,1012.8,60,0,-1,13.2,5.7,50000,342,4.1,2.9
2019,8,1,23:00,UTC,7,1012.9,62,0,-1,13.2,6.1,50000,339,4.9,3
2019,8,1,23:10,UTC,7,1012.9,61,0,-1,13.2,5.8,50000,337,4.4,2.7
2019,8,1,23:20,UTC,7,1012.9,60,0,-1,13.2,5.7,50000,336,4.8,2.8
2019,8,1,23:30,UTC,8,1012.8,61,0,-1,13.3,5.9,45880,330,4.8,3
2019,8,1,23:40,UTC,8,1012.8,61,0,-1,13.2,5.7,49500,336,4.4,2.9
2019,8,1,23:50,UTC,7,1012.8,62,0,-1,13.1,5.9,50000,341,5,3.2
2019,8,2,00:00,UTC,7,1012.8,63,0,-1,12.9,6.1,50000,341,4.3,3.1
2019,8,2,00:10,UTC,7,1012.8,63,0,-1,12.9,6,50000,342,4.7,2.9
2019,8,2,00:20,UTC,7,1012.8,61,0,-1,12.9,5.6,50000,339,4.7,3.1
2019,8,2,00:30,UTC,7,1012.7,64,0,-1,12.8,6.2,50000,343,4.6,2.8
2019,8,2,00:40,UTC,8,1012.6,62,0,-1,13,5.9,50000,340,5.2,3
2019,8,2,00:50,UTC,7,1012.6,63,0,-1,13,6,48750,342,4.8,3.2
2019,8,2,01:00,UTC,7,1012.5,64,0,-1,12.7,6.1,44970,344,4.9,3.1
2019,8,2,01:10,UTC,3,1012.6,64,0,-1,12.4,5.7,50000,340,4.3,2.8
2019,8,2,01:20,UTC,5,1012.5,64,0,-1,12.4,5.8,50000,342,4.6,3.3
2019,8,2,01:30,UTC,1,1012.5,65,0,-1,12.2,5.8,45900,343,4.6,3.5
2019,8,2,01:40,UTC,1,1012.5,63,0,-1,12.2,5.4,49300,343,5,3.6
2019,8,2,01:50,UTC,0,1012.4,65,0,-1,12.1,5.6,50000,341,4.6,2.9
2019,8,2,02:00,UTC,0,1012.4,65,0,-1,11.9,5.4,50000,337,4.3,2.3
2019,8,2,02:10,UTC,0,1012.3,67,0,-1,11.7,5.7,50000,331,3.1,1.8
2019,8,2,02:20,UTC,0,1012.2,69,0,-1,11.2,5.8,47640,324,3.7,2.6
2019,8,2,02:30,UTC,0,1012.1,68,0,-1,11.3,5.6,43480,335,4.4,3.1
2019,8,2,02:40,UTC,0,1012.2,66,0,-1,11.5,5.5,50000,333,3.8,2.8
2019,8,2,02:50,UTC,3,1012.2,67,0,-1,11.5,5.5,44740,329,4.5,3.3
2019,8,2,03:00,UTC,5,1012,67,0,-1,11.5,5.6,49460,330,4.6,3.4
2019,8,2,03:10,UTC,7,1011.9,68,0,-1,11.7,5.9,48870,326,3.7,2.4
2019,8,2,03:20,UTC,7,1011.8,67,0,-1,11.9,6,49010,317,3.8,2.1
2019,8,2,03:30,UTC,7,1011.8,61,0,-1,12.6,5.3,50000,317,3.9,2.2
2019,8,2,03:40,UTC,5,1011.7,61,0,-1,12.7,5.4,46330,318,5.7,3.4
2019,8,2,03:50,UTC,5,1011.7,63,0,-1,12.6,5.7,50000,317,5.8,3.8
2019,8,2,04:00,UTC,7,1011.6,63,0,-1,12.6,5.8,49230,323,4.4,2.6
2019,8,2,04:10,UTC,7,1011.6,64,0,-1,12.6,6,45340,325,4.2,2.9
2019,8,2,04:20,UTC,7,1011.5,64,0,-1,12.8,6.1,43570,322,4.9,2.6
2019,8,2,04:30,UTC,7,1011.5,65,0,-1,12.9,6.5,43540,333,3.7,2.5
2019,8,2,04:40,UTC,7,1011.5,66,0,-1,13,6.9,38620,330,3.3,1.8
2019,8,2,04:50,UTC,7,1011.4,65,0,-1,13.2,6.8,41450,322,4,2.1
2019,8,2,05:00,UTC,7,1011.4,65,0,-1,13.3,7,35710,328,3.8,2.2
2019,8,2,05:10,UTC,7,1011.3,63,0,-1,13.7,6.8,42340,318,4.2,2.8
2019,8,2,05:20,UTC,7,1011.2,63,0,-1,13.9,7,40530,320,4.9,3.2
2019,8,2,05:30,UTC,7,1011.2,63,0,-1,14.2,7.2,35460,324,4.8,2.4
2019,8,2,05:40,UTC,7,1011,62,0,-1,14.7,7.5,36110,316,4.3,2.8
2019,8,2,05:50,UTC,7,1011,60,0,-1,15.4,7.8,30340,318,4.7,2.9
2019,8,2,06:00,UTC,7,1010.9,60,0,-1,15.7,7.9,29470,321,4.2,2.6
2019,8,2,06:10,UTC,7,1010.8,60,0,-1,15.8,8.1,38960,313,4.6,3.2
2019,8,2,06:20,UTC,7,1010.8,57,0,-1,17.1,8.6,37200,328,5.7,3.7
2019,8,2,06:30,UTC,3,1010.7,60,0,-1,16.7,8.9,36490,325,4.9,3.4
2019,8,2,06:40,UTC,1,1010.6,58,0,-1,17.3,8.9,36910,316,6,3.7
2019,8,2,06:50,UTC,1,1010.6,55,0,-1,17.8,8.7,30610,327,5,3
2019,8,2,07:00,UTC,0,1010.6,54,0,-1,18,8.4,29440,323,6.5,3.9
2019,8,2,07:10,UTC,0,1010.5,54,0,-1,17.6,8.1,37320,333,5.9,4
2019,8,2,07:20,UTC,0,1010.5,52,0,-1,18.7,8.7,30740,341,6,4.1
2019,8,2,07:30,UTC,0,1010.4,53,0,-1,18.6,8.8,36890,336,7.4,4.3
2019,8,2,07:40,UTC,0,1010.4,52,0,-1,18.7,8.8,39020,337,6.6,3.9
2019,8,2,07:50,UTC,0,1010.4,52,0,-1,18.7,8.5,37490,323,8,4.9
2019,8,2,08:00,UTC,0,1010.3,53,0,-1,19.1,9.2,34120,317,6.1,3.7
2019,8,2,08:10,UTC,0,1010.3,47,0,-1,19.3,7.7,37860,317,7.2,3.6
2019,8,2,08:20,UTC,0,1010.3,44,0,-1,19.4,6.9,38920,316,9.2,5.8
2019,8,2,08:30,UTC,0,1010.2,44,0,-1,19.6,6.9,38530,309,8.4,5.5
2019,8,2,08:40,UTC,0,1010.2,46,0,-1,20.1,8,36560,318,8.1,5.4
2019,8,2,08:50,UTC,1,1010.2,46,0,-1,20.3,8.4,36320,327,7.9,5.2
2019,8,2,09:00,UTC,1,1010.1,45,0,-1,21,8.5,32010,332,7.4,4.2
2019,8,2,09:10,UTC,1,1010.1,47,0,-1,20.3,8.5,37130,325,9,4.5
2019,8,2,09:20,UTC,3,1010.1,47,0,-1,20.4,8.8,32750,332,8.3,5.8
2019,8,2,09:30,UTC,3,1010.2,48,0,-1,20.5,9,38900,343,7.7,4.4
2019,8,2,09:40,UTC,3,1010.1,45,0,-1,20.9,8.6,37880,352,6.3,4
2019,8,2,09:50,UTC,5,1010.2,46,0,-1,19.6,7.7,34240,331,9.2,5.4
2019,8,2,10:00,UTC,5,1010.2,47,0,-1,19.4,7.6,43460,346,8.2,5.1
2019,8,2,10:10,UTC,3,1010.2,45,0,-1,20.3,7.9,36150,347,6.8,4.2
2019,8,2,10:20,UTC,5,1010.3,46,0,-1,19.9,8,43480,339,8.9,5.9
2019,8,2,10:30,UTC,1,1010.2,42,0,-1,20.5,7.1,44970,340,7.5,5
2019,8,2,10:40,UTC,5,1010.3,44,0,-1,19.7,7.3,36730,331,9.5,5.7
2019,8,2,10:50,UTC,5,1010.3,44,0,-1,20.3,7.5,39340,328,10,6.1
2019,8,2,11:00,UTC,5,1010.4,44,0,-1,20.3,7.8,38130,342,11.5,6.1
2019,8,2,11:10,UTC,3,1010.4,44,0,-1,19.8,7.1,39890,334,10.2,6.2
2019,8,2,11:20,UTC,1,1010.5,41,0,-1,20.7,6.9,40040,340,10.9,4.6
2019,8,2,11:30,UTC,1,1010.5,40,0,-1,20.1,6.1,47150,358,8.2,4.8
2019,8,2,11:40,UTC,1,1010.5,41,0,-1,20.3,6.5,35470,357,8.8,5.6
2019,8,2,11:50,UTC,1,1010.6,43,0,-1,19.8,7,39010,6,9.1,6.1
2019,8,2,12:00,UTC,1,1010.7,44,0,-1,19.8,7.3,38860,14,9.2,5.7
2019,8,2,12:10,UTC,1,1010.8,40,0,-1,19.9,5.9,36230,7,9.5,5.6
2019,8,2,12:20,UTC,1,1011,40,0,-1,19.8,5.9,33820,4,9.5,5.3
2019,8,2,12:30,UTC,1,1010.9,41,0,-1,19.6,6.1,45160,1,10.2,5.5
2019,8,2,12:40,UTC,1,1011,42,0,-1,19.4,6.2,31820,7,9.2,5.2
2019,8,2,12:50,UTC,1,1011,42,0,-1,19.3,5.9,47470,12,10.5,5.8
2019,8,2,13:00,UTC,1,1011,40,0,-1,18.9,5,43870,30,9.9,5.8
2019,8,2,13:10,UTC,0,1010.9,39,0,-1,19,4.8,39250,8,9.7,5.7
2019,8,2,13:20,UTC,0,1010.9,42,0,-1,19.2,5.9,46960,17,10.3,5.5
2019,8,2,13:30,UTC,0,1010.9,40,0,-1,19.2,5.2,46690,15,9.6,4.9
2019,8,2,13:40,UTC,0,1010.9,41,0,-1,19.1,5.7,50000,22,9.3,5.2
2019,8,2,13:50,UTC,0,1010.8,40,0,-1,19.5,5.6,46080,24,7.8,4.7
2019,8,2,14:00,UTC,1,1010.8,40,0,-1,19.3,5.3,40480,352,9.6,5.5
2019,8,2,14:10,UTC,3,1010.8,40,0,-1,19.3,5.5,42180,34,9,4.7
2019,8,2,14:20,UTC,3,1010.9,40,0,-1,19.3,5.3,36830,7,8.3,4
2019,8,2,14:30,UTC,5,1010.9,42,0,-1,18.7,5.6,40810,26,9.4,4
2019,8,2,14:40,UTC,1,1010.9,41,0,-1,18.8,5.1,50000,23,8.2,4.5
2019,8,2,14:50,UTC,5,1011,42,0,-1,18.9,5.8,37690,23,8.7,5.2
2019,8,2,15:00,UTC,3,1010.8,43,0,-1,19,6.2,46210,17,7.8,4.1
2019,8,2,15:10,UTC,5,1010.9,42,0,-1,18.6,5.3,50000,18,6.9,4.1
2019,8,2,15:20,UTC,3,1010.9,42,0,-1,18.7,5.7,50000,13,8.7,4.3
2019,8,2,15:30,UTC,1,1010.9,43,0,-1,18.5,5.6,48370,23,7.6,4
2019,8,2,15:40,UTC,3,1011,42,0,-1,18.3,5.2,,17,9.7,4.8
2019,8,2,15:50,UTC,1,1011,43,0,-1,17.9,5.2,45130,22,9.3,5
2019,8,2,16:00,UTC,1,1011,44,0,-1,18.1,5.5,50000,34,8,4.2
2019,8,2,16:10,UTC,1,1011.1,43,0,-1,17.9,5.1,50000,22,8.6,5
2019,8,2,16:20,UTC,1,1011.2,43,0,-1,17.6,4.8,50000,25,9.2,4.7
2019,8,2,16:30,UTC,1,1011.2,43,0,-1,17.4,4.8,50000,24,9.1,5.1
2019,8,2,16:40,UTC,1,1011.3,44,0,-1,17.2,4.7,50000,24,9.1,5.3
2019,8,2,16:50,UTC,1,1011.2,44,0,-1,17.1,4.6,49100,26,8.5,4.8
2019,8,2,17:00,UTC,1,1011.3,45,0,-1,17,5,47300,34,7.3,4.3
2019,8,2,17:10,UTC,1,1011.5,45,0,-1,16.6,4.7,50000,32,8.2,5.5
2019,8,2,17:20,UTC,3,1011.5,45,0,-1,16.3,4.4,48880,31,7.8,4.9
2019,8,2,17:30,UTC,5,1011.6,46,0,-1,16.5,4.9,50000,23,7.9,4.7
2019,8,2,17:40,UTC,7,1011.6,46,0,-1,16.3,4.5,50000,34,8.7,5.6
2019,8,2,17:50,UTC,7,1011.6,45,0,-1,16,4,50000,24,8.6,5.6
2019,8,2,18:00,UTC,7,1011.6,44,0,-1,15.9,3.7,50000,27,7.3,4.7
2019,8,2,18:10,UTC,8,1011.6,43,0,-1,15.9,3.4,50000,17,8.8,5.1
2019,8,2,18:20,UTC,7,1011.6,43,0,-1,15.7,3.1,50000,28,7.5,4.8
2019,8,2,18:30,UTC,7,1011.6,44,0,-1,15.5,3.3,50000,27,7.1,4.1
2019,8,2,18:40,UTC,3,1011.6,45,0,-1,15,3.2,50000,21,7.9,3.6
2019,8,2,18:50,UTC,1,1011.5,47,0,-1,14.8,3.4,50000,11,5.8,3.6
2019,8,2,19:00,UTC,3,1011.6,47,0,-1,14.6,3.4,50000,18,6.5,3.1
2019,8,2,19:10,UTC,3,1011.6,46,0,-1,14.6,3.1,50000,13,5.5,3
2019,8,2,19:20,UTC,5,1011.6,46,0,-1,14.9,3.3,50000,13,5.1,3.4
2019,8,2,19:30,UTC,3,1011.6,48,0,-1,14.4,3.6,46740,6,6.4,3.4
2019,8,2,19:40,UTC,1,1011.6,50,0,-1,14.1,3.8,50000,10,4.1,2.6
2019,8,2,19:50,UTC,1,1011.6,51,0,-1,13.7,3.7,50000,4,4.5,2.3
2019,8,2,20:00,UTC,1,1011.6,52,0,-1,13.6,3.9,50000,357,3.9,2.2
2019,8,2,20:10,UTC,1,1011.6,51,0,-1,13.8,3.9,30490,10,3.6,2.2
2019,8,2,20:20,UTC,3,1011.6,54,0,-1,13.4,4.2,50000,23,4.5,2.8
2019,8,2,20:30,UTC,5,1011.6,53,0,-1,13.7,4.3,50000,30,4.9,2.7
2019,8,2,20:40,UTC,3,1011.7,54,0,-1,13.7,4.6,50000,24,5.2,2.5
2019,8,2,20:50,UTC,5,1011.7,54,0,-1,13.7,4.6,23770,8,3.8,1.9
2019,8,2,21:00,UTC,1,1011.7,57,0,-1,13.2,4.8,50000,4,3,1.7
2019,8,2,21:10,UTC,1,1011.7,57,0,-1,13.2,4.9,50000,3,3.1,1.9
2019,8,2,21:20,UTC,0,1011.7,57,0,-1,13,4.7,50000,11,3.3,2
2019,8,2,21:30,UTC,0,1011.8,57,0,-1,13,4.7,50000,11,3.2,1.5
2019,8,2,21:40,UTC,0,1011.8,58,0,-1,12.9,4.9,50000,7,3,1.6
2019,8,2,21:50,UTC,0,1011.8,60,0,-1,12.5,4.9,50000,356,2.8,2
2019,8,2,22:00,UTC,0,1011.9,60,0,-1,12.3,4.8,50000,332,2.8,2.1
2019,8,2,22:10,UTC,0,1011.8,64,0,-1,11.7,5.1,49010,336,2.8,2.2
2019,8,2,22:20,UTC,0,1011.8,64,0,-1,11.4,4.9,50000,340,3.2,2.3
2019,8,2,22:30,UTC,0,1011.8,65,0,-1,11.6,5.1,50000,347,4.1,2.8
2019,8,2,22:40,UTC,0,1011.9,63,0,-1,12,5.3,50000,355,4.1,2.7
2019,8,2,22:50,UTC,0,1011.9,64,0,-1,12.1,5.4,50000,359,4.3,2.3
2019,8,2,23:00,UTC,0,1011.8,63,0,-1,12.2,5.4,50000,3,4,2.3
2019,8,2,23:10,UTC,0,1011.8,65,0,-1,11.9,5.6,50000,2,4.6,2.2
2019,8,2,23:20,UTC,0,1011.8,66,0,-1,11.8,5.6,50000,4,4.9,2.7
2019,8,2,23:30,UTC,0,1011.8,67,0,-1,11.8,5.8,50000,5,4.9,2.9
2019,8,2,23:40,UTC,0,1011.7,67,0,-1,11.8,5.8,50000,5,5.4,2.5
2019,8,2,23:50,UTC,0,1011.7,68,0,-1,11.6,5.8,50000,7,4.3,2.6
2019,8,3,00:00,UTC,0,1011.6,68,0,-1,11.5,5.9,50000,2,4.4,2.4
2019,8,3,00:10,UTC,0,1011.7,70,0,-1,11.3,5.9,50000,1,3.8,2.2
2019,8,3,00:20,UTC,0,1011.7,70,0,-1,11.3,6,50000,2,4.4,2.6
2019,8,3,00:30,UTC,0,1011.7,71,0,-1,11.2,6,50000,10,5.1,2.9
2019,8,3,00:40,UTC,0,1011.6,71,0,-1,11.2,6.2,50000,13,6.5,3
2019,8,3,00:50,UTC,0,1011.6,71,0,-1,11.1,6.1,50000,18,4.9,2.8
2019,8,3,01:00,UTC,0,1011.5,72,0,-1,11.2,6.3,50000,14,5.5,3.1
2019,8,3,01:10,UTC,0,1011.5,72,0,-1,11,6.2,48180,12,5.7,3.3
2019,8,3,01:20,UTC,0,1011.6,74,0,-1,10.7,6.3,50000,3,4.5,2
2019,8,3,01:30,UTC,0,1011.6,75,0,-1,10.6,6.3,50000,356,4.1,2.3
2019,8,3,01:40,UTC,0,1011.6,76,0,-1,10.2,6.1,50000,354,3.5,2.3
2019,8,3,01:50,UTC,0,1011.6,76,0,-1,10.1,6.1,50000,352,4.1,2.6
2019,8,3,02:00,UTC,0,1011.6,77,0,-1,9.8,6.1,50000,350,4.5,3
2019,8,3,02:10,UTC,0,1011.7,77,0,-1,9.8,6.1,50000,353,5.3,3.3
2019,8,3,02:20,UTC,0,1011.7,77,0,-1,9.9,6.1,50000,350,5.1,3.1
2019,8,3,02:30,UTC,0,1011.7,78,0,-1,9.8,6.2,50000,351,5,2.9
2019,8,3,02:40,UTC,0,1011.8,78,0,-1,9.8,6.2,50000,353,4.4,3
2019,8,3,02:50,UTC,0,1011.8,77,0,-1,10,6.2,50000,358,4.2,2.8
2019,8,3,03:00,UTC,0,1011.8,78,0,-1,9.9,6.3,49750,357,5.3,2.7
2019,8,3,03:10,UTC,0,1011.8,77,0,-1,10.2,6.4,50000,2,4.8,2.8
2019,8,3,03:20,UTC,0,1011.9,77,0,-1,10.4,6.5,50000,359,4.5,2.5
2019,8,3,03:30,UTC,0,1011.9,76,0,-1,10.5,6.5,50000,355,3.9,2.4
2019,8,3,03:40,UTC,0,1011.9,76,0,-1,10.6,6.6,50000,360,4.8,2.9
2019,8,3,03:50,UTC,0,1011.9,75,0,-1,10.8,6.6,50000,3,4.6,2.6
2019,8,3,04:00,UTC,0,1012,74,0,-1,11.1,6.6,50000,358,5,2.8
2019,8,3,04:10,UTC,0,1012,72,0,-1,11.5,6.6,50000,2,5.2,3.3
2019,8,3,04:20,UTC,0,1012,73,0,-1,11.2,6.5,50000,360,4.9,2.9
2019,8,3,04:30,UTC,0,1012,75,0,-1,11,6.6,50000,5,5,3.3
2019,8,3,04:40,UTC,3,1011.9,73,0,-1,11.6,6.9,50000,3,5.4,2.8
2019,8,3,04:50,UTC,3,1011.9,72,0,-1,11.9,7.1,49530,5,5.2,3.1
2019,8,3,05:00,UTC,5,1011.9,71,0,-1,12.6,7.4,50000,12,4.7,3.1
2019,8,3,05:10,UTC,3,1012,71,0,-1,12.3,7.1,50000,14,5.1,3.2
2019,8,3,05:20,UTC,1,1011.9,69,0,-1,13.1,7.6,50000,16,5.9,3.6
2019,8,3,05:30,UTC,1,1012,68,0,-1,13.1,7.3,50000,19,5.4,3
2019,8,3,05:40,UTC,1,1012,69,0,-1,13.2,7.6,49680,17,5.1,3.1
2019,8,3,05:50,UTC,1,1012,66,0,-1,13.6,7.5,50000,2,7,3.1
2019,8,3,06:00,UTC,1,1012,68,0,-1,13.7,7.9,44030,9,6.8,3.8
2019,8,3,06:10,UTC,1,1012,67,0,-1,14.3,8.2,47720,15,5.8,3.4
2019,8,3,06:20,UTC,0,1011.9,65,0,-1,14.4,7.9,43620,27,5.6,3.5
2019,8,3,06:30,UTC,0,1011.9,65,0,-1,14.9,8.2,42390,9,5.9,3.8
2019,8,3,06:40,UTC,0,1011.8,62,0,-1,15.4,8.2,47320,15,6.5,3.6
2019,8,3,06:50,UTC,1,1011.9,60,0,-1,15,7.4,50000,10,7.2,4.8
2019,8,3,07:00,UTC,1,1011.8,58,0,-1,15,6.8,45850,16,6.3,2.9
2019,8,3,07:10,UTC,3,1011.8,54,0,-1,15.5,6.2,42250,38,6.4,4.1
2019,8,3,07:20,UTC,3,1011.8,54,0,-1,15.2,6,49880,17,7.2,3.7
2019,8,3,07:30,UTC,3,1011.9,55,0,-1,16,6.9,44740,34,6.8,4.3
2019,8,3,07:40,UTC,5,1011.9,52,0,-1,16,6.2,44780,45,6.8,4
2019,8,3,07:50,UTC,5,1011.9,55,0,-1,15.7,6.5,46890,20,6,3.7
2019,8,3,08:00,UTC,7,1011.9,57,0,-1,15.6,7,50000,333,6.4,3.9
2019,8,3,08:10,UTC,7,1011.9,57,0,-1,15,6.6,50000,339,7.6,4.9
2019,8,3,08:20,UTC,7,1011.9,59,0,-1,14.7,6.8,50000,341,7.4,4.2
2019,8,3,08:30,UTC,7,1012,59,0,-1,14.8,6.8,50000,353,6.5,3.5
2019,8,3,08:40,UTC,7,1012,60,0,-1,14.9,7.3,47130,5,6.5,3.9
2019,8,3,08:50,UTC,7,1012,58,0,-1,15,6.7,45370,351,5.7,3.3
2019,8,3,09:00,UTC,5,1011.9,54,0,-1,16.5,7.1,40950,358,4.7,2.7
2019,8,3,09:10,UTC,5,1011.8,52,0,-1,15.9,6.1,39760,24,5.4,2.8
2019,8,3,09:20,UTC,5,1011.8,52,0,-1,16.3,6.5,49460,33,7.4,3.3
2019,8,3,09:30,UTC,7,1011.8,56,0,-1,15.4,6.7,50000,358,6,4
2019,8,3,09:40,UTC,7,1011.8,52,0,-1,15.3,5.5,50000,352,8.2,3.9
2019,8,3,09:50,UTC,5,1011.8,49,0,-1,16.6,5.9,48680,36,6.3,3.6
2019,8,3,10:00,UTC,5,1011.8,47,0,-1,17,5.6,42370,26,7.6,4.3
2019,8,3,10:10,UTC,5,1011.7,47,0,-1,16.6,5.2,46700,53,6.9,4.5
2019,8,3,10:20,UTC,3,1011.6,48,0,-1,17.4,6.4,36660,46,6.4,4.2
2019,8,3,10:30,UTC,5,1011.6,45,0,-1,17.9,5.8,46670,31,5.5,3.2
2019,8,3,10:40,UTC,5,1011.6,48,0,-1,17.3,6.2,41020,337,7.2,4.8
2019,8,3,10:50,UTC,7,1011.7,44,0,-1,16.8,4.5,43410,17,7.7,4.1
2019,8,3,11:00,UTC,7,1011.7,44,0,-1,16.5,4.1,49150,33,8.3,4.2
2019,8,3,11:10,UTC,7,1011.7,46,0,-1,16.6,4.8,48170,353,8,3.2
2019,8,3,11:20,UTC,7,1011.5,43,0,-1,17.4,4.7,42380,350,8.1,4.2
2019,8,3,11:30,UTC,7,1011.5,41,0,-1,17.9,4.6,43580,11,5.9,2.9
2019,8,3,11:40,UTC,7,1011.6,44,0,-1,16.6,4.2,44390,4,8.9,4.8
2019,8,3,11:50,UTC,5,1011.5,40,0,-1,17.9,4.1,42940,353,8.8,5.3
2019,8,3,12:00,UTC,5,1011.4,41,0,-1,17.3,3.9,38050,30,7.4,3.3
2019,8,3,12:10,UTC,3,1011.4,38,0,-1,17.9,3.5,39170,358,7.5,4
2019,8,3,12:20,UTC,5,1011.4,40,0,-1,17.4,3.5,46240,1,7.8,4.6
2019,8,3,12:30,UTC,5,1011.4,42,0,-1,17.1,4.1,49510,14,9,5.4
2019,8,3,12:40,UTC,5,1011.3,39,0,-1,17.4,3.3,44390,21,7,4.3
2019,8,3,12:50,UTC,5,1011.3,40,0,-1,17.5,3.9,49980,328,7.8,4
2019,8,3,13:00,UTC,5,1011.3,40,0,-1,17.1,3.3,42520,346,8.4,5.5
2019,8,3,13:10,UTC,5,1011.3,41,0,-1,16.7,3.4,47650,349,7.9,4.9
2019,8,3,13:20,UTC,3,1011.3,42,0,-1,16.9,3.8,50000,339,6.9,4.5
2019,8,3,13:30,UTC,3,1011.3,42,0,-1,17.4,4.3,47670,354,9.3,4
2019,8,3,13:40,UTC,5,1011.4,43,0,-1,16.9,4.4,49710,355,7.9,5
2019,8,3,13:50,UTC,3,1011.3,45,0,-1,17.2,5.3,44750,359,7.2,3.1
2019,8,3,14:00,UTC,5,1011.4,42,0,-1,17.3,4.3,45210,338,8.3,5.2
2019,8,3,14:10,UTC,3,1011.4,44,0,-1,16.8,4.5,45340,342,7.9,4.7
2019,8,3,14:20,UTC,5,1011.5,43,0,-1,16.6,3.9,48640,352,7,4.4
2019,8,3,14:30,UTC,5,1011.5,44,0,-1,16.9,4.7,42120,346,7,4.1
2019,8,3,14:40,UTC,7,1011.5,43,0,-1,17.2,4.4,43120,337,8.8,5.6
2019,8,3,14:50,UTC,7,1011.5,45,0,-1,16.2,4.2,38740,355,9.1,4.2
2019,8,3,15:00,UTC,5,1011.5,47,0,-1,16.1,4.7,43990,5,7.9,4.9
2019,8,3,15:10,UTC,5,1011.5,46,0,-1,15.9,4.3,50000,21,7,4.4
2019,8,3,15:20,UTC,5,1011.5,44,0,-1,15.9,3.5,45550,360,7.4,3.9
2019,8,3,15:30,UTC,3,1011.5,45,0,-1,15.8,4,50000,24,7.9,4.3
2019,8,3,15:40,UTC,1,1011.4,45,0,-1,16,4,50000,360,7.2,4.6
2019,8,3,15:50,UTC,0,1011.5,46,0,-1,15.6,4.1,50000,360,7.9,4.3
2019,8,3,16:00,UTC,0,1011.4,44,0,-1,15.3,3.2,49580,19,6.6,4.2
2019,8,3,16:10,UTC,0,1011.4,44,0,-1,15.4,3.2,50000,351,7.7,4.7
2019,8,3,16:20,UTC,0,1011.4,45,0,-1,15.2,3.2,47270,351,8.8,4.8
2019,8,3,16:30,UTC,0,1011.3,46,0,-1,15.3,3.6,48740,344,7.8,4.6
2019,8,3,16:40,UTC,0,1011.3,45,0,-1,15.3,3.3,50000,341,8.4,5.2
2019,8,3,16:50,UTC,0,1011.3,44,0,-1,15,2.9,38150,359,6.9,4.4
2019,8,3,17:00,UTC,0,1011.3,45,0,-1,15,3,50000,14,6.9,3.9
2019,8,3,17:10,UTC,0,1011.4,44,0,-1,14.7,2.7,50000,359,6.2,3.8
2019,8,3,17:20,UTC,0,1011.3,45,0,-1,14.6,2.7,50000,30,6.2,4.1
2019,8,3,17:30,UTC,0,1011.3,48,0,-1,14.5,3.6,50000,12,7.9,3.7
2019,8,3,17:40,UTC,0,1011.4,47,0,-1,14.3,3.1,50000,355,5.9,3.8
2019,8,3,17:50,UTC,0,1011.3,48,0,-1,14.2,3.2,50000,343,5,3.2
2019,8,3,18:00,UTC,0,1011.3,48,0,-1,14,3.2,47320,345,5.6,3.5
2019,8,3,18:10,UTC,0,1011.3,48,0,-1,13.8,3.2,49260,1,5.7,3.2
2019,8,3,18:20,UTC,0,1011.4,50,0,-1,13.6,3.5,50000,358,5.5,2.8
2019,8,3,18:30,UTC,0,1011.4,50,0,-1,13.6,3.3,50000,358,5,2.8
2019,8,3,18:40,UTC,0,1011.4,52,0,-1,13.4,3.8,50000,1,4.6,2.8
2019,8,3,18:50,UTC,0,1011.5,51,0,-1,13.3,3.4,50000,3,4.5,2.9
2019,8,3,19:00,UTC,0,1011.5,52,0,-1,13,3.4,50000,8,4.8,3
2019,8,3,19:10,UTC,0,1011.5,53,0,-1,12.8,3.5,50000,9,4.7,3
2019,8,3,19:20,UTC,0,1011.5,54,0,-1,12.8,3.7,50000,12,3.9,2.2
2019,8,3,19:30,UTC,0,1011.5,54,0,-1,12.6,3.7,50000,12,3.7,2.1
2019,8,3,19:40,UTC,0,1011.6,56,0,-1,12.3,3.8,50000,15,3.6,2.1
2019,8,3,19:50,UTC,0,1011.6,56,0,-1,12.3,3.8,50000,4,3.2,2
2019,8,3,20:00,UTC,0,1011.5,58,0,-1,12,4,50000,353,2.7,1.8
2019,8,3,20:10,UTC,0,1011.5,59,0,-1,11.8,4,50000,7,2.9,1.6
2019,8,3,20:20,UTC,0,1011.5,59,0,-1,11.8,4.1,50000,11,2.9,1.9
2019,8,3,20:30,UTC,0,1011.5,58,0,-1,11.9,3.9,49110,14,3.6,2.3
2019,8,3,20:40,UTC,0,1011.5,60,0,-1,11.8,4.2,50000,9,3.6,2.3
2019,8,3,20:50,UTC,0,1011.5,60,0,-1,11.8,4.2,50000,5,3.2,2.1
2019,8,3,21:00,UTC,0,1011.5,61,0,-1,11.5,4.3,49320,349,3.5,2.1
2019,8,3,21:10,UTC,0,1011.6,62,0,-1,11.4,4.2,50000,2,3.6,2.1
2019,8,3,21:20,UTC,0,1011.6,63,0,-1,11.2,4.4,50000,352,2.9,2
2019,8,3,21:30,UTC,0,1011.6,64,0,-1,11,4.3,50000,351,2.8,2.2
2019,8,3,21:40,UTC,0,1011.6,64,0,-1,10.8,4.3,50000,6,2.7,2.1
2019,8,3,21:50,UTC,0,1011.6,65,0,-1,10.9,4.5,50000,9,3.9,2
2019,8,3,22:00,UTC,0,1011.7,65,0,-1,10.9,4.5,50000,355,3.6,2.2
2019,8,3,22:10,UTC,0,1011.6,66,0,-1,10.9,4.8,50000,4,3.4,2.2
2019,8,3,22:20,UTC,0,1011.6,66,0,-1,10.8,4.7,50000,5,3.8,2.2
2019,8,3,22:30,UTC,0,1011.6,66,0,-1,10.9,4.8,50000,360,3.4,1.9
2019,8,3,22:40,UTC,0,1011.6,67,0,-1,10.6,4.8,50000,357,3.7,2.4
2019,8,3,22:50,UTC,0,1011.7,68,0,-1,10.4,4.7,50000,360,3.6,2
2019,8,3,23:00,UTC,0,1011.7,68,0,-1,10.4,4.8,50000,354,4.2,2.4
2019,8,3,23:10,UTC,0,1011.7,69,0,-1,10.4,4.9,50000,5,3.9,2.4
2019,8,3,23:20,UTC,0,1011.8,70,0,-1,10.1,4.9,50000,5,3.8,2.1
2019,8,3,23:30,UTC,0,1011.7,71,0,-1,10,5.1,50000,4,3.6,2.1
2019,8,3,23:40,UTC,0,1011.7,72,0,-1,9.9,5.1,50000,8,3.7,2.3
2019,8,3,23:50,UTC,0,1011.7,73,0,-1,9.8,5.2,45980,14,3.8,2.5
2019,8,4,00:00,UTC,0,1011.8,74,0,-1,9.7,5.3,11320,16,4.4,2.8
2019,8,4,00:10,UTC,0,1011.7,74,0,-1,9.7,5.4,50000,16,4.9,3
2019,8,4,00:20,UTC,0,1011.7,74,0,-1,9.7,5.2,50000,18,6.3,3.1
2019,8,4,00:30,UTC,0,1011.7,73,0,-1,9.8,5.2,50000,22,5.2,3.1
2019,8,4,00:40,UTC,0,1011.8,74,0,-1,9.7,5.4,50000,24,4.7,3.1
2019,8,4,00:50,UTC,0,1011.8,75,0,-1,9.6,5.3,50000,12,4.9,3.1
2019,8,4,01:00,UTC,0,1011.8,76,0,-1,9.6,5.5,50000,6,5.1,2.9
2019,8,4,01:10,UTC,0,1011.9,74,0,-1,9.5,5.2,50000,3,4.4,2.7
2019,8,4,01:20,UTC,0,1011.9,75,0,-1,9.5,5.3,50000,353,3.6,2.5
2019,8,4,01:30,UTC,0,1011.8,75,0,-1,9.3,5.1,50000,352,3.9,2.9
2019,8,4,01:40,UTC,0,1011.9,76,0,-1,9.3,5.1,50000,352,4.3,3
2019,8,4,01:50,UTC,0,1011.8,77,0,-1,8.9,5.2,50000,2,5,2.8
2019,8,4,02:00,UTC,0,1011.9,78,0,-1,8.8,5.2,50000,8,4.9,3.2
2019,8,4,02:10,UTC,0,1011.9,78,0,-1,8.9,5.3,50000,5,4.5,2.9
2019,8,4,02:20,UTC,0,1011.8,79,0,-1,8.8,5.4,50000,7,3.9,2.7
2019,8,4,02:30,UTC,0,1011.8,79,0,-1,9.1,5.5,50000,12,3.9,2.6
2019,8,4,02:40,UTC,0,1011.8,78,0,-1,9.2,5.5,50000,2,4,2.7
2019,8,4,02:50,UTC,0,1011.8,78,0,-1,9.1,5.5,50000,359,3.6,2
2019,8,4,03:00,UTC,0,1011.8,79,0,-1,9.1,5.5,50000,356,3.9,2.1
2019,8,4,03:10,UTC,0,1011.8,78,0,-1,9.1,5.5,50000,357,3.3,1.9
2019,8,4,03:20,UTC,0,1011.8,80,0,-1,9,5.7,50000,354,2.9,1.3
2019,8,4,03:30,UTC,0,1011.9,79,0,-1,9.2,5.7,50000,346,2.7,1.5
2019,8,4,03:40,UTC,0,1011.8,78,0,-1,9.3,5.6,50000,344,4.3,2.5
2019,8,4,03:50,UTC,0,1011.8,79,0,-1,9.3,5.8,50000,348,4.6,2.8
2019,8,4,04:00,UTC,0,1011.8,78,0,-1,9.8,6,50000,356,5.5,2.8
2019,8,4,04:10,UTC,0,1011.8,76,0,-1,10.3,6.3,50000,353,4.3,2.6
2019,8,4,04:20,UTC,0,1011.8,74,0,-1,10.6,6.2,50000,350,3.9,2.5
2019,8,4,04:30,UTC,0,1011.8,73,0,-1,10.9,6.3,50000,353,3.8,2.4
2019,8,4,04:40,UTC,1,1011.7,74,0,-1,11.2,6.7,50000,358,3.2,1.9
2019,8,4,04:50,UTC,3,1011.8,72,0,-1,11.3,6.3,50000,6,3.1,1.8
2019,8,4,05:00,UTC,5,1011.7,74,0,-1,11.4,7,50000,6,3.7,2.4
2019,8,4,05:10,UTC,8,1011.8,72,0,-1,11.5,6.7,50000,19,4,2.2
2019,8,4,05:20,UTC,8,1011.8,72,0,-1,11.6,6.8,50000,24,5.2,3
2019,8,4,05:30,UTC,7,1011.9,72,0,-1,11.7,6.8,49130,7,4.8,3
2019,8,4,05:40,UTC,7,1011.9,76,0,-1,11.9,7.7,50000,8,4.4,2.7
2019,8,4,05:50,UTC,7,1011.9,73,0,-1,11.8,7.2,50000,12,3.9,2.2
2019,8,4,06:00,UTC,7,1011.9,72,0,-1,12,7.2,50000,21,4,2
2019,8,4,06:10,UTC,7,1011.9,72,0,-1,12.1,7.2,50000,16,4,2
2019,8,4,06:20,UTC,7,1011.8,72,0,-1,12.3,7.3,50000,2,4.4,2.7
2019,8,4,06:30,UTC,7,1011.7,71,0,-1,12.2,7.2,50000,2,4.4,2.4
2019,8,4,06:40,UTC,7,1011.7,68,0,-1,12.9,7.1,50000,10,4,2.4
2019,8,4,06:50,UTC,7,1011.6,67,0,-1,13.1,7.1,39110,338,4.2,2.7
2019,8,4,07:00,UTC,7,1011.6,66,0,-1,13.6,7.4,50000,333,5.7,3.1
2019,8,4,07:10,UTC,5,1011.5,63,0,-1,14.1,7.1,50000,346,6.1,3.3
2019,8,4,07:20,UTC,7,1011.5,61,0,-1,13.8,6.4,45620,356,5.1,2.9
2019,8,4,07:30,UTC,7,1011.5,61,0,-1,13.5,6.1,44060,350,5.7,3.7
2019,8,4,07:40,UTC,7,1011.4,59,0,-1,14.3,6.5,50000,15,5.7,3.2
2019,8,4,07:50,UTC,7,1011.5,56,0,-1,14.7,6,44360,9,5.6,3.3
2019,8,4,08:00,UTC,7,1011.5,59,0,-1,14.5,6.6,45560,4,5.7,3.6
2019,8,4,08:10,UTC,7,1011.4,58,0,-1,14.3,6.3,48430,360,6.1,3.3
2019,8,4,08:20,UTC,7,1011.5,63,0,-1,13.8,7,40070,347,5.6,3.3
2019,8,4,08:30,UTC,7,1011.4,64,0,-1,13.4,6.8,48220,17,6,4.1
2019,8,4,08:40,UTC,7,1011.3,61,0,-1,14.7,7.2,46490,3,4.8,3
2019,8,4,08:50,UTC,7,1011.2,56,0,-1,14.7,6.1,40830,341,4.6,2.8
2019,8,4,09:00,UTC,7,1011.1,58,0,-1,14.5,6.2,47130,336,6.3,3.4
2019,8,4,09:10,UTC,7,1011.2,58,0,-1,14.7,6.4,46180,342,7.6,4.4
2019,8,4,09:20,UTC,7,1011.1,52,0,-1,15.5,5.5,43290,341,7.4,4.5
2019,8,4,09:30,UTC,7,1011.1,52,0,-1,15.2,5.3,46780,344,6.4,3.4
2019,8,4,09:40,UTC,7,1011.2,53,0,-1,14.7,5.3,43870,343,9.1,4.8
2019,8,4,09:50,UTC,7,1011.1,53,0,-1,14.6,5.1,48370,337,7.4,5.1
2019,8,4,10:00,UTC,5,1011.1,50,0,-1,15.9,5.6,39840,355,5.6,3.5
2019,8,4,10:10,UTC,5,1011,45,0,-1,16.9,4.9,46160,349,7,3.7
2019,8,4,10:20,UTC,5,1011,50,0,-1,15.6,5.3,50000,355,7.6,4.3
2019,8,4,10:30,UTC,5,1011,46,0,-1,15.3,3.8,46590,348,6.5,4
2019,8,4,10:40,UTC,7,1010.9,47,0,-1,15.8,4.5,48170,319,6.5,3.8
2019,8,4,10:50,UTC,5,1010.9,45,0,-1,15.5,3.7,43250,341,6.4,4.1
2019,8,4,11:00,UTC,3,1010.9,43,0,-1,16,3.3,42840,352,6.4,3.5
2019,8,4,11:10,UTC,3,1010.8,43,0,-1,16,3.5,46650,334,7.2,3.6
2019,8,4,11:20,UTC,1,1010.7,39,0,-1,17.3,3.1,49160,328,7.4,4.4
2019,8,4,11:30,UTC,5,1010.7,41,0,-1,16.4,3,50000,331,8.9,4.3
2019,8,4,11:40,UTC,3,1010.6,41,0,-1,16.7,3.3,40110,330,8.2,4.2
2019,8,4,11:50,UTC,3,1010.5,38,0,-1,17.1,2.5,42440,309,7.5,3.9
2019,8,4,12:00,UTC,3,1010.5,42,0,-1,16.7,3.6,45310,326,7.3,3.6
2019,8,4,12:10,UTC,1,1010.4,40,0,-1,16.6,3,43660,310,7.9,4
2019,8,4,12:20,UTC,1,1010.3,40,0,-1,16.8,3.1,42960,323,8.3,5.3
2019,8,4,12:30,UTC,1,1010.2,39,0,-1,17.2,3.1,43750,305,7.8,3.7
2019,8,4,12:40,UTC,3,1010.1,41,0,-1,17.4,3.9,40890,312,6.9,2.9
2019,8,4,12:50,UTC,1,1009.9,40,0,-1,17.2,3.5,47890,315,9.9,4.7
2019,8,4,13:00,UTC,3,1009.9,40,0,-1,16.8,3,43630,328,8.3,5.6
2019,8,4,13:10,UTC,1,1009.7,38,0,-1,16.8,2.4,48760,346,7.4,4.2
2019,8,4,13:20,UTC,3,1009.5,41,0,-1,17.3,4.1,46870,336,5,3
2019,8,4,13:30,UTC,1,1009.6,39,0,-1,17.6,3.5,48480,328,7.9,4.2
2019,8,4,13:40,UTC,1,1009.5,39,0,-1,17.6,3.6,50000,318,8.3,5.5
2019,8,4,13:50,UTC,1,1009.4,39,0,-1,17.4,3.2,45680,329,7.2,4.2
2019,8,4,14:00,UTC,1,1009.3,40,0,-1,17.6,3.7,50000,333,6,3.7
2019,8,4,14:10,UTC,1,1009.2,39,0,-1,17.9,3.5,43280,332,8.8,5.4
2019,8,4,14:20,UTC,5,1009.1,38,0,-1,17.7,3.1,36880,326,7.8,5.2
2019,8,4,14:30,UTC,3,1009.1,36,0,-1,18,2.7,44340,314,8.3,5.2
2019,8,4,14:40,UTC,3,1009.1,36,0,-1,17.6,2.5,46140,347,6.9,4.3
2019,8,4,14:50,UTC,1,1009.1,39,0,-1,17.9,3.7,44750,344,6.6,3.7
2019,8,4,15:00,UTC,1,1009.1,39,0,-1,17.5,3.2,48130,333,8.5,5.7
2019,8,4,15:10,UTC,3,1009,39,0,-1,18.1,3.9,48800,342,8.3,3.9
2019,8,4,15:20,UTC,5,1009,41,0,-1,17.6,4.2,50000,1,5.7,3.6
2019,8,4,15:30,UTC,5,1008.9,39,0,-1,17.7,3.6,48730,333,7.5,4.6
2019,8,4,15:40,UTC,5,1008.9,38,0,-1,18,3.5,49480,340,9.1,5.5
2019,8,4,15:50,UTC,3,1008.9,39,0,-1,17.3,3.3,50000,349,9.5,5.1
2019,8,4,16:00,UTC,3,1008.8,37,0,-1,17.8,2.9,50000,341,9.7,4.4
2019,8,4,16:10,UTC,1,1008.7,38,0,-1,17.4,2.9,50000,320,8.5,5.6
2019,8,4,16:20,UTC,1,1008.7,38,0,-1,17.2,2.8,50000,330,8.4,5.4
2019,8,4,16:30,UTC,0,1008.7,38,0,-1,17.1,2.9,50000,333,7.5,4.7
2019,8,4,16:40,UTC,0,1008.7,41,0,-1,17.1,3.7,50000,337,8.4,4.4
2019,8,4,16:50,UTC,0,1008.7,38,0,-1,17,2.7,50000,334,8.8,5.8
2019,8,4,17:00,UTC,0,1008.6,38,0,-1,16.9,2.6,50000,332,7.3,5.2
2019,8,4,17:10,UTC,0,1008.5,40,0,-1,16.8,3,50000,340,7.7,5.1
2019,8,4,17:20,UTC,0,1008.5,41,0,-1,16.8,3.5,50000,333,7.2,4.9
2019,8,4,17:30,UTC,0,1008.5,39,0,-1,16.6,2.6,50000,331,7.2,4.9
2019,8,4,17:40,UTC,0,1008.5,41,0,-1,16.5,3.3,50000,342,5.9,4.2
2019,8,4,17:50,UTC,0,1008.5,42,0,-1,16.3,3.3,50000,338,6.6,4.4
2019,8,4,18:00,UTC,0,1008.5,43,0,-1,16,3.5,49960,332,5.5,3.4
2019,8,4,18:10,UTC,0,1008.5,44,0,-1,15.9,3.6,40630,331,5.6,4
2019,8,4,18:20,UTC,0,1008.5,45,0,-1,15.5,3.8,50000,331,4.5,3.3
2019,8,4,18:30,UTC,0,1008.5,49,0,-1,14.8,4.2,50000,329,4.5,3.1
2019,8,4,18:40,UTC,0,1008.5,48,0,-1,14.6,3.8,50000,329,4.1,2.7
2019,8,4,18:50,UTC,0,1008.5,49,0,-1,14.2,3.7,50000,328,3.8,2.6
2019,8,4,19:00,UTC,0,1008.5,50,0,-1,13.8,3.5,50000,329,3.3,2.3
2019,8,4,19:10,UTC,0,1008.5,51,0,-1,13.5,3.5,50000,327,3,2.4
2019,8,4,19:20,UTC,0,1008.5,52,0,-1,13.1,3.5,50000,322,2.7,1.9
2019,8,4,19:30,UTC,0,1008.4,54,0,-1,12.9,3.9,50000,320,3,2.1
2019,8,4,19:40,UTC,0,1008.4,55,0,-1,12.8,4,47390,317,3.1,2.2
2019,8,4,19:50,UTC,0,1008.4,58,0,-1,12.3,4.4,50000,316,3.6,2.2
2019,8,4,20:00,UTC,0,1008.4,60,0,-1,12,4.5,50000,315,3,2.1
2019,8,4,20:10,UTC,0,1008.4,59,0,-1,12,4.3,50000,309,3.5,2
2019,8,4,20:20,UTC,0,1008.4,59,0,-1,11.9,4.2,47760,322,2.8,1.9
2019,8,4,20:30,UTC,0,1008.4,61,0,-1,11.7,4.3,50000,318,3.1,2
2019,8,4,20:40,UTC,0,1008.5,61,0,-1,11.5,4.1,50000,315,4,2.2
2019,8,4,20:50,UTC,0,1008.4,61,0,-1,11.4,4.2,50000,318,3.4,2.2
2019,8,4,21:00,UTC,0,1008.5,62,0,-1,11.3,4.3,49470,318,3.3,2.4
2019,8,4,21:10,UTC,0,1008.4,61,0,-1,11.6,4.5,50000,320,3.5,2.3
2019,8,4,21:20,UTC,0,1008.5,60,0,-1,12,4.5,50000,321,4.4,2.8
2019,8,4,21:30,UTC,0,1008.6,57,0,-1,12.7,4.4,50000,319,6,3.9
2019,8,4,21:40,UTC,0,1008.7,59,0,-1,12.6,4.7,50000,321,6.7,4.1
2019,8,4,21:50,UTC,0,1008.6,59,0,-1,12.4,4.5,50000,330,6.1,4.1
2019,8,4,22:00,UTC,0,1008.6,60,0,-1,12.2,4.7,50000,332,6.7,4.4
2019,8,4,22:10,UTC,0,1008.6,62,0,-1,12,4.8,50000,327,4.9,3.4
2019,8,4,22:20,UTC,0,1008.6,64,0,-1,11.6,5.1,50000,327,5.2,3.4
2019,8,4,22:30,UTC,0,1008.6,65,0,-1,11.3,5,50000,323,5.3,2.7
2019,8,4,22:40,UTC,0,1008.7,66,0,-1,11.3,5.2,50000,319,4.3,2.2
2019,8,4,22:50,UTC,0,1008.6,64,0,-1,11.6,5.1,50000,313,5.3,3
2019,8,4,23:00,UTC,0,1008.6,66,0,-1,11.4,5.4,50000,316,5.1,3.1
2019,8,4,23:10,UTC,0,1008.6,66,0,-1,11.5,5.4,50000,311,5.1,3.1
2019,8,4,23:20,UTC,0,1008.7,68,0,-1,11.2,5.5,50000,314,5,3.2
2019,8,4,23:30,UTC,0,1008.7,69,0,-1,10.9,5.5,50000,316,5.1,3
2019,8,4,23:40,UTC,0,1008.8,70,0,-1,10.7,5.6,50000,321,5.2,3.3
2019,8,4,23:50,UTC,0,1008.8,71,0,-1,10.6,5.5,50000,323,4.4,2.7
2019,8,5,00:00,UTC,0,1008.8,70,0,-1,10.7,5.5,50000,319,4.3,2.7
2019,8,5,00:10,UTC,0,1008.8,70,0,-1,10.8,5.5,50000,309,4,2.7
2019,8,5,00:20,UTC,0,1008.9,71,0,-1,10.7,5.6,50000,316,4.5,3
2019,8,5,00:30,UTC,0,1008.9,71,0,-1,10.6,5.5,50000,319,4.9,2.8
2019,8,5,00:40,UTC,0,1008.8,72,0,-1,10.5,5.6,50000,323,5.3,3.3
2019,8,5,00:50,UTC,0,1008.8,72,0,-1,10.2,5.5,49490,325,4.8,3.1
2019,8,5,01:00,UTC,0,1008.7,72,0,-1,10.1,5.4,47970,329,4.7,3
2019,8,5,01:10,UTC,0,1008.7,72,0,-1,10.1,5.2,46170,329,4.9,3.4
2019,8,5,01:20,UTC,0,1008.8,72,0,-1,10,5.2,50000,327,5,3.1
2019,8,5,01:30,UTC,0,1008.7,73,0,-1,9.8,5.2,45420,324,4.7,3.3
2019,8,5,01:40,UTC,0,1008.8,73,0,-1,9.8,5.1,50000,332,5.1,3.2
2019,8,5,01:50,UTC,0,1008.8,73,0,-1,9.7,5.1,50000,328,5.6,3.6
2019,8,5,02:00,UTC,0,1008.8,72,0,-1,9.7,4.9,50000,327,5.1,3.6
2019,8,5,02:10,UTC,0,1008.8,72,0,-1,9.5,4.7,50000,331,5.6,3.7
2019,8,5,02:20,UTC,0,1008.8,71,0,-1,9.5,4.6,50000,330,5.8,4
2019,8,5,02:30,UTC,0,1008.7,71,0,-1,9.7,4.6,50000,329,5.3,3.8
2019,8,5,02:40,UTC,0,1008.7,71,0,-1,9.7,4.6,50000,329,6.3,4
2019,8,5,02:50,UTC,0,1008.7,71,0,-1,9.6,4.6,50000,324,4.7,3
2019,8,5,03:00,UTC,0,1008.7,71,0,-1,9.5,4.5,50000,323,4.3,2.8
2019,8,5,03:10,UTC,0,1008.7,71,0,-1,9.5,4.5,50000,321,5.3,3.4
2019,8,5,03:20,UTC,0,1008.8,71,0,-1,9.5,4.5,50000,323,5.2,2.9
2019,8,5,03:30,UTC,0,1008.8,72,0,-1,9.4,4.6,50000,316,4.7,2.9
2019,8,5,03:40,UTC,0,1008.8,72,0,-1,9.4,4.6,50000,321,6.2,3.8
2019,8,5,03:50,UTC,0,1008.9,71,0,-1,9.5,4.5,50000,321,4.9,3.3
2019,8,5,04:00,UTC,0,1008.8,71,0,-1,9.5,4.6,50000,321,4.6,3.2
2019,8,5,04:10,UTC,0,1008.7,71,0,-1,9.5,4.6,50000,320,5.1,3.4
2019,8,5,04:20,UTC,0,1008.7,70,0,-1,10,4.7,50000,316,5.5,3.8
2019,8,5,04:30,UTC,0,1008.7,70,0,-1,9.7,4.6,50000,319,5.1,3.6
2019,8,5,04:40,UTC,0,1008.7,72,0,-1,9.6,4.8,50000,309,5.4,3.4
2019,8,5,04:50,UTC,0,1008.6,71,0,-1,10.2,5.2,50000,313,6.2,4.1
2019,8,5,05:00,UTC,0,1008.6,70,0,-1,10.3,5.1,50000,318,5.6,3.3
2019,8,5,05:10,UTC,0,1008.5,69,0,-1,11.3,5.9,50000,315,5.5,3.4
2019,8,5,05:20,UTC,0,1008.5,65,0,-1,11.8,5.3,48090,314,5.2,3.6
2019,8,5,05:30,UTC,0,1008.4,64,0,-1,12.1,5.4,46740,315,6,4
2019,8,5,05:40,UTC,0,1008.4,64,0,-1,12.4,5.7,50000,324,6.1,3.5
2019,8,5,05:50,UTC,0,1008.4,63,0,-1,13,6.1,49680,323,4.9,3.1
2019,8,5,06:00,UTC,0,1008.4,59,0,-1,13.8,5.9,43900,321,6.1,3.5
2019,8,5,06:10,UTC,0,1008.3,56,0,-1,13.9,5.2,43390,323,7.4,4.5
2019,8,5,06:20,UTC,0,1008.3,54,0,-1,14.5,5.3,49640,324,6.8,4.3
2019,8,5,06:30,UTC,0,1008.2,53,0,-1,15,5.6,47800,331,7,4.6
2019,8,5,06:40,UTC,0,1008.2,52,0,-1,15.6,5.8,48760,328,7.5,4.2
2019,8,5,06:50,UTC,0,1008.1,51,0,-1,15.9,5.7,43130,333,7.2,4.9
2019,8,5,07:00,UTC,0,1008,49,0,-1,16.3,5.7,50000,329,6.4,3.5
2019,8,5,07:10,UTC,0,1008,49,0,-1,17,6.2,42380,318,6.3,3.9
2019,8,5,07:20,UTC,0,1007.9,46,0,-1,17.1,5.3,43820,314,6,4.1
2019,8,5,07:30,UTC,0,1007.9,45,0,-1,17.3,5.2,48140,305,7.8,4.6
2019,8,5,07:40,UTC,0,1007.8,44,0,-1,17.9,5.5,25720,318,6.5,4.6
2019,8,5,07:50,UTC,0,1007.7,43,0,-1,17.6,5,42220,305,7.1,4.7
2019,8,5,08:00,UTC,0,1007.7,43,0,-1,18.6,5.7,40980,326,9,5
2019,8,5,08:10,UTC,0,1007.6,43,0,-1,18.3,5.4,40330,309,8.4,4.8
2019,8,5,08:20,UTC,0,1007.5,41,0,-1,19,5.5,40090,312,6.9,4.2
2019,8,5,08:30,UTC,0,1007.5,40,0,-1,18.7,5,41440,313,9.2,5.3
2019,8,5,08:40,UTC,0,1007.4,39,0,-1,19.2,4.8,40550,312,8.6,6.1
2019,8,5,08:50,UTC,0,1007.2,39,0,-1,19.3,4.9,45100,303,8.3,4.5
2019,8,5,09:00,UTC,0,1007.2,37,0,-1,19.4,4.3,38990,304,8.1,5.7
2019,8,5,09:10,UTC,0,1007.1,37,0,-1,19.4,4.5,40040,296,8.2,5.5
2019,8,5,09:20,UTC,0,1007.1,36,0,-1,20.2,4.6,44640,302,9.5,5.2
2019,8,5,09:30,UTC,0,1007,36,0,-1,20.7,5.1,45860,317,9.8,6.4
2019,8,5,09:40,UTC,1,1007,38,0,-1,20.5,5.6,32160,304,8.5,5.5
2019,8,5,09:50,UTC,1,1006.9,38,0,-1,21.1,6.2,42620,325,8.9,5.5
2019,8,5,10:00,UTC,1,1006.8,41,0,-1,20.5,6.9,40850,310,10.2,5.7
2019,8,5,10:10,UTC,1,1006.9,38,0,-1,21,6,33090,307,8.8,5
2019,8,5,10:20,UTC,3,1006.7,39,0,-1,20.7,6.1,47610,315,11.3,5.2
2019,8,5,10:30,UTC,3,1006.6,40,0,-1,21.1,7.1,34000,319,8.5,5.3
2019,8,5,10:40,UTC,3,1006.6,38,0,-1,21,6.1,34780,316,7.3,4.5
2019,8,5,10:50,UTC,3,1006.4,39,0,-1,21.5,7,41090,304,9.7,5.1
2019,8,5,11:00,UTC,3,1006.4,39,0,-1,20.6,6.2,38860,305,9.1,4.8
2019,8,5,11:10,UTC,1,1006.4,38,0,-1,20.5,5.7,44600,315,10.2,4.8
2019,8,5,11:20,UTC,1,1006.3,37,0,-1,21.1,6,42500,317,8.9,5.8
2019,8,5,11:30,UTC,1,1006.2,37,0,-1,21.9,6.5,46540,323,10.8,6.8
2019,8,5,11:40,UTC,3,1006.2,36,0,-1,21.3,5.7,34010,317,9.5,6.6
2019,8,5,11:50,UTC,3,1006.1,36,0,-1,21.7,6.1,44260,298,10.1,5.4
2019,8,5,12:00,UTC,5,1006.2,37,0,-1,21,5.9,48170,307,10.3,6
2019,8,5,12:10,UTC,5,1006.1,38,0,-1,21.3,6.6,41980,307,7.2,4.5
2019,8,5,12:20,UTC,5,1006,37,0,-1,21.8,6.5,33650,311,9.2,6.1
2019,8,5,12:30,UTC,5,1005.9,36,0,-1,21.6,5.9,41130,307,8.5,5.5
2019,8,5,12:40,UTC,5,1005.9,36,0,-1,22.1,6.3,47150,310,10.8,5.5
2019,8,5,12:50,UTC,7,1005.8,36,0,-1,21.5,5.7,48720,295,8.8,5.2
2019,8,5,13:00,UTC,7,1005.7,36,0,-1,21.3,5.6,48330,307,6.9,3.3
2019,8,5,13:10,UTC,5,1005.6,35,0,-1,22,5.9,47180,303,9.7,4.9
2019,8,5,13:20,UTC,5,1005.5,34,0,-1,22.4,5.5,42190,298,9.6,6.5
2019,8,5,13:30,UTC,5,1005.6,33,0,-1,22.8,5.5,45350,298,11.6,6.8
2019,8,5,13:40,UTC,3,1005.6,33,0,-1,21.8,5,50000,315,10.1,6.3
2019,8,5,13:50,UTC,5,1005.5,35,0,-1,22.3,6.2,48170,308,7.8,4.2
2019,8,5,14:00,UTC,5,1005.5,34,0,-1,22.7,6.1,43080,314,9.5,6.3
2019,8,5,14:10,UTC,7,1005.4,33,0,-1,22.5,5.5,41580,326,8.1,5.7
2019,8,5,14:20,UTC,7,1005.5,35,0,-1,22.2,5.9,39200,307,10.1,6
2019,8,5,14:30,UTC,7,1005.5,34,0,-1,22.3,5.9,41200,323,10.8,6.9
2019,8,5,14:40,UTC,7,1005.5,35,0,-1,21.7,5.5,50000,319,7.9,5.8
2019,8,5,14:50,UTC,7,1005.5,35,0,-1,21.7,5.6,43100,309,8.9,4.8
2019,8,5,15:00,UTC,7,1005.5,36,0,-1,21.5,5.9,49660,333,9.6,6.3
2019,8,5,15:10,UTC,7,1005.5,35,0,-1,22,5.7,46470,331,8.3,5.4
2019,8,5,15:20,UTC,5,1005.4,37,0,-1,21.8,6.3,45850,330,7.2,4.2
2019,8,5,15:30,UTC,3,1005.4,37,0,-1,21.8,6.3,50000,326,7.4,4.2
2019,8,5,15:40,UTC,3,1005.5,36,0,-1,22.1,6.3,45130,333,8.5,4.9
2019,8,5,15:50,UTC,1,1005.5,34,0,-1,22.5,6,50000,326,9.5,5.8
2019,8,5,16:00,UTC,5,1005.4,36,0,-1,21.7,6.1,50000,319,9,5.8
2019,8,5,16:10,UTC,5,1005.4,38,0,-1,21.4,6.4,50000,323,11.3,6.8
2019,8,5,16:20,UTC,7,1005.4,36,0,-1,21.5,5.7,50000,319,9.1,6.3
2019,8,5,16:30,UTC,7,1005.3,37,0,-1,21.3,6,50000,319,9.2,5.4
2019,8,5,16:40,UTC,7,1005.4,37,0,-1,21.2,5.9,50000,322,10.1,6.8
2019,8,5,16:50,UTC,5,1005.4,37,0,-1,21.1,5.9,50000,319,8.7,5.7
2019,8,5,17:00,UTC,3,1005.4,38,0,-1,21.2,6.2,50000,318,8.9,5.2
2019,8,5,17:10,UTC,1,1005.4,39,0,-1,20.9,6.5,50000,317,10.4,6.1
2019,8,5,17:20,UTC,1,1005.4,38,0,-1,20.9,6.2,49240,324,9.7,6
2019,8,5,17:30,UTC,1,1005.4,38,0,-1,20.8,6.1,50000,317,8.9,6.1
2019,8,5,17:40,UTC,1,1005.4,40,0,-1,20.4,6.4,50000,319,8,5.3
2019,8,5,17:50,UTC,1,1005.5,41,0,-1,20.3,6.5,50000,313,7.9,4.8
2019,8,5,18:00,UTC,1,1005.6,41,0,-1,20.1,6.4,50000,317,8.1,4.6
2019,8,5,18:10,UTC,1,1005.6,42,0,-1,19.9,6.4,50000,319,8,5
2019,8,5,18:20,UTC,0,1005.7,45,0,-1,19.2,6.9,50000,321,5.5,3.9
2019,8,5,18:30,UTC,0,1005.8,44,0,-1,19.2,6.8,47240,327,6.2,3.8
2019,8,5,18:40,UTC,0,1005.8,46,0,-1,18.8,6.9,50000,332,7.2,4.5
2019,8,5,18:50,UTC,0,1005.9,49,0,-1,18.3,7.3,50000,330,5.7,3.9
2019,8,5,19:00,UTC,0,1005.9,49,0,-1,18.3,7.4,44470,329,4.9,3.6
2019,8,5,19:10,UTC,0,1006,51,0,-1,18,7.5,50000,321,5.1,2.8
2019,8,5,19:20,UTC,0,1006,52,0,-1,17.5,7.5,50000,312,4.6,2.9
2019,8,5,19:30,UTC,1,1006,49,0,-1,18.2,7.3,47940,293,4.6,3
2019,8,5,19:40,UTC,3,1006.1,49,0,-1,18.3,7.5,50000,293,4.7,3.1
2019,8,5,19:50,UTC,1,1006.2,48,0,-1,18.3,7,50000,280,6.1,3.6
2019,8,5,20:00,UTC,1,1006.2,48,0,-1,18,6.8,50000,290,5.6,3.4
2019,8,5,20:10,UTC,0,1006.2,48,0,-1,17.8,6.6,50000,290,5.8,3.6
2019,8,5,20:20,UTC,0,1006.2,48,0,-1,17.6,6.4,50000,293,6.9,3.7
2019,8,5,20:30,UTC,0,1006.3,48,0,-1,17.4,6.3,50000,291,5.9,3.4
2019,8,5,20:40,UTC,0,1006.3,48,0,-1,17.2,6.2,50000,293,5.4,3.5
2019,8,5,20:50,UTC,0,1006.3,49,0,-1,17.1,6.2,50000,294,6.6,3.7
2019,8,5,21:00,UTC,0,1006.3,50,0,-1,16.9,6.4,50000,294,7.7,4.3
2019,8,5,21:10,UTC,0,1006.4,51,0,-1,16.8,6.5,50000,299,6.7,4.2
2019,8,5,21:20,UTC,0,1006.4,52,0,-1,16.6,6.6,50000,302,6.4,4.4
2019,8,5,21:30,UTC,0,1006.4,53,0,-1,16.3,6.6,50000,305,6.5,4.6
2019,8,5,21:40,UTC,0,1006.4,53,0,-1,16.2,6.5,30320,308,7.2,4.6
2019,8,5,21:50,UTC,0,1006.4,55,0,-1,15.8,6.7,50000,313,6.7,4.2
2019,8,5,22:00,UTC,0,1006.4,55,0,-1,15.6,6.7,50000,318,5.2,3.7
2019,8,5,22:10,UTC,0,1006.5,56,0,-1,15.4,6.8,50000,308,6.6,4.1
2019,8,5,22:20,UTC,0,1006.5,58,0,-1,15.4,7.1,50000,300,5.8,3.6
2019,8,5,22:30,UTC,0,1006.6,58,0,-1,15.5,7.3,50000,306,5.2,3.4
2019,8,5,22:40,UTC,0,1006.6,61,0,-1,15.2,7.6,50000,299,5.6,3.4
2019,8,5,22:50,UTC,0,1006.6,63,0,-1,14.9,7.9,50000,310,6.1,3.7
2019,8,5,23:00,UTC,0,1006.7,63,0,-1,15,8,50000,305,7,3.6
2019,8,5,23:10,UTC,0,1006.7,66,0,-1,14.7,8.4,50000,304,5.9,3.7
2019,8,5,23:20,UTC,0,1006.8,68,0,-1,14.8,8.9,50000,296,5.1,3.3
2019,8,5,23:30,UTC,0,1006.7,69,0,-1,14.7,9.1,50000,291,5.5,3.3
2019,8,5,23:40,UTC,0,1006.7,70,0,-1,14.4,9.1,49790,300,5,3.3
2019,8,5,23:50,UTC,0,1006.7,71,0,-1,14.3,9.1,50000,303,4.7,3.2
2019,8,6,00:00,UTC,0,1006.7,73,0,-1,13.9,9,50000,304,5.5,3.3
2019,8,6,00:10,UTC,0,1006.7,75,0,-1,13.3,9.1,50000,311,5.5,2.8
2019,8,6,00:20,UTC,0,1006.7,77,0,-1,13.1,9,50000,315,3.7,1.6
2019,8,6,00:30,UTC,0,1006.8,77,0,-1,12.9,9,50000,316,3.8,1.8
2019,8,6,00:40,UTC,0,1006.8,79,0,-1,12.7,9.2,50000,307,4.2,2.4
2019,8,6,00:50,UTC,0,1006.7,79,0,-1,12.8,9.2,50000,320,3.5,2.1
2019,8,6,01:00,UTC,0,1006.6,80,0,-1,12.6,9.3,47410,324,3.1,2
2019,8,6,01:10,UTC,1,1006.6,79,0,-1,12.7,9.2,50000,324,3.4,2.2
2019,8,6,01:20,UTC,3,1006.5,79,0,-1,12.7,9.2,43520,319,3.2,2
2019,8,6,01:30,UTC,5,1006.5,79,0,-1,12.8,9.2,50000,316,2.4,1.7
2019,8,6,01:40,UTC,7,1006.6,79,0,-1,12.9,9.3,50000,321,3.1,1.9
2019,8,6,01:50,UTC,7,1006.5,78,0,-1,13.1,9.2,50000,308,3.8,2.3
2019,8,6,02:00,UTC,7,1006.5,76,0,-1,13.2,9.1,50000,316,4.3,2.5
2019,8,6,02:10,UTC,7,1006.6,77,0,-1,13.2,9.2,50000,324,3,2.2
2019,8,6,02:20,UTC,7,1006.5,75,0,-1,13.3,8.9,50000,314,3.6,2.3
2019,8,6,02:30,UTC,7,1006.5,75,0,-1,13.2,8.8,50000,320,3,2
2019,8,6,02:40,UTC,7,1006.5,74,0,-1,13.2,8.8,49830,322,3.2,2.1
2019,8,6,02:50,UTC,5,1006.5,73,0,-1,13.2,8.5,50000,321,2.8,2
2019,8,6,03:00,UTC,1,1006.4,74,0,-1,13,8.5,50000,323,3.8,2.4
2019,8,6,03:10,UTC,1,1006.4,77,0,-1,12.8,8.8,50000,323,3.4,2
2019,8,6,03:20,UTC,0,1006.4,77,0,-1,12.6,8.6,50000,337,3.2,2.2
2019,8,6,03:30,UTC,0,1006.5,75,0,-1,13,8.6,50000,328,3.3,1.9
2019,8,6,03:40,UTC,0,1006.4,75,0,-1,12.9,8.5,46480,316,2.2,1.3
2019,8,6,03:50,UTC,0,1006.4,73,0,-1,13.1,8.5,50000,316,1.8,1.1
2019,8,6,04:00,UTC,0,1006.6,70,0,-1,13.8,8.4,48180,291,2.2,1.5
2019,8,6,04:10,UTC,0,1006.6,69,0,-1,14.3,8.6,50000,289,2.3,1.6
2019,8,6,04:20,UTC,0,1006.6,66,0,-1,14.7,8.3,50000,314,1.7,0.9
2019,8,6,04:30,UTC,0,1006.6,64,0,-1,15.2,8.4,46850,345,1.3,0.9
2019,8,6,04:40,UTC,0,1006.7,61,0,-1,15.7,8.2,50000,354,1.5,0.8
2019,8,6,04:50,UTC,0,1006.7,62,0,-1,15.8,8.4,45700,322,1.7,0.9
2019,8,6,05:00,UTC,1,1006.7,60,0,-1,15.9,8.2,50000,314,1.5,0.7
2019,8,6,05:10,UTC,1,1006.7,61,0,-1,15.5,8.1,50000,273,1.1,0.7
2019,8,6,05:20,UTC,1,1006.6,65,0,-1,15.4,8.8,43140,0,0,0
2019,8,6,05:30,UTC,1,1006.7,62,0,-1,15.7,8.4,42370,12,1.3,0.6
2019,8,6,05:40,UTC,1,1006.6,61,0,-1,16.5,9,41440,338,1.3,0.9
2019,8,6,05:50,UTC,1,1006.6,57,0,-1,17.5,8.8,36920,327,1.3,0.6
2019,8,6,06:00,UTC,3,1006.6,56,0,-1,18.2,9.3,34340,0,0,0
2019,8,6,06:10,UTC,5,1006.6,54,0,-1,18.5,9,39750,325,1.9,0.7
2019,8,6,06:20,UTC,7,1006.6,58,0,-1,17.3,9.1,37650,100,2,1.2
2019,8,6,06:30,UTC,7,1006.5,57,0,-1,17.3,8.8,48860,204,1.9,0.8
2019,8,6,06:40,UTC,7,1006.5,59,0,-1,17.3,9.1,48970,205,1.9,1
2019,8,6,06:50,UTC,7,1006.5,57,0,-1,17.6,9.1,39190,194,2.7,1.5
2019,8,6,07:00,UTC,5,1006.5,56,0,-1,18,8.9,40970,197,3,1.8
2019,8,6,07:10,UTC,5,1006.4,53,0,-1,18.8,9.1,34640,195,2.7,1.6
2019,8,6,07:20,UTC,3,1006.3,44,0,-1,18.7,6.2,49170,240,2.7,1.2
2019,8,6,07:30,UTC,5,1006.3,48,0,-1,19,7.6,37330,222,3.3,1.5
2019,8,6,07:40,UTC,5,1006.3,54,0,-1,18.7,9.3,43080,212,4.2,2.2
2019,8,6,07:50,UTC,7,1006.3,59,0,-1,18.3,10,38900,206,4.3,2.2
2019,8,6,08:00,UTC,7,1006.2,61,0,-1,18.7,11.1,42960,247,3.5,2.2
2019,8,6,08:10,UTC,5,1006.2,63,0,-1,19.5,12.1,32990,217,3.6,2.5
2019,8,6,08:20,UTC,5,1006.3,63,0,-1,19.2,12,35500,208,4.9,2.5
2019,8,6,08:30,UTC,5,1006.4,68,0,-1,18.4,12.3,34600,224,3.8,2.4
2019,8,6,08:40,UTC,5,1006.3,65,0,-1,19.2,12.6,36400,207,4.6,2.7
2019,8,6,08:50,UTC,5,1006.3,66,0,-1,18.9,12.3,42090,223,5,2.5
2019,8,6,09:00,UTC,5,1006.3,68,0,-1,18.6,12.5,40140,215,4.8,3.3
2019,8,6,09:10,UTC,7,1006.3,70,0,-1,19.3,13.8,33480,186,5.1,3.2
2019,8,6,09:20,UTC,7,1006.3,70,0,-1,19.5,13.9,40440,203,5.2,3.5
2019,8,6,09:30,UTC,7,1006.3,71,0,-1,19.3,14,35790,212,5.5,3.6
2019,8,6,09:40,UTC,7,1006.3,71,0,-1,19.6,14.2,29130,215,5.4,3.1
2019,8,6,09:50,UTC,7,1006.3,71,0,-1,19.2,13.8,32220,207,6.1,3.5
2019,8,6,10:00,UTC,7,1006.3,74,0,-1,19,14.2,37730,204,6.3,3.6
2019,8,6,10:10,UTC,7,1006.3,69,0,-1,20.2,14.3,27330,210,6.6,4
2019,8,6,10:20,UTC,5,1006.3,75,0,-1,19.4,14.9,37260,205,5.6,3.8
2019,8,6,10:30,UTC,5,1006.3,75,0,-1,19.4,14.8,35850,214,6,4.3
2019,8,6,10:40,UTC,5,1006.2,73,0,-1,19.1,14.1,35270,213,5.5,3.8
2019,8,6,10:50,UTC,7,1006.3,78,0,-1,18.3,14.4,34190,205,5.3,3.7
2019,8,6,11:00,UTC,7,1006.2,86,0,-1,18,15.6,20020,182,5.7,3.8
2019,8,6,11:10,UTC,7,1006.2,80,0,-1,18.4,15,24340,177,5.2,3.9
2019,8,6,11:20,UTC,7,1006.2,82,0,-1,18,14.8,24020,192,5.9,3.8
2019,8,6,11:30,UTC,5,1006.2,80,0,-1,18.9,15.4,32320,191,5.3,3.4
2019,8,6,11:40,UTC,5,1006,78,0,-1,18.5,14.7,30710,204,6.3,4.1
2019,8,6,11:50,UTC,3,1006.1,79,0,-1,18.1,14.3,33770,201,5.3,3
2019,8,6,12:00,UTC,3,1006.1,82,0,-1,17.7,14.6,35730,196,6.5,4
2019,8,6,12:10,UTC,1,1006,84,0,-1,17.5,14.8,31580,205,6,4.5
2019,8,6,12:20,UTC,1,1006.1,85,0,-1,17.3,14.6,34240,207,4.8,3.4
2019,8,6,12:30,UTC,1,1006.1,84,0,-1,17.4,14.7,36860,203,5.1,3.1
2019,8,6,12:40,UTC,1,1006.1,84,0,-1,17.5,14.7,38920,203,6.3,4.2
2019,8,6,12:50,UTC,3,1006.1,83,0,-1,17.8,14.9,24300,207,5.8,4
2019,8,6,13:00,UTC,5,1006,84,0,-1,17.8,15.1,27810,212,5.2,3.7
2019,8,6,13:10,UTC,7,1006.1,81,0,-1,17.8,14.6,28740,205,5.1,3.4
2019,8,6,13:20,UTC,7,1006.1,80,0,-1,18.2,14.7,28700,207,4.9,3.2
2019,8,6,13:30,UTC,7,1006,79,0,-1,18.7,14.9,30520,221,4.5,2.4
2019,8,6,13:40,UTC,7,1006,76,0,-1,18.7,14.4,33340,197,4.8,2.8
2019,8,6,13:50,UTC,7,1005.9,79,0,-1,18.9,15.2,31330,208,5.5,3.7
2019,8,6,14:00,UTC,5,1005.9,80,0,-1,18.4,14.9,32420,218,6.6,4.3
2019,8,6,14:10,UTC,3,1005.7,82,0,-1,18.2,15.1,27980,208,6.3,3.3
2019,8,6,14:20,UTC,3,1005.7,81,0,-1,18.3,15,29690,210,5.2,3.3
2019,8,6,14:30,UTC,3,1005.6,82,0,-1,18.2,15.1,33720,211,5.6,3.6
2019,8,6,14:40,UTC,3,1005.6,80,0,-1,18.8,15.3,25670,211,5.7,3.7
2019,8,6,14:50,UTC,3,1005.7,82,0,-1,18.3,15.1,36070,227,6.4,4.3
2019,8,6,15:00,UTC,3,1005.7,80,0,-1,18.6,15.1,30740,215,6,4.1
2019,8,6,15:10,UTC,5,1005.6,83,0,-1,18.3,15.4,35870,214,6.3,4.3
2019,8,6,15:20,UTC,5,1005.5,80,0,-1,18.9,15.4,35160,206,6.5,4.6
2019,8,6,15:30,UTC,5,1005.5,77,0,-1,19.2,15,37450,231,7.5,4.6
2019,8,6,15:40,UTC,1,1005.5,78,0,-1,19.1,15.1,37540,229,5.2,3.5
2019,8,6,15:50,UTC,1,1005.5,81,0,-1,18.6,15.3,33860,222,5.8,4.1
2019,8,6,16:00,UTC,1,1005.5,83,0,-1,18.3,15.3,41770,219,5.9,3.6
2019,8,6,16:10,UTC,1,1005.5,84,0,-1,17.9,15.2,4260,213,5.2,3.2
2019,8,6,16:20,UTC,3,1005.5,85,0,-1,18,15.3,26800,201,5.4,3.5
2019,8,6,16:30,UTC,5,1005.4,85,0,-1,18,15.4,30540,203,4.4,2.6
2019,8,6,16:40,UTC,7,1005.4,86,0,-1,17.9,15.4,28150,195,3.8,2.4
2019,8,6,16:50,UTC,7,1005.5,86,0,-1,17.9,15.5,23000,200,4.5,2.6
2019,8,6,17:00,UTC,7,1005.4,86,0,-1,17.9,15.5,23580,193,4.1,2.7
2019,8,6,17:10,UTC,7,1005.4,78,0,-1,18,14.2,42710,189,4.7,3.2
2019,8,6,17:20,UTC,7,1005.4,76,0,-1,17.6,13.3,50000,196,4.8,3.1
2019,8,6,17:30,UTC,5,1005.4,75,0,-1,17.5,13.1,50000,207,4.2,3.2
2019,8,6,17:40,UTC,5,1005.4,76,0,-1,17.5,13.3,50000,219,4.7,3.2
2019,8,6,17:50,UTC,5,1005.4,77,0,-1,17.3,13.1,50000,215,3.6,2.5
2019,8,6,18:00,UTC,5,1005.4,79,0,-1,17.4,13.6,47330,198,3.4,2
2019,8,6,18:10,UTC,5,1005.4,83,0,-1,17.1,14.1,48080,187,3.7,2.4
2019,8,6,18:20,UTC,1,1005.5,85,0,-1,17.1,14.4,33180,177,4.4,3
2019,8,6,18:30,UTC,3,1005.5,85,0,-1,17.1,14.6,33570,187,4.2,2.5
2019,8,6,18:40,UTC,1,1005.4,85,0,-1,17.2,14.6,33810,201,4.5,3.1
2019,8,6,18:50,UTC,1,1005.4,84,0,-1,17.3,14.5,34990,220,5.6,3.7
2019,8,6,19:00,UTC,1,1005.3,82,0,-1,17,13.9,44900,209,6.5,3.6
2019,8,6,19:10,UTC,1,1005.3,80,0,-1,16.9,13.5,49160,207,6.8,4.7
2019,8,6,19:20,UTC,3,1005.3,82,0,-1,16.9,13.8,50000,203,5.8,3.4
2019,8,6,19:30,UTC,5,1005.2,85,0,-1,16.9,14.4,49150,197,5.5,3.4
2019,8,6,19:40,UTC,7,1005.2,86,0,-1,17,14.7,42950,195,6.3,3.5
2019,8,6,19:50,UTC,7,1005.2,88,0,-1,17,15,37580,214,4.6,2.9
2019,8,6,20:00,UTC,8,1005.2,89,0,-1,16.9,15.1,34440,209,4.6,2.5
2019,8,6,20:10,UTC,7,1005.1,86,0,-1,17.1,14.8,41450,224,3.8,1.7
2019,8,6,20:20,UTC,7,1005.1,85,0,-1,17.3,14.8,41110,242,3.6,2.2
2019,8,6,20:30,UTC,8,1005.1,85,0,-1,17.3,14.8,41950,233,5.1,2.5
2019,8,6,20:40,UTC,8,1005.1,85,0,-1,17.4,14.8,40710,240,4.5,2.6
2019,8,6,20:50,UTC,8,1005.1,85,0,-1,17.4,14.8,41240,250,3.1,1.9
2019,8,6,21:00,UTC,8,1005.1,84,0,-1,17.4,14.7,44740,254,3.2,1.8
2019,8,6,21:10,UTC,7,1005.1,84,0,-1,17.3,14.6,50000,254,3.5,2.5
2019,8,6,21:20,UTC,7,1005.1,84,0,-1,17.3,14.6,33480,251,3,1.9
2019,8,6,21:30,UTC,8,1005.1,85,0,-1,17.2,14.6,41560,261,3.7,2
2019,8,6,21:40,UTC,7,1005.1,84,0,-1,17.2,14.5,48160,257,3.5,2.2
2019,8,6,21:50,UTC,7,1005.1,86,0,-1,16.7,14.4,33410,268,2.2,1.5
2019,8,6,22:00,UTC,7,1005.1,88,0,-1,16.3,14.4,42410,270,1.9,1.2
2019,8,6,22:10,UTC,5,1005.1,90,0,-1,16,14.3,35610,271,2.2,1.5
2019,8,6,22:20,UTC,5,1005.1,91,0,-1,15.8,14.3,38560,266,2,1.3
2019,8,6,22:30,UTC,1,1005.1,92,0,-1,15.7,14.3,34310,272,2.4,1.5
2019,8,6,22:40,UTC,1,1005.1,92,0,-1,15.4,14.1,31230,268,2.1,1.4
2019,8,6,22:50,UTC,1,1005.1,93,0,-1,15.2,14.2,31150,261,1.5,1.1
2019,8,6,23:00,UTC,1,1005.2,94,0,-1,15.1,14.2,24290,237,1.7,1.1
2019,8,6,23:10,UTC,1,1005.1,95,0,-1,15.1,14.3,21860,214,1.7,1.2
2019,8,6,23:20,UTC,3,1005.1,95,0,-1,15.3,14.4,25650,237,1.9,0.8
2019,8,6,23:30,UTC,5,1005.1,95,0,-1,15.4,14.6,21590,0,0,0
2019,8,6,23:40,UTC,5,1005.1,95,0,-1,15.4,14.6,20430,0,0,0
2019,8,6,23:50,UTC,5,1005,95,0,-1,15.4,14.6,19760,0,0,0
2019,8,7,00:00,UTC,7,1005,95,0,-1,15.3,14.6,20200,93,0.8,0.5
2019,8,7,00:10,UTC,8,1005,95,0,-1,15.4,14.7,19530,0,0,0
2019,8,7,00:20,UTC,7,1005,94,0,-1,15.7,14.8,21380,0,0,0
2019,8,7,00:30,UTC,7,1004.9,94,0,-1,15.7,14.6,25000,194,1,0.5
2019,8,7,00:40,UTC,5,1004.9,94,0,-1,15.5,14.5,20330,171,1.5,0.9
2019,8,7,00:50,UTC,7,1004.9,95,2.9,-1,16,15.2,2940,199,1.8,1
2019,8,7,01:00,UTC,7,1004.9,96,2.5,-1,16,15.3,7450,191,2.7,1.6
2019,8,7,01:10,UTC,7,1004.8,95,0,-1,16.1,15.3,15530,197,3.8,2
2019,8,7,01:20,UTC,7,1004.8,94,0,-1,16.2,15.3,19450,209,4,2.4
2019,8,7,01:30,UTC,7,1004.8,94,0,-1,16.1,15.1,17670,200,3.2,2
2019,8,7,01:40,UTC,3,1004.8,95,0,-1,15.8,15,15140,211,3.8,2.4
2019,8,7,01:50,UTC,5,1004.8,95,0,-1,15.9,15.2,14930,217,2.5,1.4
2019,8,7,02:00,UTC,5,1004.7,95,0,-1,15.9,15.1,12200,204,2.4,1.3
2019,8,7,02:10,UTC,5,1004.7,95,0,-1,15.7,15,10080,182,2.4,1.5
2019,8,7,02:20,UTC,5,1004.7,96,0,-1,15.6,14.9,6540,154,2.4,1.5
2019,8,7,02:30,UTC,5,1004.7,96,0,-1,15.5,14.9,6860,140,1.2,0.6
2019,8,7,02:40,UTC,7,1004.6,96,0,-1,15.7,15.1,11940,137,1.9,1
2019,8,7,02:50,UTC,7,1004.6,96,0,-1,15.7,15,14840,115,2.3,1.7
2019,8,7,03:00,UTC,7,1004.6,95,0,-1,15.6,14.8,12990,126,2.2,1.7
2019,8,7,03:10,UTC,7,1004.6,96,0,-1,15.6,14.9,14590,134,2.4,1.9
2019,8,7,03:20,UTC,5,1004.6,96,0,-1,15.5,14.8,10980,130,2.4,1.9
2019,8,7,03:30,UTC,5,1004.6,96,0,-1,15.6,14.9,14280,123,2.9,2.2
2019,8,7,03:40,UTC,5,1004.7,95,0,-1,15.7,15,14670,121,2.9,2.3
2019,8,7,03:50,UTC,3,1004.7,93,0,-1,16,14.8,20190,119,2.9,2
2019,8,7,04:00,UTC,3,1004.7,93,0,-1,16,14.8,19750,112,2.7,1.9
2019,8,7,04:10,UTC,5,1004.7,93,0,-1,16.2,15.1,17530,111,3.3,2.2
2019,8,7,04:20,UTC,5,1004.7,93,0,-1,16.3,15.2,18550,94,2.9,1.5
2019,8,7,04:30,UTC,7,1004.7,92,0,-1,16.6,15.4,18100,93,2.4,1.6
2019,8,7,04:40,UTC,7,1004.6,91,0,-1,16.8,15.4,20020,105,2.8,1.8
2019,8,7,04:50,UTC,7,1004.6,90,0,-1,16.7,15.1,22610,104,3.1,2.1
2019,8,7,05:00,UTC,7,1004.6,90,0,-1,16.7,15,24430,99,4.1,2.3
2019,8,7,05:10,UTC,7,1004.6,91,0,-1,16.8,15.3,31510,126,3.7,2.6
2019,8,7,05:20,UTC,7,1004.6,89,0,-1,17.1,15.3,32190,120,4.4,2.7
2019,8,7,05:30,UTC,7,1004.7,88,0,-1,17,14.9,39140,121,5.7,3.5
2019,8,7,05:40,UTC,7,1004.7,87,0,-1,17,14.8,30830,127,4.1,2.6
2019,8,7,05:50,UTC,7,1004.6,88,0,-1,16.9,14.8,27260,125,4.3,3.3
2019,8,7,06:00,UTC,7,1004.6,88,0,-1,16.7,14.7,33390,121,4.1,2.7
2019,8,7,06:10,UTC,7,1004.6,87,0,-1,17,14.8,26640,123,4.7,2.8
2019,8,7,06:20,UTC,7,1004.6,85,0,-1,17.3,14.8,33940,131,5.8,3.9
2019,8,7,06:30,UTC,7,1004.6,84,0,-1,17.3,14.5,31250,120,5.8,3.5
2019,8,7,06:40,UTC,7,1004.6,83,0,-1,17.3,14.4,36580,113,6.2,4.4
2019,8,7,06:50,UTC,7,1004.7,84,0,-1,17.1,14.3,41260,119,6.2,3.8
2019,8,7,07:00,UTC,7,1004.7,84,0,-1,17.2,14.4,37200,118,6,4
2019,8,7,07:10,UTC,7,1004.6,84,0,-1,17.3,14.5,33260,118,6,4.3
2019,8,7,07:20,UTC,7,1004.6,83,0,-1,17.3,14.4,35520,132,6.2,3.5
2019,8,7,07:30,UTC,5,1004.6,81,0,-1,17.6,14.3,40470,122,6.8,4.7
2019,8,7,07:40,UTC,5,1004.7,80,0,-1,17.7,14.2,39940,112,7.4,5.4
2019,8,7,07:50,UTC,3,1004.7,79,0,-1,17.6,13.9,43390,128,7.8,4.7
2019,8,7,08:00,UTC,5,1004.8,78,0,-1,18.1,14.2,43890,121,7.7,4.9
2019,8,7,08:10,UTC,5,1004.9,79,0,-1,17.7,14,41580,123,6.3,4.7
2019,8,7,08:20,UTC,7,1004.9,82,0,-1,17.7,14.6,42130,121,6.5,3.5
2019,8,7,08:30,UTC,7,1005,80,0,-1,17.8,14.2,45960,118,7.4,5.2
2019,8,7,08:40,UTC,7,1005,79,0,-1,17.7,13.9,37930,115,7.5,5.3
2019,8,7,08:50,UTC,7,1005.1,75,0,-1,18.3,13.9,42750,111,7.8,5.6
2019,8,7,09:00,UTC,7,1005,80,0,-1,17.7,14.2,34990,126,6.4,4.9
2019,8,7,09:10,UTC,7,1005,78,0,-1,18.4,14.6,38350,129,8.5,4.9
2019,8,7,09:20,UTC,7,1005.1,72,0,-1,19,13.9,35060,143,7.3,4.3
2019,8,7,09:30,UTC,7,1005.2,75,0,-1,19.1,14.5,34490,152,8.2,4.8
2019,8,7,09:40,UTC,7,1005.2,76,0,-1,18.2,13.9,40770,140,8,5.1
2019,8,7,09:50,UTC,7,1005.2,78,0,-1,18.3,14.3,50000,154,7.3,4.9
2019,8,7,10:00,UTC,7,1005.1,74,0,-1,18.6,14,36250,149,7,4.2
2019,8,7,10:10,UTC,7,1005,71,0,-1,19.1,13.7,29010,133,7.2,4.9
2019,8,7,10:20,UTC,7,1005,70,0,-1,19.6,13.9,37160,122,7.5,4.9
2019,8,7,10:30,UTC,7,1005.2,72,0,-1,19.3,14.1,43540,130,6.5,4
2019,8,7,10:40,UTC,7,1005.3,71,0,-1,19.1,13.7,38110,113,6.7,4.5
2019,8,7,10:50,UTC,7,1005.4,73,0,-1,19,14.1,40650,114,6.9,4.4
2019,8,7,11:00,UTC,7,1005.4,74,0,-1,18.1,13.3,50000,114,6.1,4.4
2019,8,7,11:10,UTC,7,1005.4,74,0,-1,18.4,13.6,30880,115,6.5,4.6
2019,8,7,11:20,UTC,7,1005.5,77,0,-1,18.2,14,42040,116,7.6,4.9
2019,8,7,11:30,UTC,7,1005.5,71,0,-1,18.7,13.2,44070,115,6.9,5
2019,8,7,11:40,UTC,7,1005.3,65,0,-1,19.7,12.9,40370,109,5.7,4
2019,8,7,11:50,UTC,7,1005.3,67,0,-1,19.9,13.7,40790,107,7,4.8
2019,8,7,12:00,UTC,5,1005.3,68,0,-1,19.3,13.2,45490,113,7.3,5.3
2019,8,7,12:10,UTC,3,1005.4,69,0,-1,19.2,13.5,38000,113,7.1,5.6
2019,8,7,12:20,UTC,3,1005.4,69,0,-1,19.5,13.8,41260,111,7.4,5.5
2019,8,7,12:30,UTC,5,1005.4,71,0,-1,19.2,13.8,38040,112,6.8,5.6
2019,8,7,12:40,UTC,3,1005.3,70,0,-1,19.2,13.6,46280,114,6.9,5.3
2019,8,7,12:50,UTC,1,1005.3,71,0,-1,19.2,13.8,43250,119,7.1,5.4
2019,8,7,13:00,UTC,0,1005.2,70,0,-1,18.7,13.1,48150,111,7.7,5.5
2019,8,7,13:10,UTC,1,1005.2,70,0,-1,18.8,13.1,50000,117,7.7,5.9
2019,8,7,13:20,UTC,3,1005.2,72,0,-1,18.5,13.4,50000,118,7.4,5.2
2019,8,7,13:30,UTC,5,1005.3,73,0,-1,18.5,13.4,48740,113,7,4.9
2019,8,7,13:40,UTC,5,1005.3,70,0,-1,18.7,13.2,49050,109,7.9,5
2019,8,7,13:50,UTC,7,1005.3,71,0,-1,18.6,13.2,43870,112,8.2,6.1
2019,8,7,14:00,UTC,7,1005.3,74,0,-1,18,13.4,39300,114,8.1,4.8
2019,8,7,14:10,UTC,7,1005.2,77,0,-1,17.9,13.8,40370,111,8.2,5.8
2019,8,7,14:20,UTC,3,1005.2,77,0,-1,17.8,13.8,42220,96,6.7,4.6
2019,8,7,14:30,UTC,3,1005,74,0,-1,18.6,13.8,42350,116,7.2,4.4
2019,8,7,14:40,UTC,3,1004.9,73,0,-1,18.6,13.7,40700,98,7.5,5.2
2019,8,7,14:50,UTC,1,1005,72,0,-1,18.5,13.3,46350,101,7.8,5
2019,8,7,15:00,UTC,1,1005,74,0,-1,18.4,13.7,47650,97,6.7,4.2
2019,8,7,15:10,UTC,3,1005,75,0,-1,18.1,13.6,46280,99,5.7,4.1
2019,8,7,15:20,UTC,5,1005.1,76,0,-1,17.9,13.7,45720,99,7.5,4.5
2019,8,7,15:30,UTC,5,1005.1,78,0,-1,17.8,14,40630,107,7.6,4.9
2019,8,7,15:40,UTC,7,1005.2,79,0,-1,17.7,14,40220,112,7.7,5.8
2019,8,7,15:50,UTC,7,1005.2,80,0,-1,17.5,14,40510,111,7.1,5.5
2019,8,7,16:00,UTC,7,1005.2,80,0,-1,17.5,14.1,42100,113,7,4.5
2019,8,7,16:10,UTC,7,1005.2,81,0,-1,17.4,14.1,39770,121,7.3,4.7
2019,8,7,16:20,UTC,5,1005.3,81,0,-1,17.3,14,39950,116,7.2,5.4
2019,8,7,16:30,UTC,5,1005.2,80,0,-1,17.3,13.9,44180,119,7.2,4.4
2019,8,7,16:40,UTC,7,1005.2,81,0,-1,17.4,14.1,40590,113,7.6,5.5
2019,8,7,16:50,UTC,7,1005.2,81,0,-1,17.4,14.1,40320,112,6.9,4.9
2019,8,7,17:00,UTC,7,1005.3,81,0,-1,17.3,14,42200,112,6.3,4.8
2019,8,7,17:10,UTC,7,1005.4,81,0,-1,17.2,14,42420,115,7.1,5.2
2019,8,7,17:20,UTC,7,1005.3,81,0,-1,17.2,14,45350,119,6.3,4.5
2019,8,7,17:30,UTC,5,1005.3,82,0,-1,17.1,14,41330,110,6.1,4.6
2019,8,7,17:40,UTC,7,1005.4,82,0,-1,17.2,14.1,40930,113,5.7,3.8
2019,8,7,17:50,UTC,5,1005.4,81,0,-1,17.2,13.9,42680,101,5.5,3.4
2019,8,7,18:00,UTC,7,1005.4,81,0,-1,17.2,14,47610,112,5.4,3.9
2019,8,7,18:10,UTC,7,1005.3,82,0,-1,17.2,14,43910,106,5.1,3.6
2019,8,7,18:20,UTC,5,1005.3,83,0,-1,17,14,39810,106,5.3,3.7
2019,8,7,18:30,UTC,5,1005.3,84,0,-1,16.8,14,42820,111,5.2,3.4
2019,8,7,18:40,UTC,5,1005.4,84,0,-1,16.8,14.1,42560,118,3.4,2.4
2019,8,7,18:50,UTC,7,1005.4,84,0,-1,16.9,14.3,39190,116,4.4,3.2
2019,8,7,19:00,UTC,7,1005.4,84,0,-1,17,14.3,34520,121,3.8,2.7
2019,8,7,19:10,UTC,7,1005.3,84,0,-1,16.9,14.3,42220,116,3.7,2.1
2019,8,7,19:20,UTC,7,1005.3,86,0,-1,16.7,14.3,41350,118,3.8,2.5
2019,8,7,19:30,UTC,5,1005.4,85,0,-1,16.8,14.3,35860,115,4.2,3
2019,8,7,19:40,UTC,3,1005.4,85,0,-1,16.7,14.1,39440,121,3.8,2.6
2019,8,7,19:50,UTC,1,1005.4,85,0,-1,16.6,14.1,37940,134,3,2
2019,8,7,20:00,UTC,3,1005.4,86,0,-1,16.6,14.3,37630,131,3,2
2019,8,7,20:10,UTC,5,1005.4,85,0,-1,16.8,14.2,42550,142,4,2.2
2019,8,7,20:20,UTC,7,1005.4,84,0,-1,16.8,14.1,39600,165,3.9,2.5
2019,8,7,20:30,UTC,7,1005.4,85,0,-1,16.7,14.1,36510,155,3.1,2
2019,8,7,20:40,UTC,7,1005.4,85,0,-1,16.6,14,35640,143,3.1,2.3
2019,8,7,20:50,UTC,8,1005.4,85,0,-1,16.5,14,47760,157,3.1,1.8
2019,8,7,21:00,UTC,7,1005.4,86,0,-1,16.3,14,37390,165,2.2,1.4
2019,8,7,21:10,UTC,5,1005.4,88,0,-1,16,14,35720,139,1.8,1.3
2019,8,7,21:20,UTC,5,1005.5,89,0,-1,15.7,13.8,35880,157,2.4,1.5
2019,8,7,21:30,UTC,5,1005.5,90,0,-1,15.6,13.9,19620,163,2.1,1.1
2019,8,7,21:40,UTC,5,1005.5,90,0,-1,15.8,14.1,35100,170,2,1
2019,8,7,21:50,UTC,7,1005.5,89,0,-1,15.9,14.1,36440,141,1.3,0.6
2019,8,7,22:00,UTC,5,1005.4,88,0,-1,16.1,14.1,35180,0,0,0
2019,8,7,22:10,UTC,3,1005.4,89,0,-1,15.9,14,37990,267,1.8,0.9
2019,8,7,22:20,UTC,5,1005.3,89,0,-1,16,14.3,26170,245,2.3,1.8
2019,8,7,22:30,UTC,3,1005.3,90,0,-1,16,14.3,33020,240,2,1.4
2019,8,7,22:40,UTC,3,1005.2,90,0,-1,16,14.4,29820,259,2.1,1.4
2019,8,7,22:50,UTC,5,1005.2,89,0,-1,16.1,14.4,33550,295,1.8,1
2019,8,7,23:00,UTC,7,1005.2,89,0,-1,16.1,14.3,29260,44,2.2,1.5
2019,8,7,23:10,UTC,5,1005.2,89,0,-1,16,14.2,29740,64,2.4,1.7
2019,8,7,23:20,UTC,5,1005.3,90,0,-1,15.8,14.1,25910,31,1.5,0.7
2019,8,7,23:30,UTC,5,1005.3,91,0,-1,15.8,14.3,25140,320,1.6,1.1
2019,8,7,23:40,UTC,7,1005.3,91,0,-1,15.7,14.3,24490,347,1.7,1.3
2019,8,7,23:50,UTC,7,1005.2,91,0,-1,15.7,14.2,25420,353,1.7,1.1
2019,8,8,00:00,UTC,7,1005.2,91,0,-1,15.5,14.1,25850,350,1.5,1.1
2019,8,8,00:10,UTC,5,1005.1,92,0,-1,15.6,14.2,23150,24,1.4,0.8
2019,8,8,00:20,UTC,1,1005.2,92,0,-1,15.3,13.9,20890,55,2,1.5
2019,8,8,00:30,UTC,1,1005.1,93,0,-1,15.1,14,19920,65,1.8,1.3
2019,8,8,00:40,UTC,0,1005.2,94,0,-1,14.7,13.7,16750,0,0,0
2019,8,8,00:50,UTC,1,1005.2,95,0,-1,14.4,13.6,14210,146,1,0.6
2019,8,8,01:00,UTC,1,1005.3,95,0,-1,14.3,13.5,12700,0,0,0
2019,8,8,01:10,UTC,1,1005.4,96,0,-1,14.2,13.6,12160,81,1.3,1
2019,8,8,01:20,UTC,1,1005.4,96,0,-1,14.3,13.8,11560,101,1,0.6
2019,8,8,01:30,UTC,1,1005.4,97,0,-1,14.4,13.9,11590,0,0,0
2019,8,8,01:40,UTC,5,1005.3,97,0,-1,14.5,14.1,12750,81,1.2,0.7
2019,8,8,01:50,UTC,7,1005.2,97,0,-1,14.8,14.3,14000,0,0,0
2019,8,8,02:00,UTC,7,1005.3,97,0,-1,15,14.5,11780,62,1.3,1
2019,8,8,02:10,UTC,7,1005.4,96,0.6,-1,15,14.4,8780,140,1.4,0.6
2019,8,8,02:20,UTC,8,1005.3,95,0.4,-1,14.9,14.1,8310,109,1.7,0.7
2019,8,8,02:30,UTC,7,1005.3,95,0,-1,14.8,14,10980,91,1.9,1.6
2019,8,8,02:40,UTC,7,1005.3,96,0,-1,14.6,13.9,10220,76,2,1.4
2019,8,8,02:50,UTC,7,1005.4,96,0,-1,14.7,14,11220,61,1.9,1.2
2019,8,8,03:00,UTC,7,1005.3,96,0,-1,14.9,14.2,10480,77,1.4,1
2019,8,8,03:10,UTC,7,1005.3,96,5.1,-1,14.9,14.3,2310,122,1.7,1.1
2019,8,8,03:20,UTC,7,1005.2,96,6.2,-1,14.8,14.3,2660,93,2.2,1.7
2019,8,8,03:30,UTC,5,1005.1,97,3.7,-1,14.8,14.3,3580,97,2.4,1.7
2019,8,8,03:40,UTC,5,1005,97,1.9,-1,14.9,14.5,4240,67,2.5,1.9
2019,8,8,03:50,UTC,7,1005,97,0.1,-1,15.1,14.6,5440,96,2.6,1.9
2019,8,8,04:00,UTC,7,1005,97,0,-1,15.2,14.7,5610,111,2.8,2.3
2019,8,8,04:10,UTC,5,1004.9,97,0,-1,15.1,14.7,4230,109,2.7,2.1
2019,8,8,04:20,UTC,1,1004.9,97,0,-1,15.1,14.7,6360,104,2.7,1.7
2019,8,8,04:30,UTC,1,1004.9,98,0,-1,15.3,14.9,3720,116,2.2,1.5
2019,8,8,04:40,UTC,0,1004.9,98,0,-1,15.6,15.3,3280,95,1.5,0.9
2019,8,8,04:50,UTC,0,1004.9,98,0,-1,16.6,16.2,10500,82,2.1,1.5
2019,8,8,05:00,UTC,0,1004.8,95,0,-1,17,16.2,11580,107,2,1.4
2019,8,8,05:10,UTC,0,1004.8,93,0,-1,16.7,15.6,9080,96,2,1.3
2019,8,8,05:20,UTC,1,1004.8,92,0,-1,17.4,16.1,9790,100,1.9,1.4
2019,8,8,05:30,UTC,3,1004.8,87,0,-1,18.3,16.1,2870,103,1.7,1
2019,8,8,05:40,UTC,5,1004.8,87,0,-1,17.6,15.4,6990,225,1.6,0.7
2019,8,8,05:50,UTC,5,1004.8,91,0,-1,17.2,15.7,6230,268,2.7,1.3
2019,8,8,06:00,UTC,3,1004.8,88,0,-1,17.4,15.4,23690,259,2.8,1.6
2019,8,8,06:10,UTC,5,1004.8,82,0,-1,17.6,14.4,29810,269,1.6,1
2019,8,8,06:20,UTC,5,1004.9,84,0,-1,17.4,14.7,25520,252,3.2,1.5
2019,8,8,06:30,UTC,3,1004.9,82,0,-1,17.7,14.6,33040,223,3.9,2.5
2019,8,8,06:40,UTC,5,1004.9,85,0,-1,17.3,14.7,27540,232,4.2,2.7
2019,8,8,06:50,UTC,5,1004.8,83,0,-1,17.8,15,24570,219,4.1,2.8
2019,8,8,07:00,UTC,3,1004.8,82,0,-1,17.7,14.5,28490,199,3.5,2.3
2019,8,8,07:10,UTC,1,1004.8,81,0,-1,18,14.7,33700,204,4.6,2.5
2019,8,8,07:20,UTC,1,1004.7,82,0,-1,18.5,15.3,28880,217,4.4,2.4
2019,8,8,07:30,UTC,5,1004.6,80,0,-1,18.5,15,30580,210,4,2.7
2019,8,8,07:40,UTC,5,1004.8,80,0,-1,18.2,14.7,27100,211,4.3,2.4
2019,8,8,07:50,UTC,3,1005,84,0,-1,18.1,15.4,29110,197,4.8,2.7
2019,8,8,08:00,UTC,3,1004.8,80,0,-1,18.8,15.1,23100,186,5.4,3.1
2019,8,8,08:10,UTC,1,1004.8,78,0,-1,18.9,14.9,32430,187,5.6,3.7
2019,8,8,08:20,UTC,1,1004.8,75,0,-1,19,14.5,29410,185,5.3,3.6
2019,8,8,08:30,UTC,1,1004.6,78,0,-1,18.9,15.1,26650,185,5.7,3.6
2019,8,8,08:40,UTC,1,1004.7,76,0,-1,19,14.7,33010,185,4.9,3.3
2019,8,8,08:50,UTC,1,1004.8,75,0,-1,18.9,14.3,28080,176,5.2,3.3
2019,8,8,09:00,UTC,1,1004.7,76,0,-1,19.1,14.7,34110,196,5.1,3.3
2019,8,8,09:10,UTC,1,1004.7,76,0,-1,19.8,15.5,31150,192,4.8,2.9
2019,8,8,09:20,UTC,1,1004.5,75,0,-1,19.5,15,33680,193,4.7,2.8
2019,8,8,09:30,UTC,0,1004.5,71,0,-1,20.3,14.9,28560,176,4.2,2.6
2019,8,8,09:40,UTC,0,1004.5,70,0,-1,20.3,14.6,31490,195,4.5,2.6
2019,8,8,09:50,UTC,0,1004.6,72,0,-1,20,14.7,27840,206,4.4,2.9
2019,8,8,10:00,UTC,0,1004.4,71,0,-1,19.8,14.5,29930,188,5,2.7
2019,8,8,10:10,UTC,0,1004.4,71,0,-1,20,14.6,30550,192,4,2.5
2019,8,8,10:20,UTC,0,1004.4,69,0,-1,20.3,14.5,33980,207,4.2,2.2
2019,8,8,10:30,UTC,0,1004.3,74,0,-1,19.8,15,26930,174,4.4,2.9
2019,8,8,10:40,UTC,0,1004.3,71,0,-1,20.4,14.9,27830,177,5,3
2019,8,8,10:50,UTC,0,1004.3,70,0,-1,20.4,14.6,32520,188,4.4,2.6
2019,8,8,11:00,UTC,0,1004.2,73,0,-1,19.8,14.8,29690,177,4.9,3
2019,8,8,11:10,UTC,0,1004.1,73,0,-1,20.2,15.2,33100,175,4.7,3.2
2019,8,8,11:20,UTC,0,1004.1,73,0,-1,19.9,14.9,29120,163,5,3.2
2019,8,8,11:30,UTC,0,1004.1,77,0,-1,19.3,15.1,25550,160,5.1,3.2
2019,8,8,11:40,UTC,0,1004.1,76,0,-1,19.6,15.2,24290,161,5.7,3.9
2019,8,8,11:50,UTC,0,1004,74,0,-1,20.1,15.4,33320,168,5.5,4.2
2019,8,8,12:00,UTC,1,1004,77,0,-1,19,14.9,31750,168,5.5,3.5
2019,8,8,12:10,UTC,0,1004.1,77,0,-1,19.4,15.3,26880,168,5.7,4.2
2019,8,8,12:20,UTC,0,1004,78,0,-1,18.9,15,24540,173,6.3,4.3
2019,8,8,12:30,UTC,0,1004,76,0,-1,19.2,14.9,33530,180,5.2,3.3
2019,8,8,12:40,UTC,0,1004,78,0,-1,19.5,15.7,31940,175,4.9,3.3
2019,8,8,12:50,UTC,1,1004,79,0,-1,19,15.2,29830,175,4.7,3.2
2019,8,8,13:00,UTC,1,1004,79,0,-1,19.4,15.7,28760,171,5,3.5
2019,8,8,13:10,UTC,1,1004,78,0,-1,19.4,15.5,25570,176,5.6,3.8
2019,8,8,13:20,UTC,1,1003.9,78,0,-1,19.3,15.4,32270,183,5,3.1
2019,8,8,13:30,UTC,,,,,,,,,170,5.5,3.7
2019,8,8,13:40,UTC,1,1004.1,80,0,-1,18.9,15.5,33230,173,5.5,3.4
2019,8,8,13:50,UTC,1,1004.2,78,0,-1,19.1,15.1,31860,175,5.8,3.6
2019,8,8,14:00,UTC,3,1004.1,79,0,-1,19.1,15.4,33480,181,5,3.2
2019,8,8,14:10,UTC,5,1004.1,81,0,-1,19.1,15.7,31670,189,5.3,3.1
2019,8,8,14:20,UTC,7,1004.2,81,0,-1,19,15.6,24400,181,4.8,3.2
2019,8,8,14:30,UTC,7,1004.2,83,0,-1,18.7,15.7,29460,169,6.3,3.8
2019,8,8,14:40,UTC,7,1004.1,82,0,-1,18.6,15.5,29470,179,5.5,3.7
2019,8,8,14:50,UTC,7,1004,82,0,-1,18.7,15.4,33540,177,5.7,4.2
2019,8,8,15:00,UTC,5,1004,84,0,-1,18.5,15.7,26910,183,5.8,3.9
2019,8,8,15:10,UTC,5,1003.9,82,0,-1,18.2,15.1,33730,179,5.6,3.9
2019,8,8,15:20,UTC,5,1003.8,82,0,-1,18.3,15.2,33090,188,5.6,3.5
2019,8,8,15:30,UTC,5,1003.8,82,0,-1,18.3,15.2,33510,185,5.8,3.7
2019,8,8,15:40,UTC,7,1003.9,81,0,-1,18.2,15,31600,184,5.4,3.3
2019,8,8,15:50,UTC,7,1003.9,83,0,-1,18.3,15.3,27060,199,5.1,3.4
2019,8,8,16:00,UTC,7,1003.8,82,0,-1,18.4,15.3,28210,212,4.3,2.9
2019,8,8,16:10,UTC,5,1003.7,83,0,-1,18.4,15.5,28670,219,5.8,3.2
2019,8,8,16:20,UTC,7,1003.7,82,0,-1,18.4,15.2,29840,233,3.8,2.3
2019,8,8,16:30,UTC,7,1003.7,81,0,-1,18.6,15.3,26970,220,5.1,3.3
2019,8,8,16:40,UTC,7,1003.7,82,0,-1,18.5,15.4,31290,234,4,2.5
2019,8,8,16:50,UTC,5,1003.7,82,0,-1,18.5,15.4,23890,216,4.1,3
2019,8,8,17:00,UTC,7,1003.6,82,0,-1,18.4,15.2,30220,203,4.8,3.1
2019,8,8,17:10,UTC,7,1003.7,82,0,-1,18.3,15.2,24840,227,4.2,3.1
2019,8,8,17:20,UTC,7,1003.8,82,0,-1,18.4,15.3,26870,230,4.1,2.3
2019,8,8,17:30,UTC,7,1003.9,83,0,-1,18.2,15.3,25390,234,3.7,2.4
2019,8,8,17:40,UTC,7,1003.8,82,0,-1,18.3,15.2,30220,218,3.9,2.6
2019,8,8,17:50,UTC,5,1003.9,83,0,-1,18.2,15.2,32420,217,3.3,2.2
2019,8,8,18:00,UTC,7,1003.9,84,0,-1,18,15.3,28370,207,2.9,1.8
2019,8,8,18:10,UTC,7,1003.7,84,0,-1,18.1,15.4,32260,217,2.8,1.6
2019,8,8,18:20,UTC,7,1003.7,86,0,-1,17.9,15.4,31500,217,2.5,1.6
2019,8,8,18:30,UTC,7,1003.8,87,0,-1,17.6,15.4,24810,244,2.1,1
2019,8,8,18:40,UTC,7,1003.8,87,0,-1,17.5,15.4,30300,284,1.7,0.9
2019,8,8,18:50,UTC,7,1003.8,88,0,-1,17.5,15.4,32550,263,1.8,1.2
2019,8,8,19:00,UTC,8,1003.6,88,0,-1,17.5,15.4,30900,258,2.5,1.8
2019,8,8,19:10,UTC,7,1003.6,88,0,-1,17.3,15.4,13230,258,2.4,1.7
2019,8,8,19:20,UTC,7,1003.6,88,0,-1,17.4,15.3,30660,280,2.7,2
2019,8,8,19:30,UTC,7,1003.7,88,0,-1,17.3,15.2,27980,289,3.3,1.9
2019,8,8,19:40,UTC,7,1003.7,88,0,-1,17.2,15.1,31410,293,3,2
2019,8,8,19:50,UTC,7,1003.6,88,0,-1,17.1,15,29010,320,2.6,1.7
2019,8,8,20:00,UTC,7,1003.6,89,0,-1,17,15.2,22440,335,3.4,2.8
2019,8,8,20:10,UTC,5,1003.6,89,0,-1,16.9,15.1,24670,324,3,2.2
2019,8,8,20:20,UTC,7,1003.7,89,0,-1,16.9,15.1,24480,331,3.1,2.2
2019,8,8,20:30,UTC,7,1003.7,89,0,-1,17,15.2,17150,327,3.1,2.1
2019,8,8,20:40,UTC,7,1003.8,89,0,-1,17,15.1,27670,327,3.4,2.4
2019,8,8,20:50,UTC,7,1003.8,87,0,-1,16.9,14.7,27760,341,3.2,2.4
2019,8,8,21:00,UTC,8,1003.8,86,0,-1,16.8,14.4,32610,1,2.7,1.8
2019,8,8,21:10,UTC,7,1003.7,86,0,-1,16.7,14.3,33520,28,2.9,1.8
2019,8,8,21:20,UTC,7,1003.7,83,0,-1,16.7,13.8,33190,33,3.8,2.1
2019,8,8,21:30,UTC,7,1003.7,81,0,-1,16.7,13.5,40580,16,3.3,1.7
2019,8,8,21:40,UTC,7,1003.7,82,0,-1,16.6,13.5,42610,356,2.7,1.7
2019,8,8,21:50,UTC,7,1003.8,83,0,-1,16.5,13.6,27050,346,2.9,2.1
2019,8,8,22:00,UTC,7,1003.8,83,0,-1,16.4,13.4,36150,346,2.4,1.5
2019,8,8,22:10,UTC,8,1003.8,83,0,-1,16.2,13.3,39400,354,2.2,1.5
2019,8,8,22:20,UTC,8,1003.7,83,0,-1,16.1,13.2,44290,6,3.1,1.6
2019,8,8,22:30,UTC,8,1003.6,83,0,-1,16.1,13.2,46310,25,3.5,1.7
2019,8,8,22:40,UTC,7,1003.6,83,0,-1,16.1,13.2,42420,360,3.3,1.4
2019,8,8,22:50,UTC,7,1003.6,83,0,-1,16.1,13.2,48240,16,2.9,1.5
2019,8,8,23:00,UTC,7,1003.6,85,0,-1,15.8,13.2,38010,353,2.3,1.5
2019,8,8,23:10,UTC,5,1003.6,86,0,-1,15.5,13.2,44510,20,2.2,1.3
2019,8,8,23:20,UTC,5,1003.6,86,0,-1,15.6,13.4,45340,15,2,1.2
2019,8,8,23:30,UTC,3,1003.6,87,0,-1,15.5,13.3,37210,357,2.3,1.2
2019,8,8,23:40,UTC,3,1003.7,88,0,-1,15.3,13.3,37180,313,1.4,0.8
2019,8,8,23:50,UTC,1,1003.7,89,0,-1,15.2,13.3,36260,330,1.8,1.3
2019,8,9,00:00,UTC,1,1003.7,90,0,-1,15,13.4,36610,327,2.1,1.6
2019,8,9,00:10,UTC,1,1003.7,91,0,-1,14.9,13.4,32580,321,2.8,1.9
2019,8,9,00:20,UTC,1,1003.8,91,0,-1,14.8,13.4,30230,322,3,2
2019,8,9,00:30,UTC,3,1003.8,91,0,-1,14.6,13.2,26370,323,2.6,1.9
2019,8,9,00:40,UTC,5,1003.8,92,0,-1,14.5,13.1,31970,333,2.6,2.1
2019,8,9,00:50,UTC,3,1003.9,92,0,-1,14.3,13.1,32430,341,2.1,1.8
2019,8,9,01:00,UTC,5,1004,92,0,-1,14.5,13.3,37740,335,2,1.6
2019,8,9,01:10,UTC,5,1004,92,0,-1,14.8,13.5,29590,329,2.4,1.5
2019,8,9,01:20,UTC,7,1003.9,91,0,-1,14.9,13.5,31280,336,2.2,1.4
2019,8,9,01:30,UTC,8,1003.9,91,0,-1,14.7,13.3,26670,327,1.7,1
2019,8,9,01:40,UTC,7,1004,92,0,-1,14.6,13.3,28660,340,1.7,1
2019,8,9,01:50,UTC,7,1003.9,92,0,-1,14.7,13.3,28890,337,2.6,1.3
2019,8,9,02:00,UTC,7,1004,92,0,-1,14.7,13.4,28970,329,2.1,1.5
2019,8,9,02:10,UTC,7,1004,92,0,-1,14.6,13.3,28910,331,2.1,1.3
2019,8,9,02:20,UTC,5,1004.1,91,0,-1,14.6,13.2,32970,324,2.2,1.2
2019,8,9,02:30,UTC,3,1004.2,92,0,-1,14.5,13.2,30830,342,2.7,1.7
2019,8,9,02:40,UTC,5,1004.2,91,0,-1,14.6,13.2,31140,339,2.7,1.6
2019,8,9,02:50,UTC,5,1004.3,91,0,-1,14.5,13,34550,352,2,0.7
2019,8,9,03:00,UTC,5,1004.3,91,0,-1,14.4,13,30870,332,2.9,1.4
2019,8,9,03:10,UTC,1,1004.4,91,0,-1,14.5,13.1,30760,340,2.7,1.9
2019,8,9,03:20,UTC,1,1004.5,90,0,-1,14.6,13,35280,342,2.6,1.6
2019,8,9,03:30,UTC,1,1004.5,91,0,-1,14.5,13.1,29270,348,2.5,1.5
2019,8,9,03:40,UTC,3,1004.6,91,0,-1,14.6,13.1,27720,349,3.2,2
2019,8,9,03:50,UTC,5,1004.5,91,0,-1,14.7,13.2,26640,348,3.4,1.5
2019,8,9,04:00,UTC,7,1004.6,91,0,-1,14.9,13.4,27880,20,3.6,1.5
2019,8,9,04:10,UTC,7,1004.6,89,0,-1,15.1,13.3,26680,5,3,1.5
2019,8,9,04:20,UTC,7,1004.6,89,0,-1,15.1,13.4,27120,18,3.7,1.9
2019,8,9,04:30,UTC,7,1004.7,89,0,-1,15.2,13.5,28710,359,2.8,1.1
2019,8,9,04:40,UTC,7,1004.6,89,0,-1,15.4,13.6,26230,349,1.5,0.8
2019,8,9,04:50,UTC,7,1004.6,87,0,-1,15.6,13.5,28440,29,2.9,1.5
2019,8,9,05:00,UTC,7,1004.7,85,0,-1,15.8,13.3,31360,20,3.6,1.9
2019,8,9,05:10,UTC,7,1004.8,85,0,-1,15.9,13.4,34430,14,3.2,1.7
2019,8,9,05:20,UTC,7,1004.9,85,0,-1,16.1,13.5,31260,18,3.7,2.2
2019,8,9,05:30,UTC,5,1004.8,83,0,-1,16.1,13.3,37910,30,4.1,2.8
2019,8,9,05:40,UTC,5,1004.9,83,0,-1,16.4,13.4,36390,27,4,2.1
2019,8,9,05:50,UTC,7,1005,83,0,-1,16.5,13.5,35070,7,3.4,1.9
2019,8,9,06:00,UTC,7,1005,83,0,-1,16.3,13.4,34360,13,3.5,2
2019,8,9,06:10,UTC,7,1005.1,84,0,-1,16.5,13.7,33960,11,3.1,1.7
2019,8,9,06:20,UTC,7,1005.1,82,0,-1,16.7,13.6,33340,15,3.2,1.8
2019,8,9,06:30,UTC,7,1005.1,81,0,-1,17,13.7,31970,20,3.5,2.2
2019,8,9,06:40,UTC,3,1005.2,78,0,-1,17.9,14,32670,27,3.5,2
2019,8,9,06:50,UTC,5,1005.2,75,0,-1,18.7,14.1,34050,16,3.8,2.3
2019,8,9,07:00,UTC,3,1005.3,74,0,-1,18.3,13.6,34650,44,4.1,2.7
2019,8,9,07:10,UTC,5,1005.3,74,0,-1,18.5,13.7,32800,39,3.1,2
2019,8,9,07:20,UTC,1,1005.3,72,0,-1,19.1,13.9,37250,36,3.6,1.9
2019,8,9,07:30,UTC,1,1005.4,72,0,-1,19.3,14.2,34950,55,4.6,2.7
2019,8,9,07:40,UTC,0,1005.5,72,0,-1,18.9,13.7,33640,48,4.5,2.6
2019,8,9,07:50,UTC,0,1005.5,73,0,-1,19,14,33740,57,4.7,2.7
2019,8,9,08:00,UTC,1,1005.6,72,0,-1,19.2,13.9,37980,72,4.1,2.8
2019,8,9,08:10,UTC,1,1005.7,71,0,-1,19.7,14.4,38630,78,4.7,3.1
2019,8,9,08:20,UTC,3,1005.8,70,0,-1,19.8,14.1,34680,80,4.5,2.8
2019,8,9,08:30,UTC,5,1005.9,68,0,-1,19.7,13.7,35390,52,4.7,2.6
2019,8,9,08:40,UTC,7,1006,69,0,-1,19.8,14,37460,67,4.1,2.8
2019,8,9,08:50,UTC,7,1006.1,71,0,-1,19.5,14.1,40380,48,4,2.1
2019,8,9,09:00,UTC,7,1006.1,69,0,-1,19.8,14,37880,80,4.2,3
2019,8,9,09:10,UTC,7,1006.1,67,0,-1,19.7,13.5,40600,79,4.4,3.4
2019,8,9,09:20,UTC,7,1006.1,68,0,-1,19.8,13.7,34670,68,3.7,2.5
2019,8,9,09:30,UTC,7,1006.2,67,0,-1,19.9,13.6,38090,68,3.9,2
2019,8,9,09:40,UTC,7,1006.2,69,0,-1,20.1,14.2,36300,26,2.8,1.5
2019,8,9,09:50,UTC,7,1006.3,62,0,-1,20.4,13,36540,328,5,2.2
2019,8,9,10:00,UTC,7,1006.3,64,0,-1,20.4,13.3,44520,322,4,2.1
2019,8,9,10:10,UTC,5,1006.3,61,0,-1,20.3,12.5,43350,6,4,1.7
2019,8,9,10:20,UTC,5,1006.4,59,0,-1,20.3,12.1,42480,348,3.8,1.9
2019,8,9,10:30,UTC,5,1006.4,59,0,-1,20.6,12.3,36960,322,4.1,1.8
2019,8,9,10:40,UTC,3,1006.3,59,0,-1,20.8,12.5,42130,21,3.4,1.9
2019,8,9,10:50,UTC,1,1006.4,58,0,-1,20.9,12.2,47020,25,5.1,2.5
2019,8,9,11:00,UTC,3,1006.4,57,0,-1,21.5,12.7,38550,359,5.3,3.6
2019,8,9,11:10,UTC,1,1006.4,56,0,-1,21.2,12.2,40330,351,5.2,2.5
2019,8,9,11:20,UTC,1,1006.4,56,0,-1,21.5,12.3,39180,330,5.4,2.3
2019,8,9,11:30,UTC,1,1006.4,55,0,-1,21.5,12.1,42580,346,6.5,3.2
2019,8,9,11:40,UTC,3,1006.5,56,0,-1,21.1,12.1,45990,24,4.5,2.6
2019,8,9,11:50,UTC,3,1006.5,54,0,-1,21,11.5,45520,37,5.5,2.4
2019,8,9,12:00,UTC,3,1006.5,55,0,-1,21.1,11.6,40560,29,6.4,1.6
2019,8,9,12:10,UTC,5,1006.6,68,0,-1,20.5,14.3,33390,353,2.9,1.4
2019,8,9,12:20,UTC,5,1006.6,67,0,-1,20.2,13.8,30190,212,4.1,1.9
2019,8,9,12:30,UTC,3,1006.7,69,0,-1,20.3,14.4,30300,174,2.8,1.4
2019,8,9,12:40,UTC,5,1006.6,64,0,-1,21,13.9,31750,213,4.6,2.8
2019,8,9,12:50,UTC,5,1006.7,66,0,-1,20.5,13.9,41320,228,4.3,2.9
2019,8,9,13:00,UTC,5,1006.8,67,0,-1,20.3,14.1,35440,166,5.1,2.2
2019,8,9,13:10,UTC,5,1006.9,66,0,-1,20.7,14.1,38820,177,4.8,3.3
2019,8,9,13:20,UTC,5,1007,70,0,-1,19.9,14.3,34860,188,5.1,3.1
2019,8,9,13:30,UTC,5,1007.1,69,0,-1,20.1,14.3,38140,223,5,3.4
2019,8,9,13:40,UTC,3,1007.2,68,0,-1,20.7,14.5,35960,218,4.7,3.7
2019,8,9,13:50,UTC,1,1007.3,68,0,-1,20.3,14.1,38540,212,5.5,4.2
2019,8,9,14:00,UTC,1,1007.4,68,0,-1,20.1,14.1,27550,220,6.6,4.5
2019,8,9,14:10,UTC,1,1007.5,69,0,-1,20.4,14.5,31320,218,6.7,4.7
2019,8,9,14:20,UTC,1,1007.6,71,0,-1,20,14.5,36810,221,6.9,4.6
2019,8,9,14:30,UTC,1,1007.7,73,0,-1,20.1,15.1,29020,219,6.8,5.2
2019,8,9,14:40,UTC,0,1007.7,72,0,-1,20.2,14.9,29550,235,7.4,5.1
2019,8,9,14:50,UTC,3,1007.7,72,0,-1,19.8,14.7,32990,230,6.5,4.7
2019,8,9,15:00,UTC,5,1007.7,74,0,-1,19.9,15.1,30820,233,5.5,3.4
2019,8,9,15:10,UTC,7,1007.9,76,0,-1,20,15.7,29350,229,6.2,3.5
2019,8,9,15:20,UTC,7,1008,75,0,-1,20.1,15.5,32360,222,6,3.8
2019,8,9,15:30,UTC,7,1007.9,73,0,-1,20.3,15.2,35540,227,5.2,3.1
2019,8,9,15:40,UTC,7,1008,74,0,-1,19.8,14.9,37970,249,5.1,3.5
2019,8,9,15:50,UTC,7,1008.1,73,0,-1,19.5,14.6,49500,268,5.5,3.6
2019,8,9,16:00,UTC,7,1008.2,75,0,-1,19.4,14.9,39430,264,4.8,3.7
2019,8,9,16:10,UTC,7,1008.3,75,0,-1,19.1,14.6,37820,259,4.9,3.5
2019,8,9,16:20,UTC,7,1008.4,77,0,-1,18.9,14.8,44180,261,4.3,2.3
2019,8,9,16:30,UTC,7,1008.5,75,0,-1,18.9,14.3,32830,281,5.1,3.1
2019,8,9,16:40,UTC,7,1008.6,74,0,-1,19,14.2,48490,283,4.5,3.6
2019,8,9,16:50,UTC,7,1008.6,70,0,-1,18.7,13.1,43440,284,5.3,3.5
2019,8,9,17:00,UTC,5,1008.7,74,0,-1,18.3,13.5,45750,289,4.5,3.2
2019,8,9,17:10,UTC,5,1008.8,75,0,-1,18.1,13.6,50000,316,3.8,2.1
2019,8,9,17:20,UTC,5,1008.9,73,0,-1,18.5,13.7,37020,2,3.8,2.3
2019,8,9,17:30,UTC,5,1009,71,0,-1,18.5,13.2,50000,340,4.5,2.9
2019,8,9,17:40,UTC,1,1009,72,0,-1,18.4,13.1,50000,351,3.5,1.5
2019,8,9,17:50,UTC,1,1009.1,73,0,-1,18.1,13.2,48250,325,2.5,1.7
2019,8,9,18:00,UTC,1,1009.2,73,0,-1,17.8,13,48120,339,1.6,0.6
2019,8,9,18:10,UTC,3,1009.3,79,0,-1,17.4,13.7,50000,0,0,0
2019,8,9,18:20,UTC,5,1009.4,79,0,-1,17.4,13.7,44700,107,2.2,1
2019,8,9,18:30,UTC,7,1009.6,79,0,-1,17.9,14.1,43920,98,2.8,2.1
2019,8,9,18:40,UTC,7,1009.7,77,0,-1,17.9,13.8,42580,95,2.2,1.4
2019,8,9,18:50,UTC,7,1009.8,81,0,-1,17.4,14.2,40670,118,1.7,1
2019,8,9,19:00,UTC,3,1009.8,80,0,-1,16.9,13.4,36180,144,1.1,0.8
2019,8,9,19:10,UTC,1,1010,84,0,-1,16.7,13.9,46390,0,0,0
2019,8,9,19:20,UTC,1,1010.1,83,0,-1,16.3,13.5,41600,0,0,0
2019,8,9,19:30,UTC,0,1010.2,86,0,-1,16.2,13.8,42580,304,1.5,0.9
2019,8,9,19:40,UTC,1,1010.2,85,0,-1,15.9,13.3,50000,296,1.2,1
2019,8,9,19:50,UTC,1,1010.3,87,0,-1,15.8,13.7,24120,318,1.6,1.3
2019,8,9,20:00,UTC,1,1010.4,87,0,-1,15.6,13.4,40050,337,1.8,1.5
2019,8,9,20:10,UTC,1,1010.5,88,0,-1,15.5,13.5,40130,326,1.8,1.5
2019,8,9,20:20,UTC,0,1010.6,89,0,-1,15.6,13.8,35960,334,2.4,2
2019,8,9,20:30,UTC,0,1010.7,90,0,-1,15.4,13.7,31730,321,2.3,1.8
2019,8,9,20:40,UTC,0,1010.7,90,0,-1,15.2,13.5,30510,311,2.1,1.7
2019,8,9,20:50,UTC,1,1010.8,90,0,-1,15.1,13.5,34170,327,2.3,1.7
2019,8,9,21:00,UTC,1,1010.9,90,0,-1,15,13.4,32780,38,2.1,1
2019,8,9,21:10,UTC,1,1011,90,0,-1,14.8,13.2,37500,53,1.7,0.8
2019,8,9,21:20,UTC,0,1011,91,0,-1,14.6,13.1,34510,0,0,0
2019,8,9,21:30,UTC,0,1011.1,91,0,-1,14.5,13,37170,0,0,0
2019,8,9,21:40,UTC,0,1011.2,91,0,-1,14.4,13,34370,327,1.6,1
2019,8,9,21:50,UTC,0,1011.2,92,0,-1,14.3,13,34910,332,1.8,1.4
2019,8,9,22:00,UTC,0,1011.2,92,0,-1,14.4,13.1,31760,326,1.5,0.9
2019,8,9,22:10,UTC,0,1011.3,92,0,-1,14.1,12.9,31250,0,0,0
2019,8,9,22:20,UTC,0,1011.4,93,0,-1,14.1,12.9,35770,0,0,0
2019,8,9,22:30,UTC,0,1011.5,93,0,-1,14,12.8,30480,83,1.2,0.8
2019,8,9,22:40,UTC,0,1011.5,93,0,-1,13.8,12.7,28750,59,1.7,0.9
2019,8,9,22:50,UTC,0,1011.5,94,0,-1,13.8,12.8,28620,48,1.6,0.8
2019,8,9,23:00,UTC,0,1011.6,93,0,-1,13.7,12.6,29670,38,1.4,0.7
2019,8,9,23:10,UTC,0,1011.7,94,0,-1,13.7,12.6,28160,42,1.5,0.9
2019,8,9,23:20,UTC,0,1011.8,94,0,-1,13.6,12.6,25590,0,0,0
2019,8,9,23:30,UTC,0,1011.8,94,0,-1,13.5,12.5,25490,0,0,0
2019,8,9,23:40,UTC,0,1011.8,95,0,-1,13.5,12.7,22880,33,1.2,0.7
2019,8,9,23:50,UTC,0,1011.9,95,0,-1,13.4,12.6,22990,24,0.8,0.5
2019,8,10,00:00,UTC,0,1012,95,0,-1,13.2,12.4,20530,9,0.8,0.5
2019,8,10,00:10,UTC,0,1012,95,0,-1,13.1,12.4,19550,345,1.4,0.9
2019,8,10,00:20,UTC,0,1012,96,0,-1,13.1,12.5,18670,329,1.5,1
2019,8,10,00:30,UTC,0,1012.1,96,0,-1,13.1,12.5,19660,338,1.3,0.9
2019,8,10,00:40,UTC,0,1012,96,0,-1,13,12.4,16100,350,1.3,0.9
2019,8,10,00:50,UTC,0,1012,96,0,-1,12.9,12.3,19650,38,1.4,0.8
2019,8,10,01:00,UTC,0,1012,96,0,-1,12.8,12.3,18820,37,1.2,0.7
2019,8,10,01:10,UTC,0,1012,96,0,-1,12.7,12.2,18270,33,1.7,0.8
2019,8,10,01:20,UTC,0,1012,96,0,-1,12.7,12.1,21340,69,1.5,0.8
2019,8,10,01:30,UTC,0,1012.1,96,0,-1,12.6,12,20310,51,1.6,1
2019,8,10,01:40,UTC,0,1012.2,97,0,-1,12.6,12.1,17300,41,1.7,0.9
2019,8,10,01:50,UTC,0,1012.2,97,0,-1,12.6,12.1,17260,50,2.1,1.1
2019,8,10,02:00,UTC,0,1012.2,97,0,-1,12.7,12.2,13830,37,1.2,0.6
2019,8,10,02:10,UTC,0,1012.1,97,0,-1,12.5,12.1,17110,38,1.2,0.5
2019,8,10,02:20,UTC,0,1012.3,97,0,-1,12.5,12,15280,73,1.6,0.8
2019,8,10,02:30,UTC,0,1012.3,97,0,-1,12.5,12.1,14710,43,1.2,0.6
2019,8,10,02:40,UTC,0,1012.3,97,0,-1,12.5,12.1,15050,17,1.4,0.9
2019,8,10,02:50,UTC,0,1012.4,97,0,-1,12.6,12.1,16600,28,1.4,0.8
2019,8,10,03:00,UTC,0,1012.5,97,0,-1,12.6,12.2,17320,12,1.1,0.6
2019,8,10,03:10,UTC,0,1012.5,97,0,-1,12.6,12.1,18280,0,0,0
2019,8,10,03:20,UTC,0,1012.6,97,0,-1,12.8,12.3,21080,0,0,0
2019,8,10,03:30,UTC,0,1012.7,97,0,-1,13.1,12.6,27270,132,2.2,1.2
2019,8,10,03:40,UTC,0,1012.8,95,0,-1,13.6,12.8,32000,123,2.3,1.3
2019,8,10,03:50,UTC,0,1012.9,95,0,-1,13.5,12.8,21330,86,1.4,0.7
2019,8,10,04:00,UTC,0,1012.9,94,0,-1,14.2,13.2,27630,89,1.2,0.8
2019,8,10,04:10,UTC,0,1013,92,0,-1,14.6,13.3,32950,71,1.4,1
2019,8,10,04:20,UTC,0,1013.1,89,0,-1,15.9,14.1,29570,0,0,0
2019,8,10,04:30,UTC,0,1013.1,83,0,-1,16.9,14,40040,0,0,0
2019,8,10,04:40,UTC,0,1013.1,79,0,-1,17.1,13.5,36430,69,1,0.6
2019,8,10,04:50,UTC,0,1013.1,81,0,-1,17.5,14.2,38290,0,0,0
2019,8,10,05:00,UTC,0,1013,76,0,-1,18.2,13.9,34640,94,1.8,1.2
2019,8,10,05:10,UTC,0,1013.1,75,0,-1,18.5,13.9,42090,112,2.3,1.7
2019,8,10,05:20,UTC,0,1013.1,74,0,-1,19,14.4,43700,115,2.3,1.7
2019,8,10,05:30,UTC,0,1013.2,74,0,-1,19.6,14.9,38430,114,2.2,1.5
2019,8,10,05:40,UTC,0,1013.4,78,0,-1,19.3,15.3,37730,153,3.3,2.2
2019,8,10,05:50,UTC,0,1013.4,74,0,-1,19.6,15,43960,148,3.1,2
2019,8,10,06:00,UTC,0,1013.5,75,0,-1,19.7,15.2,44280,150,3.4,2.2
2019,8,10,06:10,UTC,0,1013.6,74,0,-1,19.7,15,38570,160,3.4,2.1
2019,8,10,06:20,UTC,0,1013.7,76,0,-1,19.7,15.3,38780,178,4,2
2019,8,10,06:30,UTC,1,1013.7,78,0,-1,19.3,15.3,38500,193,3.9,2.4
2019,8,10,06:40,UTC,1,1013.7,76,0,-1,19.5,15.1,38700,169,3.4,2.3
2019,8,10,06:50,UTC,1,1013.8,73,0,-1,19.7,14.7,36930,172,3.2,2
2019,8,10,07:00,UTC,0,1013.8,71,0,-1,20.4,15,41950,177,3.9,2.3
2019,8,10,07:10,UTC,0,1013.9,70,0,-1,20.3,14.6,40310,184,4.2,2.6
2019,8,10,07:20,UTC,0,1013.8,72,0,-1,19.8,14.6,42140,172,3.6,2.1
2019,8,10,07:30,UTC,0,1013.7,75,0,-1,19.9,15.3,40150,158,3.9,2.3
2019,8,10,07:40,UTC,0,1013.8,70,0,-1,20.8,15.1,35860,197,3.5,2.3
2019,8,10,07:50,UTC,0,1013.9,70,0,-1,20.1,14.4,37260,171,3.7,2
2019,8,10,08:00,UTC,0,1014,68,0,-1,20.3,14.1,35300,172,3.9,2.5
2019,8,10,08:10,UTC,0,1014,64,0,-1,20.1,13.2,43790,198,4.1,2.6
2019,8,10,08:20,UTC,0,1013.9,63,0,-1,20.8,13.5,45780,184,4.5,2.6
2019,8,10,08:30,UTC,0,1013.9,61,0,-1,20.9,13,46030,168,4.4,2.6
2019,8,10,08:40,UTC,0,1013.9,62,0,-1,21.3,13.7,40880,169,4,2.6
2019,8,10,08:50,UTC,0,1013.9,58,0,-1,21.1,12.6,40950,182,4.2,2.3
2019,8,10,09:00,UTC,0,1013.9,58,0,-1,21,12.4,40320,147,4.4,2.7
2019,8,10,09:10,UTC,0,1013.9,62,0,-1,21.1,13.6,36120,130,4.7,3.2
2019,8,10,09:20,UTC,0,1013.9,60,0,-1,21,12.9,37700,135,4.5,3.4
2019,8,10,09:30,UTC,0,1013.9,61,0,-1,21.4,13.6,44880,132,4.7,3.3
2019,8,10,09:40,UTC,0,1013.8,65,0,-1,21,14.2,42800,129,5.2,3.5
2019,8,10,09:50,UTC,0,1013.8,65,0,-1,21.1,14.3,39050,137,5,3.3
2019,8,10,10:00,UTC,0,1013.8,64,0,-1,21.5,14.3,41160,140,4.3,2.7
2019,8,10,10:10,UTC,0,1013.7,61,0,-1,21.6,13.9,34360,138,4.3,2.8
2019,8,10,10:20,UTC,0,1013.7,61,0,-1,21.2,13.4,48030,135,5,3.5
2019,8,10,10:30,UTC,0,1013.7,60,0,-1,21.4,13.4,39680,138,4.8,3.1
2019,8,10,10:40,UTC,0,1013.8,56,0,-1,21.4,12.2,38680,166,4.5,2.8
2019,8,10,10:50,UTC,0,1013.9,63,0,-1,21.7,14.3,37870,177,5.2,3.2
2019,8,10,11:00,UTC,0,1013.9,65,0,-1,21.8,14.9,38570,186,4.9,3.3
2019,8,10,11:10,UTC,0,1013.9,68,0,-1,21.3,15.1,36400,177,4.8,3.1
2019,8,10,11:20,UTC,0,1013.9,71,0,-1,21.2,15.6,36100,163,5.8,3.3
2019,8,10,11:30,UTC,0,1014,66,0,-1,20.9,14.3,33750,165,5.4,3.6
2019,8,10,11:40,UTC,0,1014,65,0,-1,21.5,14.5,37700,169,4.9,3.1
2019,8,10,11:50,UTC,0,1014.1,61,0,-1,21.3,13.5,38700,175,4.8,3.2
2019,8,10,12:00,UTC,0,1014.1,62,0,-1,21.2,13.7,49990,183,5.5,3.1
2019,8,10,12:10,UTC,0,1014,69,0,-1,20.4,14.4,31770,191,4.7,3.3
2019,8,10,12:20,UTC,0,1014,65,0,-1,20.3,13.6,41150,197,4.6,3.2
2019,8,10,12:30,UTC,0,1013.9,66,0,-1,20.1,13.5,43580,199,4.1,3
2019,8,10,12:40,UTC,0,1013.9,66,0,-1,20.2,13.5,45770,204,4.1,3
2019,8,10,12:50,UTC,0,1013.7,63,0,-1,20.3,12.9,42140,198,3.5,2.1
2019,8,10,13:00,UTC,0,1013.6,59,0,-1,20.6,12.2,38850,172,3.7,2.4
2019,8,10,13:10,UTC,1,1013.5,55,0,-1,20.8,11.3,40660,188,3.7,2.2
2019,8,10,13:20,UTC,1,1013.5,54,0,-1,21.3,11.6,36540,219,3.8,2.4
2019,8,10,13:30,UTC,1,1013.4,52,0,-1,21.3,11,47970,212,4.1,2.5
2019,8,10,13:40,UTC,0,1013.4,54,0,-1,21.5,11.7,47870,193,3.6,2.6
2019,8,10,13:50,UTC,0,1013.3,51,0,-1,21.1,10.5,47610,185,3.4,2.2
2019,8,10,14:00,UTC,0,1013.3,51,0,-1,21,10.5,49250,205,3.5,1.9
2019,8,10,14:10,UTC,0,1013.3,52,0,-1,20.8,10.7,37390,209,3.3,2.1
2019,8,10,14:20,UTC,0,1013.2,54,0,-1,20.9,11.2,43250,193,2.8,1.8
2019,8,10,14:30,UTC,1,1013.2,58,0,-1,20.5,11.9,43210,191,3.6,2
2019,8,10,14:40,UTC,0,1013.2,62,0,-1,20.2,12.6,50000,160,3.4,2.3
2019,8,10,14:50,UTC,0,1013.2,61,0,-1,20,12.2,49030,148,3.7,2.4
2019,8,10,15:00,UTC,0,1013.1,60,0,-1,20.1,12.1,48370,157,3.7,2.3
2019,8,10,15:10,UTC,1,1013.1,60,0,-1,20.1,12,50000,165,3.7,2.5
2019,8,10,15:20,UTC,1,1013,60,0,-1,20.1,12,50000,165,4.7,3.1
2019,8,10,15:30,UTC,1,1013.1,72,0,-1,20.1,14.7,41630,159,4.7,3.7
2019,8,10,15:40,UTC,0,1013,73,0,-1,19.4,14.4,50000,152,5.2,3.6
2019,8,10,15:50,UTC,1,1012.9,77,0,-1,18.9,14.9,45440,158,5.4,3.7
2019,8,10,16:00,UTC,1,1012.9,77,0,-1,19.2,15.1,50000,150,4.5,3.2
2019,8,10,16:10,UTC,1,1012.9,77,0,-1,19,14.9,43690,147,5,3.4
2019,8,10,16:20,UTC,1,1012.8,77,0,-1,19,14.9,50000,153,4.4,3.2
2019,8,10,16:30,UTC,,,,,,,,,147,4.8,3.3
2019,8,10,16:40,UTC,0,1012.8,77,0,-1,18.9,14.8,49310,155,5,3.5
2019,8,10,16:50,UTC,0,1012.8,78,0,-1,19,15,40190,144,3.9,2.5
2019,8,10,17:00,UTC,1,1012.8,79,0,-1,18.9,15.2,46970,163,5.1,3.2
2019,8,10,17:10,UTC,0,1012.8,79,0,-1,18.9,15.1,45350,162,4.2,2.6
2019,8,10,17:20,UTC,0,1012.8,78,0,-1,19,14.9,44390,158,4,2.5
2019,8,10,17:30,UTC,1,1012.8,79,0,-1,19,15.2,40430,166,5,3.3
2019,8,10,17:40,UTC,0,1012.8,81,0,-1,18.9,15.6,43110,155,5,2.5
2019,8,10,17:50,UTC,1,1012.8,81,0,-1,18.9,15.5,40370,159,5.1,3.3
2019,8,10,18:00,UTC,3,1012.8,79,0,-1,18.9,15.3,35170,168,5.2,3.2
2019,8,10,18:10,UTC,3,1012.8,78,0,-1,18.9,15.1,41530,169,4.6,2.5
2019,8,10,18:20,UTC,3,1012.7,79,0,-1,18.8,15.2,34730,159,4.2,2.8
2019,8,10,18:30,UTC,1,1012.8,79,0,-1,18.6,14.9,39690,159,3.5,2.3
2019,8,10,18:40,UTC,1,1012.8,80,0,-1,18.7,15.1,38790,164,3.8,2
2019,8,10,18:50,UTC,0,1012.8,80,0,-1,18.7,15.1,42820,156,3.6,2.3
2019,8,10,19:00,UTC,1,1012.8,79,0,-1,18.7,15,39420,161,3.9,2.3
2019,8,10,19:10,UTC,5,1012.8,79,0,-1,18.8,15.1,41850,169,3.7,2.4
2019,8,10,19:20,UTC,7,1012.8,80,0,-1,18.7,15.1,38910,163,3.3,2.3
2019,8,10,19:30,UTC,7,1012.8,81,0,-1,18.8,15.4,37870,178,4.8,2.7
2019,8,10,19:40,UTC,7,1012.7,80,0,-1,18.8,15.2,35820,172,4.5,3
2019,8,10,19:50,UTC,7,1012.7,80,0,-1,18.7,15.2,43280,147,3.8,2.4
2019,8,10,20:00,UTC,7,1012.7,78,0,-1,18.7,14.8,40470,133,3.5,2.5
2019,8,10,20:10,UTC,7,1012.7,75,0,-1,18.8,14.2,40880,125,3.3,2.1
2019,8,10,20:20,UTC,7,1012.6,76,0,-1,18.7,14.3,44470,119,2.9,2.1
2019,8,10,20:30,UTC,8,1012.5,75,0,-1,18.7,14.2,38160,115,3,2.3
2019,8,10,20:40,UTC,7,1012.5,76,0,-1,18.7,14.3,44070,119,3.3,2.5
2019,8,10,20:50,UTC,7,1012.4,77,0,-1,18.5,14.5,36940,127,3.3,2.3
2019,8,10,21:00,UTC,7,1012.3,79,0,-1,18.5,14.7,32560,120,3,2.2
2019,8,10,21:10,UTC,7,1012.1,81,0,-1,18.5,15.1,34740,118,3.4,2.5
2019,8,10,21:20,UTC,7,1012.1,83,0,-1,18.5,15.4,32570,113,2.9,2
2019,8,10,21:30,UTC,7,1012.1,84,0,-1,18.5,15.8,29930,121,2.9,1.8
2019,8,10,21:40,UTC,8,1012.1,86,0,-1,18.6,16.3,29380,139,3.4,2.3
2019,8,10,21:50,UTC,7,1012,87,0,-1,18.7,16.6,31810,165,4.1,2.3
2019,8,10,22:00,UTC,7,1012,87,0,-1,18.8,16.6,29650,167,4.2,2.6
2019,8,10,22:10,UTC,7,1011.9,86,0,-1,18.8,16.5,32800,173,3.9,2
2019,8,10,22:20,UTC,7,1011.8,86,0,-1,18.9,16.4,36770,181,3.4,1.9
2019,8,10,22:30,UTC,7,1011.8,83,0,-1,19,16.1,40860,186,3.7,1.9
2019,8,10,22:40,UTC,7,1011.8,84,0,-1,18.9,16.1,37110,189,3.1,1.9
2019,8,10,22:50,UTC,7,1011.8,83,0,-1,18.9,15.9,36430,188,4.1,2.8
2019,8,10,23:00,UTC,7,1011.7,82,0,-1,19,15.9,42070,183,4.9,2.4
2019,8,10,23:10,UTC,7,1011.6,83,0,-1,18.8,15.8,36430,180,4.8,2.6
2019,8,10,23:20,UTC,8,1011.5,83,0,-1,18.8,15.8,40200,173,4.7,2.8
2019,8,10,23:30,UTC,8,1011.5,83,0,-1,18.8,15.9,36130,181,5,3
2019,8,10,23:40,UTC,8,1011.5,83,0,-1,18.8,15.9,32250,179,4.4,2.8
2019,8,10,23:50,UTC,7,1011.4,85,0,-1,18.6,16,29380,180,4,2.5
2019,8,11,00:00,UTC,7,1011.3,86,0,-1,18.6,16.1,28380,175,4.7,2.8
2019,8,11,00:10,UTC,7,1011.3,87,0,-1,18.5,16.3,23480,178,4.9,2.8
2019,8,11,00:20,UTC,7,1011.2,85,0,-1,18.3,15.8,28850,175,4.5,2.6
2019,8,11,00:30,UTC,7,1011.2,85,0,-1,18.2,15.7,32220,163,4.4,3
2019,8,11,00:40,UTC,5,1011.2,85,0,-1,18.1,15.6,38310,175,4.5,2.8
2019,8,11,00:50,UTC,3,1011.1,86,0,-1,17.9,15.5,38110,165,5.1,3.4
2019,8,11,01:00,UTC,3,1011,83,0,-1,18,15,43180,169,5,3.4
2019,8,11,01:10,UTC,3,1010.9,83,0,-1,18,15,48200,173,5.6,3.1
2019,8,11,01:20,UTC,3,1010.8,84,0,-1,17.9,15.1,40980,169,4.8,2.9
2019,8,11,01:30,UTC,3,1010.7,86,0,-1,17.7,15.3,46310,166,4.1,2.9
2019,8,11,01:40,UTC,1,1010.6,86,0,-1,17.6,15.3,37800,157,3.7,2.3
2019,8,11,01:50,UTC,3,1010.6,87,0,-1,17.6,15.4,36660,160,4,2.7
2019,8,11,02:00,UTC,5,1010.5,82,0,-1,18.1,15,43120,158,4.2,2.8
2019,8,11,02:10,UTC,7,1010.5,81,0,-1,18.1,14.9,45580,160,5.2,3.5
2019,8,11,02:20,UTC,7,1010.4,83,0,-1,18.2,15.2,45220,158,4.6,3
2019,8,11,02:30,UTC,7,1010.4,84,0,-1,18.1,15.3,37670,148,4.7,2.7
2019,8,11,02:40,UTC,5,1010.3,84,0,-1,18.1,15.2,37220,138,4.9,3.2
2019,8,11,02:50,UTC,3,1010.2,83,0,-1,17.9,15.1,37360,130,4.9,3
2019,8,11,03:00,UTC,1,1010.2,83,0,-1,17.9,14.9,42150,128,4.1,2.6
2019,8,11,03:10,UTC,1,1010.1,84,0,-1,17.9,15.2,39920,134,5.5,3.3
2019,8,11,03:20,UTC,3,1010,84,0,-1,18,15.3,46440,129,4.8,3.1
2019,8,11,03:30,UTC,5,1010,84,0,-1,18.1,15.4,40700,137,5,3.3
2019,8,11,03:40,UTC,5,1009.8,85,0,-1,18.1,15.6,41690,132,6.1,3.6
2019,8,11,03:50,UTC,7,1009.8,85,0,-1,18.2,15.7,36110,131,5.6,3.7
2019,8,11,04:00,UTC,7,1009.8,88,0,-1,18.1,16,22410,146,5.8,3.8
2019,8,11,04:10,UTC,7,1009.7,87,0,-1,18.1,16,34270,150,7.5,4.3
2019,8,11,04:20,UTC,7,1009.8,85,0,-1,18.1,15.5,39680,164,8.8,5.5
2019,8,11,04:30,UTC,5,1009.8,86,0,-1,18,15.6,43090,168,8.9,5.3
2019,8,11,04:40,UTC,5,1009.7,85,0,-1,18.1,15.5,37540,168,7.5,5
2019,8,11,04:50,UTC,3,1009.7,84,0,-1,18.1,15.4,40420,165,7.6,5.2
2019,8,11,05:00,UTC,5,1009.7,84,0,-1,18.3,15.6,38460,167,8.3,4.5
2019,8,11,05:10,UTC,5,1009.8,84,0,-1,18.4,15.5,36310,175,6.8,4.5
2019,8,11,05:20,UTC,7,1009.9,84,0,-1,18.3,15.6,42770,180,7.4,5
2019,8,11,05:30,UTC,7,1009.8,85,0,-1,18.1,15.5,36480,179,8,5
2019,8,11,05:40,UTC,7,1009.8,84,0,-1,18,15.3,38690,185,6.7,4.6
2019,8,11,05:50,UTC,7,1009.8,83,0,-1,17.9,15,36410,192,8,4.9
2019,8,11,06:00,UTC,7,1009.8,84,0,-1,18.1,15.3,42380,195,7.3,4.3
2019,8,11,06:10,UTC,7,1009.7,82,0,-1,18.1,15,37850,191,7.5,4.4
2019,8,11,06:20,UTC,7,1009.6,78,0,-1,18.2,14.2,47760,189,7.5,4.4
2019,8,11,06:30,UTC,7,1009.6,77,0,-1,18.2,14.2,50000,181,8.3,4.4
2019,8,11,06:40,UTC,7,1009.6,77,0,-1,18.1,14,42530,176,8.8,5
2019,8,11,06:50,UTC,5,1009.5,77,0,-1,18.1,14,36220,173,9.8,5.5
2019,8,11,07:00,UTC,5,1009.4,78,0,-1,17.6,13.7,26280,166,10.6,6.4
2019,8,11,07:10,UTC,5,1009.4,76,0,-1,17.6,13.3,45340,158,9,5.7
2019,8,11,07:20,UTC,5,1009.4,79,0,-1,17.4,13.6,29490,158,10.5,6.4
2019,8,11,07:30,UTC,7,1009.3,79,0.4,-1,17,13.4,21000,148,9.3,5.3
2019,8,11,07:40,UTC,7,1009.3,83,0.5,-1,16.5,13.7,13920,139,8.5,4.9
2019,8,11,07:50,UTC,7,1009.3,85,0.9,-1,16.4,13.9,10290,133,7.9,4.5
2019,8,11,08:00,UTC,7,1009.3,86,1,-1,16.5,14.1,24240,136,7.7,4.1
2019,8,11,08:10,UTC,7,1009.3,83,0,-1,16.8,13.9,35100,134,8.1,4.8
2019,8,11,08:20,UTC,7,1009.3,81,0,-1,17.2,13.8,50000,143,8.5,4.8
2019,8,11,08:30,UTC,7,1009.3,81,0,-1,17,13.8,50000,142,6.9,4.3
2019,8,11,08:40,UTC,7,1009.2,85,0,-1,16.9,14.2,15390,139,8.8,5.3
2019,8,11,08:50,UTC,7,1009.1,85,0,-1,16.9,14.3,29540,128,8.5,4.9
2019,8,11,09:00,UTC,8,1008.9,85,0,-1,17,14.5,38650,122,8.1,5.3
2019,8,11,09:10,UTC,7,1008.9,85,0,-1,17.1,14.5,48060,120,8.6,5.5
2019,8,11,09:20,UTC,7,1009,87,0.8,-1,16.9,14.6,8860,128,8.7,5.2
2019,8,11,09:30,UTC,8,1008.9,89,1.1,-1,16.8,14.9,13220,143,9.5,5.5
2019,8,11,09:40,UTC,7,1009,90,0.7,-1,16.8,15.2,14590,139,10.6,6
2019,8,11,09:50,UTC,8,1008.9,90,1.1,-1,16.7,15.1,17920,146,8.8,5.7
2019,8,11,10:00,UTC,8,1008.9,90,0,-1,16.7,15,33800,139,9.3,5.2
2019,8,11,10:10,UTC,7,1009,90,0.7,-1,16.7,15.1,16730,146,10.7,5.8
2019,8,11,10:20,UTC,7,1008.6,89,0.2,-1,16.6,14.9,40810,154,11.7,6.7
2019,8,11,10:30,UTC,8,1008.8,90,0.8,-1,16.5,14.9,11950,144,9.5,6.2
2019,8,11,10:40,UTC,7,1008.9,92,1.5,-1,16.3,15,6360,160,10.3,6.3
2019,8,11,10:50,UTC,7,1009,93,1.9,-1,16.3,15.2,14520,158,10.3,6.2
2019,8,11,11:00,UTC,8,1008.9,94,0,-1,16.3,15.3,20340,161,12.3,7.6
2019,8,11,11:10,UTC,7,1008.7,94,0.8,-1,16.4,15.4,12170,159,9.8,6.5
2019,8,11,11:20,UTC,7,1008.8,94,0.4,-1,16.4,15.5,15470,158,10.9,6.1
2019,8,11,11:30,UTC,7,1008.7,94,0.3,-1,16.5,15.6,16530,154,9.9,6
2019,8,11,11:40,UTC,7,1008.7,95,0.3,-1,16.5,15.7,12000,158,10.3,6.8
2019,8,11,11:50,UTC,7,1008.5,96,3.4,-1,16.5,15.8,1450,152,8.6,5.3
2019,8,11,12:00,UTC,7,1008.4,96,10.7,-1,16.5,15.9,2280,144,8.6,4.9
2019,8,11,12:10,UTC,7,1008.5,97,0.1,-1,16.9,16.4,14880,138,7.6,4.5
2019,8,11,12:20,UTC,7,1008.5,96,0,-1,17.5,16.8,16120,167,8.8,4.8
2019,8,11,12:30,UTC,7,1008.4,95,0,-1,18,17.2,16350,187,8.8,5.1
2019,8,11,12:40,UTC,7,1008.6,92,0,-1,18.4,17.1,16080,194,7.6,4.7
2019,8,11,12:50,UTC,7,1008.6,90,0,-1,18.6,17,18260,191,7.8,5.6
2019,8,11,13:00,UTC,5,1008.6,90,0,-1,19.1,17.4,19910,192,8.3,4.8
2019,8,11,13:10,UTC,5,1008.7,86,0,-1,19.1,16.7,18090,200,8.4,5
2019,8,11,13:20,UTC,5,1008.7,87,0,-1,19.1,16.9,17360,205,8.2,5.1
2019,8,11,13:30,UTC,5,1008.7,86,0,-1,19.4,17.1,17630,206,7,4.4
2019,8,11,13:40,UTC,5,1008.7,86,0,-1,19.1,16.7,15600,211,8.1,5.1
2019,8,11,13:50,UTC,5,1008.7,86,0,-1,19.3,16.9,15390,208,8.8,4.7
2019,8,11,14:00,UTC,5,1008.8,86,0,-1,19.3,16.9,15360,213,7.3,4
2019,8,11,14:10,UTC,3,1008.7,85,0,-1,19.3,16.8,16010,210,8.2,4.7
2019,8,11,14:20,UTC,1,1008.7,85,0,-1,19.2,16.5,16800,196,7,3.8
2019,8,11,14:30,UTC,3,1008.6,85,0,-1,19.1,16.5,15540,199,6.8,4.4
2019,8,11,14:40,UTC,5,1008.6,84,0,-1,19.1,16.4,15140,201,7.3,3.8
2019,8,11,14:50,UTC,7,1008.6,83,0,-1,19.6,16.6,18430,207,7.3,4.2
2019,8,11,15:00,UTC,7,1008.6,85,0,-1,19.2,16.5,17990,198,6.5,3.9
2019,8,11,15:10,UTC,7,1008.7,84,0,-1,19.5,16.7,17280,199,6.1,4.1
2019,8,11,15:20,UTC,3,1008.7,85,0,-1,19.1,16.6,16670,193,7.4,4.3
2019,8,11,15:30,UTC,3,1008.7,85,0,-1,18.9,16.4,16760,199,6.3,3.5
2019,8,11,15:40,UTC,5,1008.6,85,0,-1,18.9,16.5,17590,203,5.9,4
2019,8,11,15:50,UTC,7,1008.6,86,0,-1,19,16.6,17740,205,7.5,4.7
2019,8,11,16:00,UTC,7,1008.6,84,0,-1,19.1,16.4,18430,198,6.4,3.8
2019,8,11,16:10,UTC,7,1008.7,85,0,-1,19,16.5,17970,200,5.7,2.9
2019,8,11,16:20,UTC,7,1008.8,85,0,-1,19,16.4,19210,195,4.9,3.1
2019,8,11,16:30,UTC,7,1008.8,86,0,-1,18.9,16.5,19270,193,5.5,3.2
2019,8,11,16:40,UTC,7,1008.8,86,0,-1,18.8,16.4,17490,186,5.6,3.5
2019,8,11,16:50,UTC,7,1008.9,87,0,-1,18.7,16.5,17500,185,7,3.5
2019,8,11,17:00,UTC,7,1009,87,0,-1,18.7,16.5,18060,191,7.9,3.7
2019,8,11,17:10,UTC,7,1008.9,87,0,-1,18.7,16.5,17770,195,7.2,3.8
2019,8,11,17:20,UTC,7,1009,87,0,-1,18.8,16.5,18170,207,6.7,3.7
2019,8,11,17:30,UTC,7,1009,87,0,-1,18.6,16.4,20160,214,7.9,4.4
2019,8,11,17:40,UTC,7,1009.1,87,0,-1,18.6,16.4,22140,213,7.9,4.6
2019,8,11,17:50,UTC,7,1009.2,88,0,-1,18.6,16.5,20210,217,8.6,4.1
2019,8,11,18:00,UTC,7,1009.2,88,0,-1,18.6,16.5,20460,218,8,4.8
2019,8,11,18:10,UTC,7,1009.2,88,0,-1,18.6,16.6,18520,214,7.1,4.4
2019,8,11,18:20,UTC,7,1009.2,88,0,-1,18.5,16.5,19510,212,6.8,4.4
2019,8,11,18:30,UTC,8,1009.2,89,0,-1,18.5,16.6,17880,209,6.5,4.2
2019,8,11,18:40,UTC,8,1009.3,89,0,-1,18.5,16.6,17400,214,7.4,3.7
2019,8,11,18:50,UTC,8,1009.3,89,0,-1,18.4,16.6,17310,211,7.4,4.7
2019,8,11,19:00,UTC,7,1009.3,89,0,-1,18.3,16.4,18020,210,8.4,4.5
2019,8,11,19:10,UTC,7,1009.4,89,0,-1,18.3,16.4,16840,209,6.7,4.4
2019,8,11,19:20,UTC,7,1009.5,88,0,-1,18.3,16.3,18370,208,6.3,4
2019,8,11,19:30,UTC,7,1009.5,88,0,-1,18.3,16.3,17850,212,6,3.8
2019,8,11,19:40,UTC,7,1009.5,88,0,-1,18.3,16.3,16340,211,5.7,3.9
2019,8,11,19:50,UTC,7,1009.5,89,0,-1,18.2,16.4,17630,208,6.3,3.8
2019,8,11,20:00,UTC,7,1009.6,89,0,-1,18.2,16.3,16080,208,6.6,3.5
2019,8,11,20:10,UTC,7,1009.5,88,0,-1,18.2,16.2,17680,208,5.4,3.2
2019,8,11,20:20,UTC,7,1009.6,88,0,-1,18.2,16.2,18860,210,6,4
2019,8,11,20:30,UTC,7,1009.6,88,0,-1,18.2,16.2,18840,211,6.4,3.6
2019,8,11,20:40,UTC,8,1009.7,89,0,-1,18,16.2,17420,211,5.8,3.5
2019,8,11,20:50,UTC,7,1009.7,89,0,-1,18.2,16.3,18220,212,6.3,4.2
2019,8,11,21:00,UTC,3,1009.7,90,0,-1,18,16.3,18390,207,8.1,4.4
2019,8,11,21:10,UTC,1,1009.7,92,0,-1,18,16.7,18440,195,7.2,4
2019,8,11,21:20,UTC,1,1009.7,92,0,-1,18,16.7,17820,193,6.1,3.6
2019,8,11,21:30,UTC,1,1009.7,93,0,-1,17.8,16.7,15730,197,6.6,3.6
2019,8,11,21:40,UTC,1,1009.7,92,0,-1,17.8,16.6,16730,199,7,3.6
2019,8,11,21:50,UTC,1,1009.8,92,0,-1,17.9,16.7,15920,207,7.1,4.7
2019,8,11,22:00,UTC,1,1009.8,92,0,-1,17.8,16.6,14960,209,7.2,4.3
2019,8,11,22:10,UTC,3,1009.9,92,0,-1,18,16.6,15620,214,6.2,4.1
2019,8,11,22:20,UTC,5,1009.9,91,0,-1,18.1,16.6,15290,214,7.8,4.2
2019,8,11,22:30,UTC,7,1009.9,91,0,-1,18.2,16.6,16250,212,7.4,4.4
2019,8,11,22:40,UTC,7,1010,91,0,-1,18.2,16.7,14800,211,7.2,4.3
2019,8,11,22:50,UTC,8,1010.1,91,0,-1,18.2,16.7,15780,210,8.5,5
2019,8,11,23:00,UTC,7,1010,91,0,-1,18.1,16.6,15500,210,9,5.4
2019,8,11,23:10,UTC,7,1010,91,0,-1,18,16.5,16440,211,7.5,5
2019,8,11,23:20,UTC,7,1010.1,91,0,-1,18,16.5,16170,214,8.1,5
2019,8,11,23:30,UTC,7,1010.1,91,0,-1,18,16.5,15540,211,7.4,4.1
2019,8,11,23:40,UTC,7,1010.2,92,0,-1,18,16.7,15050,204,8.1,5
2019,8,11,23:50,UTC,7,1010.2,91,0,-1,18.1,16.7,16270,219,7.1,3.8
2019,8,12,00:00,UTC,7,1010.2,91,0,-1,18.1,16.6,15550,216,8,5.3
2019,8,12,00:10,UTC,7,1010.1,91,0,-1,18.1,16.6,14980,220,8.1,4.7
2019,8,12,00:20,UTC,7,1010.1,91,0,-1,18.1,16.6,14410,221,8.3,4.8
2019,8,12,00:30,UTC,7,1010,90,0,-1,18.1,16.5,14590,221,7.5,4.3
2019,8,12,00:40,UTC,7,1010,91,0,-1,18.1,16.6,14150,221,8,4.8
2019,8,12,00:50,UTC,7,1010,90,0,-1,18.1,16.5,14280,224,7.2,4.5
2019,8,12,01:00,UTC,7,1010.1,91,0,-1,18,16.5,14370,226,7.6,4
2019,8,12,01:10,UTC,7,1010.1,91,0,-1,18,16.6,13550,222,7.9,4.6
2019,8,12,01:20,UTC,7,1010.1,91,0,-1,17.9,16.4,13310,219,8.4,5.6
2019,8,12,01:30,UTC,7,1010.1,90,0,-1,18,16.3,14570,220,7.8,4.8
2019,8,12,01:40,UTC,5,1010,91,0,-1,18,16.4,14570,218,8,5.1
2019,8,12,01:50,UTC,5,1010.1,91,0,-1,17.8,16.3,13660,220,7.6,5
2019,8,12,02:00,UTC,5,1010.1,90,0,-1,17.9,16.2,14350,220,7.9,4.9
2019,8,12,02:10,UTC,5,1010.1,90,0,-1,18,16.3,15200,217,8.4,5.6
2019,8,12,02:20,UTC,7,1010.1,91,0,-1,17.9,16.4,14070,222,7.6,4.7
2019,8,12,02:30,UTC,7,1010,91,0,-1,17.9,16.4,13840,221,6.7,3.9
2019,8,12,02:40,UTC,7,1010,91,0,-1,17.9,16.5,13780,219,7,4.4
2019,8,12,02:50,UTC,7,1009.9,91,0,-1,17.9,16.5,13970,219,6.4,4.1
2019,8,12,03:00,UTC,7,1010,91,0,-1,18,16.6,14370,221,5.4,3.4
2019,8,12,03:10,UTC,7,1010,91,0,-1,18,16.5,15200,226,5.8,2.9
2019,8,12,03:20,UTC,5,1010.1,90,0,-1,18,16.3,17250,231,6.1,3.1
2019,8,12,03:30,UTC,3,1010.2,89,0,-1,18.1,16.3,17160,230,5.4,3
2019,8,12,03:40,UTC,5,1010.3,89,0,-1,18.2,16.4,19670,228,6.1,3.1
2019,8,12,03:50,UTC,5,1010.4,89,0,-1,18.3,16.4,20130,238,7.1,3.7
2019,8,12,04:00,UTC,7,1010.4,89,0,-1,18.3,16.5,21210,249,7.1,4.2
2019,8,12,04:10,UTC,7,1010.4,89,0,-1,18.3,16.6,12670,244,5.4,3.8
2019,8,12,04:20,UTC,7,1010.4,88,0.4,-1,18.1,16.2,19610,236,5.5,3.2
2019,8,12,04:30,UTC,5,1010.5,87,0,-1,18.2,15.9,30430,247,6,2.8
2019,8,12,04:40,UTC,5,1010.5,86,0,-1,18.3,15.8,31990,237,5.2,3
2019,8,12,04:50,UTC,5,1010.5,86,0,-1,18.3,15.9,29280,230,4.4,2.5
2019,8,12,05:00,UTC,7,1010.5,86,0,-1,18.5,16.1,33890,235,4.8,2.5
2019,8,12,05:10,UTC,7,1010.5,87,0,-1,18.7,16.4,29910,233,5.5,2.6
2019,8,12,05:20,UTC,7,1010.6,87,0,-1,18.5,16.2,23050,246,5.6,3.5
2019,8,12,05:30,UTC,7,1010.7,85,0,-1,18.7,16.1,28970,235,5.1,3.2
2019,8,12,05:40,UTC,7,1010.8,82,0,-1,18.9,15.8,31860,232,4.9,2.8
2019,8,12,05:50,UTC,7,1010.9,81,0,-1,18.9,15.6,32170,236,5.7,3.2
2019,8,12,06:00,UTC,7,1010.9,81,0,-1,18.9,15.6,32480,228,4.8,3
2019,8,12,06:10,UTC,7,1010.8,80,0,-1,19.1,15.5,28190,233,4.6,2.7
2019,8,12,06:20,UTC,5,1010.8,87,0,-1,18.8,16.6,22050,225,6.1,3
2019,8,12,06:30,UTC,7,1010.9,86,0,-1,18.9,16.5,20570,219,6.2,3.8
2019,8,12,06:40,UTC,7,1011,85,0,-1,19,16.4,20260,217,7.9,5.3
2019,8,12,06:50,UTC,7,1011.1,86,0,-1,18.9,16.4,19850,218,8.7,5.8
2019,8,12,07:00,UTC,7,1011,85,0,-1,18.9,16.4,17970,217,9.6,6
2019,8,12,07:10,UTC,7,1011.1,85,0,-1,18.9,16.4,19430,219,10.1,7.4
2019,8,12,07:20,UTC,3,1011.2,81,0,-1,19.5,16.2,21210,218,11,6.3
2019,8,12,07:30,UTC,5,1011.4,83,0,-1,19,16,22000,217,10.4,7.1
2019,8,12,07:40,UTC,3,1011.4,85,0,-1,18.8,16.2,19820,219,8.5,6
2019,8,12,07:50,UTC,3,1011.3,84,0,-1,19.4,16.7,17490,216,10.4,6.6
2019,8,12,08:00,UTC,3,1011.4,85,0,-1,19.4,16.8,20180,217,9,6.3
2019,8,12,08:10,UTC,3,1011.4,83,0,-1,19.5,16.5,17890,217,8.3,4.9
2019,8,12,08:20,UTC,5,1011.4,83,0,-1,19.5,16.5,17570,220,10.3,7.2
2019,8,12,08:30,UTC,5,1011.4,83,0,-1,19.2,16.3,19520,221,9.4,5.8
2019,8,12,08:40,UTC,5,1011.5,83,0,-1,19.2,16.2,18950,220,8,5
2019,8,12,08:50,UTC,5,1011.4,82,0,-1,19.8,16.7,21320,224,9.8,6.2
2019,8,12,09:00,UTC,3,1011.5,80,0,-1,19.8,16.2,18480,209,8.2,5.5
2019,8,12,09:10,UTC,5,1011.5,79,0,-1,20,16.2,20940,217,8.5,5
2019,8,12,09:20,UTC,5,1011.5,82,0,-1,19.5,16.3,19020,209,8.7,5.2
2019,8,12,09:30,UTC,7,1011.5,82,0,-1,19.1,16,22760,220,10.2,5.5
2019,8,12,09:40,UTC,7,1011.5,85,0,-1,18.9,16.4,11490,217,7.9,4
2019,8,12,09:50,UTC,7,1011.4,86,0.5,-1,18.9,16.4,15540,200,7.1,4.3
2019,8,12,10:00,UTC,7,1011.2,84,0,-1,19.2,16.4,20290,193,7.1,3.9
2019,8,12,10:10,UTC,5,1011.2,84,0,-1,19.2,16.3,21650,189,7.9,4.6
2019,8,12,10:20,UTC,7,1011.1,82,0,-1,19.5,16.4,18470,194,7.6,5.1
2019,8,12,10:30,UTC,5,1011.2,79,0,-1,20.3,16.4,21580,204,8,5
2019,8,12,10:40,UTC,3,1011.2,75,0,-1,21,16.4,21050,211,9.2,5.8
2019,8,12,10:50,UTC,1,1011.2,74,0,-1,20.6,15.9,21510,221,11,6.6
2019,8,12,11:00,UTC,1,1011.2,77,0,-1,20.4,16.3,21920,223,10,6.3
2019,8,12,11:10,UTC,1,1011,78,0,-1,19.9,16,21600,222,9.1,5.9
2019,8,12,11:20,UTC,1,1011,79,0,-1,19.8,16.1,22370,223,10.4,6.5
2019,8,12,11:30,UTC,3,1011.2,78,0,-1,20.1,16.1,21670,220,10.6,7.3
2019,8,12,11:40,UTC,3,1011,80,0,-1,19.9,16.3,18770,216,11.1,7.3
2019,8,12,11:50,UTC,3,1011,81,0,-1,19.9,16.4,21450,216,10,6
2019,8,12,12:00,UTC,3,1011.1,81,0,-1,19.9,16.6,22060,216,10.2,6.8
2019,8,12,12:10,UTC,1,1011.2,81,0,-1,19.9,16.5,20240,217,9.3,6.4
2019,8,12,12:20,UTC,3,1011.2,81,0,-1,19.8,16.5,19850,221,9.8,5.6
2019,8,12,12:30,UTC,5,1011.1,82,0,-1,19.8,16.6,20420,219,10.1,6.4
2019,8,12,12:40,UTC,7,1011,80,0,-1,19.9,16.3,19570,216,9.6,6.7
2019,8,12,12:50,UTC,7,1010.8,79,0,-1,19.8,16,20700,224,8.6,5.3
2019,8,12,13:00,UTC,7,1010.8,78,0,-1,19.8,15.9,22540,227,8.5,4.8
2019,8,12,13:10,UTC,7,1010.8,75,0,-1,19.7,15.2,22090,228,8.9,4.9
2019,8,12,13:20,UTC,7,1010.8,77,0,-1,19.7,15.4,21550,222,7.3,4.7
2019,8,12,13:30,UTC,7,1010.8,77,0,-1,19.8,15.6,20130,216,10.1,5.4
2019,8,12,13:40,UTC,5,1010.8,78,0,-1,19.5,15.6,20390,223,9,5.7
2019,8,12,13:50,UTC,5,1010.7,80,0,-1,19.7,16.1,19620,228,9.6,5.7
2019,8,12,14:00,UTC,1,1010.6,78,0,-1,19.7,15.8,23540,234,9.4,5
2019,8,12,14:10,UTC,1,1010.7,78,0,-1,19.8,15.9,22150,228,9.4,5
2019,8,12,14:20,UTC,1,1010.6,78,0,-1,19.5,15.6,25280,224,11.6,5.2
2019,8,12,14:30,UTC,1,1010.6,74,0,-1,19.5,14.7,22940,218,11.5,7.6
2019,8,12,14:40,UTC,3,1010.7,71,0,-1,19.4,14.1,29300,219,10.4,6.4
2019,8,12,14:50,UTC,5,1010.7,74,0,-1,19.3,14.6,29570,221,11.3,6.7
2019,8,12,15:00,UTC,5,1010.7,75,0,-1,19.1,14.6,25860,221,11,6.3
2019,8,12,15:10,UTC,5,1010.7,78,0,-1,18.8,14.8,30480,219,12,7.3
2019,8,12,15:20,UTC,5,1010.5,80,0,-1,18.5,15,27920,214,11.6,7
2019,8,12,15:30,UTC,5,1010.6,80,0,-1,18.4,14.8,32600,212,11.9,8.2
2019,8,12,15:40,UTC,5,1010.5,81,0,-1,18.3,15,29410,215,13.3,7.6
2019,8,12,15:50,UTC,5,1010.4,82,0,-1,18.2,15,31270,217,11.3,7.4
2019,8,12,16:00,UTC,7,1010.2,82,0,-1,18.2,15.1,29810,219,10.4,5.4
2019,8,12,16:10,UTC,7,1010.2,80,0,-1,18.2,14.8,31270,222,7.2,4.5
2019,8,12,16:20,UTC,7,1010.2,81,0,-1,18,14.6,28640,217,11.2,6.9
2019,8,12,16:30,UTC,5,1010.1,80,0,-1,18,14.4,31710,217,10.7,6.4
2019,8,12,16:40,UTC,7,1010.2,79,0,-1,17.9,14.2,35430,222,9,5.4
2019,8,12,16:50,UTC,7,1010.2,78,0,-1,17.8,14,33080,225,9,5.2
2019,8,12,17:00,UTC,7,1010.2,78,0,-1,17.8,13.9,31340,220,9.8,5.2
2019,8,12,17:10,UTC,7,1010.2,81,0,-1,17.7,14.4,32650,225,9.4,5.8
2019,8,12,17:20,UTC,7,1010.1,83,0,-1,17.5,14.5,36780,226,8,5
2019,8,12,17:30,UTC,7,1010.1,83,0,-1,17.5,14.5,39230,222,8,4.7
2019,8,12,17:40,UTC,7,1009.9,84,0,-1,17.4,14.6,38910,218,7.9,4.8
2019,8,12,17:50,UTC,7,1010,83,0,-1,17.3,14.5,31620,221,7.6,5.1
2019,8,12,18:00,UTC,7,1010,83,0,-1,17.3,14.4,37330,222,8.3,4.6
2019,8,12,18:10,UTC,5,1010.1,84,0,-1,17.2,14.5,35490,227,7.7,5
2019,8,12,18:20,UTC,3,1010,85,0,-1,17.2,14.6,32810,228,7.8,4
2019,8,12,18:30,UTC,5,1010,85,0,-1,17.2,14.7,31490,225,6.8,4.1
2019,8,12,18:40,UTC,5,1010,85,0,-1,17.2,14.6,39180,220,8.1,4.4
2019,8,12,18:50,UTC,7,1009.9,84,0,-1,17.2,14.4,40140,220,7.2,3.9
2019,8,12,19:00,UTC,7,1009.9,84,0,-1,17.1,14.4,40250,217,7.7,4.9
2019,8,12,19:10,UTC,5,1009.8,85,0,-1,17,14.5,37700,224,7.3,4.5
2019,8,12,19:20,UTC,3,1009.7,85,0,-1,16.9,14.4,35500,215,7,4.3
2019,8,12,19:30,UTC,1,1009.8,85,0,-1,16.8,14.3,36810,227,6.7,4
2019,8,12,19:40,UTC,3,1009.9,85,0,-1,16.9,14.4,34330,224,6.2,3.6
2019,8,12,19:50,UTC,3,1009.9,85,0,-1,16.9,14.3,34190,224,7.2,3.9
2019,8,12,20:00,UTC,5,1009.9,85,0,-1,16.9,14.3,30900,226,7.4,3.5
2019,8,12,20:10,UTC,5,1009.9,85,0,-1,16.9,14.4,30150,223,5.9,3.4
2019,8,12,20:20,UTC,5,1009.9,86,0,-1,16.9,14.6,32150,225,5.8,3.5
2019,8,12,20:30,UTC,5,1009.8,86,0,-1,16.9,14.5,30610,219,5.9,3.5
2019,8,12,20:40,UTC,7,1009.8,86,0,-1,16.8,14.5,31160,220,5.9,3.6
2019,8,12,20:50,UTC,7,1009.7,87,0,-1,16.8,14.6,30340,222,6,3.6
2019,8,12,21:00,UTC,5,1009.6,88,0,-1,16.7,14.6,30420,232,5.5,3.4
2019,8,12,21:10,UTC,3,1009.6,87,0,-1,16.8,14.5,30090,236,4.8,2.9
2019,8,12,21:20,UTC,3,1009.6,87,0,-1,16.7,14.5,34390,243,5.2,3.2
2019,8,12,21:30,UTC,3,1009.6,86,0,-1,16.8,14.5,29270,242,5.2,2.9
2019,8,12,21:40,UTC,1,1009.7,86,0,-1,16.8,14.5,33700,249,5.8,3.6
2019,8,12,21:50,UTC,1,1009.7,86,0,-1,16.8,14.6,31780,242,6.8,3.9
2019,8,12,22:00,UTC,1,1009.7,87,0,-1,16.8,14.6,32000,245,6.8,3.9
2019,8,12,22:10,UTC,1,1009.7,86,0,-1,16.8,14.5,34440,249,5.7,3
2019,8,12,22:20,UTC,0,1009.7,86,0,-1,16.8,14.4,30970,243,4.9,3.1
2019,8,12,22:30,UTC,0,1009.7,86,0,-1,16.8,14.4,28220,238,4.5,2.4
2019,8,12,22:40,UTC,0,1009.5,87,0,-1,16.6,14.5,28690,224,4.5,2.8
2019,8,12,22:50,UTC,3,1009.6,90,0,-1,16.8,15,25690,216,4.7,2.7
2019,8,12,23:00,UTC,5,1009.6,89,0,-1,16.9,15.1,27680,221,5.5,3.1
2019,8,12,23:10,UTC,7,1009.5,89,0,-1,16.9,15.1,24690,225,5.9,3.3
2019,8,12,23:20,UTC,8,1009.6,89,0,-1,16.9,15.2,25980,222,4.6,2.4
2019,8,12,23:30,UTC,7,1009.6,89,0,-1,17,15.1,25620,213,5.9,3.2
2019,8,12,23:40,UTC,7,1009.6,90,0,-1,16.9,15.2,22460,212,7,4.3
2019,8,12,23:50,UTC,7,1009.5,90,0,-1,16.9,15.2,23750,212,5.9,3.8
2019,8,13,00:00,UTC,7,1009.4,90,0,-1,16.8,15.2,22790,210,5.8,3.3
2019,8,13,00:10,UTC,7,1009.3,89,0,-1,16.8,15,24580,209,5.4,3.1
2019,8,13,00:20,UTC,7,1009.2,89,0,-1,16.8,15,25540,211,6.4,3.5
2019,8,13,00:30,UTC,7,1009.1,89,0,-1,16.8,15,24130,209,5.5,3.5
2019,8,13,00:40,UTC,7,1009,89,0,-1,16.8,14.9,21330,213,4.8,2.9
2019,8,13,00:50,UTC,7,1008.9,89,0,-1,16.8,15,24170,210,4.7,2.9
2019,8,13,01:00,UTC,7,1008.9,88,0,-1,16.9,14.9,26960,212,5.2,3.4
2019,8,13,01:10,UTC,5,1008.9,89,0,-1,16.7,14.9,25070,215,6.7,3.5
2019,8,13,01:20,UTC,5,1008.9,91,0,-1,16.7,15.1,21790,204,6.7,4
2019,8,13,01:30,UTC,5,1008.9,90,0,-1,16.6,15,23200,208,5.7,3.8
2019,8,13,01:40,UTC,7,1008.7,90,0,-1,16.6,15,25810,206,6.3,3.3
2019,8,13,01:50,UTC,5,1008.7,89,0,-1,16.5,14.8,24170,209,6.1,3.9
2019,8,13,02:00,UTC,5,1008.5,90,0,-1,16.5,14.8,21670,208,5.9,3.9
2019,8,13,02:10,UTC,5,1008.4,90,0,-1,16.4,14.8,24230,208,6.5,4.2
2019,8,13,02:20,UTC,5,1008.3,91,0,-1,16.6,15.1,24100,207,7.2,4.3
2019,8,13,02:30,UTC,7,1008.3,90,0,-1,16.6,15,21420,209,4.9,3
2019,8,13,02:40,UTC,7,1008.4,90,0,-1,16.7,15.1,20860,206,6,3.6
2019,8,13,02:50,UTC,7,1008.3,91,0,-1,16.6,15,22710,208,5.9,3.9
2019,8,13,03:00,UTC,8,1008.3,90,0,-1,16.6,15,23530,206,6.1,4.3
2019,8,13,03:10,UTC,8,1008.5,90,0,-1,16.6,14.9,22290,206,6,4.3
2019,8,13,03:20,UTC,8,1008.5,89,0,-1,16.5,14.7,25640,200,6.1,3.2
2019,8,13,03:30,UTC,7,1008.4,89,0,-1,16.6,14.8,22620,206,6.8,4.3
2019,8,13,03:40,UTC,7,1008.4,89,0,-1,16.6,14.7,22880,206,6.8,4.2
2019,8,13,03:50,UTC,7,1008.5,88,0,-1,16.6,14.6,24400,200,6.3,4
2019,8,13,04:00,UTC,7,1008.4,88,0,-1,16.6,14.6,24810,207,5.9,3.2
2019,8,13,04:10,UTC,8,1008.3,87,0,-1,16.8,14.7,26180,214,5.3,2.7
2019,8,13,04:20,UTC,8,1008.2,88,0,-1,16.9,14.8,22630,198,6.2,3.6
2019,8,13,04:30,UTC,7,1008.2,86,0,-1,17,14.6,26400,202,8,5
2019,8,13,04:40,UTC,7,1008.2,88,0,-1,16.9,14.9,23430,205,7.2,3.8
2019,8,13,04:50,UTC,8,1008.3,87,0,-1,16.9,14.9,20550,207,6.8,3.8
2019,8,13,05:00,UTC,8,1008.4,88,0,-1,16.9,14.9,20140,221,6.6,4.3
2019,8,13,05:10,UTC,8,1008.3,86,0,-1,16.8,14.5,22700,211,7.6,4.6
2019,8,13,05:20,UTC,8,1008.2,86,0,-1,16.7,14.5,24430,206,7.4,4.9
2019,8,13,05:30,UTC,7,1008.4,87,0,-1,16.7,14.6,22910,214,7.3,4.7
2019,8,13,05:40,UTC,7,1008.4,86,0,-1,16.8,14.4,26560,209,7.7,4.7
2019,8,13,05:50,UTC,8,1008.3,88,0,-1,16.8,14.7,24880,217,7.2,4.8
2019,8,13,06:00,UTC,8,1008.3,88,0,-1,16.7,14.7,22620,225,6.3,4.4
2019,8,13,06:10,UTC,8,1008.2,88,0,-1,16.9,14.8,21790,226,6.5,3.8
2019,8,13,06:20,UTC,8,1008.2,88,0,-1,17.1,15.1,25750,215,6.4,4.4
2019,8,13,06:30,UTC,7,1008.3,88,0,-1,17.1,15.1,19540,217,5.8,3.6
2019,8,13,06:40,UTC,7,1008.4,88,0,-1,17.1,15.1,19450,209,5.8,4.2
2019,8,13,06:50,UTC,7,1008.3,87,0,-1,17.3,15.1,19930,209,5.5,3.5
2019,8,13,07:00,UTC,7,1008.3,86,0,-1,17.4,15.1,23410,214,6.5,3.8
2019,8,13,07:10,UTC,8,1008.3,86,0,-1,17.5,15.1,27100,223,6.7,4
2019,8,13,07:20,UTC,7,1008.3,87,0,-1,17.8,15.6,21660,217,5.7,4
2019,8,13,07:30,UTC,7,1008.3,85,0,-1,17.9,15.4,21880,222,6.3,4.2
2019,8,13,07:40,UTC,7,1008.3,85,0,-1,18.1,15.6,24750,214,7.2,3.7
2019,8,13,07:50,UTC,7,1008.2,83,0,-1,18.1,15.3,21290,214,6.6,3.6
2019,8,13,08:00,UTC,7,1008.1,80,0,-1,18.3,14.8,20080,223,7.8,4.9
2019,8,13,08:10,UTC,7,1008.1,80,0,-1,18.4,15,26440,216,7.6,5.7
2019,8,13,08:20,UTC,7,1007.9,83,0,-1,18,15.1,28570,218,6.9,4.7
2019,8,13,08:30,UTC,5,1007.8,78,0,-1,18.9,14.9,24420,217,7.1,4.2
2019,8,13,08:40,UTC,3,1007.9,77,0,-1,19.1,15,29930,215,8.5,5.6
2019,8,13,08:50,UTC,5,1007.8,78,0,-1,19.3,15.3,24680,225,7.9,5.4
2019,8,13,09:00,UTC,5,1007.7,80,0,-1,19.5,16.1,24250,218,7.4,3.8
2019,8,13,09:10,UTC,7,1007.7,79,0,-1,19.6,15.9,24470,215,7.4,4
2019,8,13,09:20,UTC,7,1007.6,80,0,-1,19.1,15.6,19660,217,7.1,5.1
2019,8,13,09:30,UTC,7,1007.6,82,0,-1,18.5,15.4,26010,211,6.9,3.7
2019,8,13,09:40,UTC,7,1007.5,81,0,-1,18.6,15.3,22180,213,7.9,5.2
2019,8,13,09:50,UTC,7,1007.5,81,0,-1,18.7,15.3,24530,204,8.4,5.5
2019,8,13,10:00,UTC,7,1007.4,81,0,-1,18.8,15.6,26250,205,7.4,4.7
2019,8,13,10:10,UTC,7,1007.4,82,0,-1,18.7,15.6,23070,205,7.1,4.6
2019,8,13,10:20,UTC,7,1007.3,79,0,-1,19.2,15.6,21020,199,7.7,4.6
2019,8,13,10:30,UTC,5,1007.3,80,0,-1,19.2,15.7,23460,198,7.2,4.4
2019,8,13,10:40,UTC,5,1007.4,80,0,-1,18.9,15.4,24280,201,8.2,5
2019,8,13,10:50,UTC,5,1007.4,79,0,-1,18.8,15.2,26590,207,8.7,5.5
2019,8,13,11:00,UTC,7,1007.3,76,0,-1,19.4,15.1,23130,200,8.5,5.7
2019,8,13,11:10,UTC,7,1007.3,78,0,-1,19,15,27540,200,8.3,5.5
2019,8,13,11:20,UTC,5,1007.4,74,0,-1,19.7,15,27310,216,8.4,4.7
2019,8,13,11:30,UTC,7,1007.4,76,0,-1,19.3,15,23370,217,9.7,6.3
2019,8,13,11:40,UTC,7,1007.4,73,0,-1,19.6,14.6,27320,210,8.2,5.3
2019,8,13,11:50,UTC,3,1007.4,72,0,-1,19.7,14.4,25810,208,8.5,5.6
2019,8,13,12:00,UTC,1,1007.4,72,0,-1,19.6,14.5,27190,206,9.1,6.4
2019,8,13,12:10,UTC,1,1007.4,74,0,-1,19.5,14.8,24130,213,9,5.8
2019,8,13,12:20,UTC,1,1007.4,75,0,-1,19.4,15,23330,211,9.9,6.6
2019,8,13,12:30,UTC,1,1007.3,77,0,-1,19.2,15,23860,218,9.3,6
2019,8,13,12:40,UTC,1,1007.3,78,0,-1,19.2,15.2,25800,215,8.4,4.8
2019,8,13,12:50,UTC,1,1007.2,76,0,-1,19.7,15.2,27970,223,8.9,5.5
2019,8,13,13:00,UTC,1,1007.1,72,0,-1,19.9,14.8,31110,216,8.6,5.2
2019,8,13,13:10,UTC,1,1007,71,0,-1,20.2,14.8,29180,215,9.4,5.8
2019,8,13,13:20,UTC,0,1006.9,71,0,-1,20.1,14.8,34820,219,10.1,7
2019,8,13,13:30,UTC,0,1006.9,72,0,-1,20.2,14.9,35670,218,10,6.2
2019,8,13,13:40,UTC,1,1006.8,78,0,-1,19.5,15.5,28490,222,9,5.7
2019,8,13,13:50,UTC,1,1006.8,78,0,-1,19.5,15.5,31390,223,8.6,5.1
2019,8,13,14:00,UTC,1,1006.8,78,0,-1,19.4,15.5,25450,207,7.6,5.1
2019,8,13,14:10,UTC,1,1006.8,77,0,-1,19.7,15.6,29440,202,6.6,4
2019,8,13,14:20,UTC,0,1006.7,77,0,-1,19.6,15.6,28550,222,8,4.9
2019,8,13,14:30,UTC,0,1006.8,79,0,-1,19.7,15.9,24560,222,8.9,5.9
2019,8,13,14:40,UTC,0,1006.8,79,0,-1,19.5,15.8,27630,206,5.5,3.5
2019,8,13,14:50,UTC,0,1006.8,77,0,-1,19.4,15.3,29720,198,6.7,4.3
2019,8,13,15:00,UTC,0,1006.8,81,0,-1,19.6,16.2,26820,195,8,4.4
2019,8,13,15:10,UTC,0,1006.9,79,0,-1,19.3,15.6,27540,195,7.8,5.2
2019,8,13,15:20,UTC,0,1007,81,0,-1,18.9,15.7,34020,200,8,5.1
2019,8,13,15:30,UTC,0,1006.9,81,0,-1,19,15.7,30920,206,9.6,6.6
2019,8,13,15:40,UTC,1,1006.9,76,0,-1,19.4,15,34900,212,7.6,4.5
2019,8,13,15:50,UTC,3,1006.9,77,0,-1,19.2,15,35830,221,8.6,5.8
2019,8,13,16:00,UTC,5,1006.8,77,0,-1,19.4,15.2,40280,217,9,5.9
2019,8,13,16:10,UTC,3,1006.8,76,0,-1,19.5,15.1,41750,211,8.2,5.6
2019,8,13,16:20,UTC,1,1006.8,74,0,-1,19.2,14.4,36290,221,6.9,4.5
2019,8,13,16:30,UTC,0,1006.8,75,0,-1,19.1,14.6,35360,216,7.9,5.1
2019,8,13,16:40,UTC,0,1006.9,72,0,-1,19.1,13.9,38450,218,6.6,4.3
2019,8,13,16:50,UTC,0,1006.9,68,0,-1,19,13.1,34140,220,6.6,4.3
2019,8,13,17:00,UTC,0,1006.9,71,0,-1,18.9,13.6,39250,223,7.6,4.6
2019,8,13,17:10,UTC,0,1006.9,71,0,-1,18.8,13.3,37570,222,7.2,4.4
2019,8,13,17:20,UTC,0,1006.9,71,0,-1,18.8,13.4,35760,224,7,4.6
2019,8,13,17:30,UTC,0,1006.9,72,0,-1,18.5,13.3,35270,227,8.2,4
2019,8,13,17:40,UTC,0,1006.9,71,0,-1,18.5,13.2,37430,224,7.4,4.6
2019,8,13,17:50,UTC,0,1006.9,74,0,-1,18.3,13.6,31750,232,7.9,3.9
2019,8,13,18:00,UTC,0,1006.9,77,0,-1,18.1,14,32430,228,7.6,4.7
2019,8,13,18:10,UTC,0,1006.9,77,0,-1,18,13.8,31980,238,7.9,4.2
2019,8,13,18:20,UTC,0,1006.9,78,0,-1,17.8,13.9,30660,240,8.6,3.9
2019,8,13,18:30,UTC,0,1006.8,78,0,-1,17.7,13.9,26960,244,8.7,4.9
2019,8,13,18:40,UTC,0,1006.8,79,0,-1,17.7,14,28500,244,8.5,4.7
2019,8,13,18:50,UTC,0,1006.8,80,0,-1,17.6,14,27200,243,7.2,4.3
2019,8,13,19:00,UTC,0,1006.8,79,0,-1,17.5,13.9,31830,246,6.3,4
2019,8,13,19:10,UTC,0,1006.8,80,0,-1,17.5,14,30500,242,6.4,4.2
2019,8,13,19:20,UTC,0,1006.8,81,0,-1,17.3,14.1,30560,241,5.5,3.5
2019,8,13,19:30,UTC,0,1006.7,81,0,-1,17.3,14.1,29130,237,6.7,3.6
2019,8,13,19:40,UTC,0,1006.8,82,0,-1,17.3,14.2,34930,240,6.3,4
2019,8,13,19:50,UTC,0,1006.9,82,0,-1,17.2,14.1,38790,243,6.2,3.9
2019,8,13,20:00,UTC,0,1007,81,0,-1,17.2,14,27120,245,5.8,3.5
2019,8,13,20:10,UTC,0,1007.1,82,0,-1,17.2,14.1,38650,248,6,3.3
2019,8,13,20:20,UTC,0,1007.2,82,0,-1,17.2,14.1,41590,242,5.9,3.4
2019,8,13,20:30,UTC,0,1007.2,82,0,-1,17.2,14.1,44470,244,5.3,3.3
2019,8,13,20:40,UTC,0,1007.2,82,0,-1,17.2,14.2,39800,238,6.3,3.8
2019,8,13,20:50,UTC,0,1007.3,83,0,-1,17.2,14.2,39440,240,6.5,3.7
2019,8,13,21:00,UTC,0,1007.4,83,0,-1,17.2,14.3,39700,235,6.5,3.7
2019,8,13,21:10,UTC,0,1007.4,83,0,-1,17.2,14.3,38740,234,6.2,3.8
2019,8,13,21:20,UTC,0,1007.4,82,0,-1,17.2,14.1,40960,239,7.3,3.8
2019,8,13,21:30,UTC,0,1007.4,81,0,-1,17.2,13.9,35420,243,6.2,3.7
2019,8,13,21:40,UTC,0,1007.4,81,0,-1,17.2,13.8,32330,244,6.9,3.7
2019,8,13,21:50,UTC,0,1007.2,79,0,-1,17.2,13.6,34180,242,8.3,4
2019,8,13,22:00,UTC,1,1007.2,80,0,-1,17.1,13.7,33180,244,8.2,4.4
2019,8,13,22:10,UTC,1,1007.2,80,0,-1,17.1,13.7,30120,237,4.9,2.7
2019,8,13,22:20,UTC,1,1007.2,81,0,-1,17.1,13.8,29640,238,6.7,3.5
2019,8,13,22:30,UTC,1,1007.1,82,0,-1,17.2,14.1,24780,242,5.7,3.2
2019,8,13,22:40,UTC,1,1007.1,82,0,-1,17.3,14.1,26520,231,4,2.4
2019,8,13,22:50,UTC,1,1007.1,82,0,-1,17.2,14,31910,226,7,2.8
2019,8,13,23:00,UTC,1,1007.1,81,0,-1,17.2,13.9,28400,228,6.5,3.7
2019,8,13,23:10,UTC,3,1007,82,0,-1,17.3,14.2,35980,232,5.5,2.9
2019,8,13,23:20,UTC,1,1007,84,0,-1,17.3,14.6,29080,230,6.4,3.2
2019,8,13,23:30,UTC,1,1006.9,83,0,-1,17.3,14.4,29920,224,6.3,3.3
2019,8,13,23:40,UTC,1,1006.9,84,0,-1,17.2,14.4,28160,225,6,3.7
2019,8,13,23:50,UTC,1,1006.9,84,0,-1,17.2,14.5,25820,223,7.1,3.9
2019,8,14,00:00,UTC,3,1006.8,84,0,-1,17.3,14.6,28500,227,7.3,3.9
2019,8,14,00:10,UTC,5,1006.7,85,0,-1,17.3,14.8,26580,227,6.6,3.5
2019,8,14,00:20,UTC,5,1006.6,86,0,-1,17.1,14.7,25410,214,8.2,4.4
2019,8,14,00:30,UTC,3,1006.6,87,0,-1,16.9,14.8,24680,204,6.2,4.1
2019,8,14,00:40,UTC,5,1006.6,87,0,-1,16.9,14.8,26040,207,6.5,4.2
2019,8,14,00:50,UTC,5,1006.5,86,0,-1,17,14.7,26530,204,6.7,4.3
2019,8,14,01:00,UTC,5,1006.5,88,0,-1,16.8,14.8,25560,206,9,5.2
2019,8,14,01:10,UTC,5,1006.4,87,0,-1,16.9,14.8,24680,211,7.1,3.8
2019,8,14,01:20,UTC,5,1006.3,88,0,-1,16.8,14.8,24890,207,8.1,4.9
2019,8,14,01:30,UTC,7,1006.4,89,0,-1,16.7,14.8,25610,207,7.4,5.1
2019,8,14,01:40,UTC,7,1006.4,88,0,-1,16.8,14.9,25830,208,6.9,4.5
2019,8,14,01:50,UTC,7,1006.3,91,1.7,-1,16.6,15.1,4940,207,7.3,4.3
2019,8,14,02:00,UTC,7,1006.2,92,1.3,-1,16.5,15.2,17920,211,7.9,4
2019,8,14,02:10,UTC,7,1006.1,91,0,-1,16.4,15,23230,213,7.9,4.5
2019,8,14,02:20,UTC,7,1006.2,89,0,-1,16.2,14.5,20320,211,6,3.8
2019,8,14,02:30,UTC,7,1006.2,89,0,-1,16.3,14.5,24890,205,6.9,4.2
2019,8,14,02:40,UTC,7,1006.2,89,0,-1,16.4,14.6,35490,213,7.1,4.5
2019,8,14,02:50,UTC,7,1006.2,87,0,-1,16.3,14.1,32250,219,6.8,4.6
2019,8,14,03:00,UTC,7,1006.2,87,0,-1,16.2,14,42870,218,7.1,4.7
2019,8,14,03:10,UTC,3,1006.3,86,0,-1,16.3,13.9,45270,215,5.6,3.7
2019,8,14,03:20,UTC,5,1006.3,87,0,-1,16.3,14.2,31630,219,7.5,4.2
2019,8,14,03:30,UTC,3,1006.3,88,0,-1,16.5,14.6,22570,215,8.5,4.5
2019,8,14,03:40,UTC,7,1006.3,88,0,-1,16.6,14.5,21550,219,8.4,5.3
2019,8,14,03:50,UTC,7,1006.3,88,0,-1,16.6,14.5,36390,220,8,4.9
2019,8,14,04:00,UTC,7,1006.2,87,0,-1,16.8,14.7,35060,214,7.1,4
2019,8,14,04:10,UTC,5,1006.2,86,0,-1,16.8,14.4,31600,217,7.3,4.3
2019,8,14,04:20,UTC,5,1006.2,86,0,-1,16.8,14.4,41190,207,8.8,6
2019,8,14,04:30,UTC,5,1006.2,85,0,-1,16.9,14.4,39760,209,9.5,5.7
2019,8,14,04:40,UTC,5,1006.1,86,0,-1,16.9,14.6,37770,208,9.9,5
2019,8,14,04:50,UTC,5,1006.2,87,0,-1,16.8,14.6,36900,210,8.7,5.2
2019,8,14,05:00,UTC,5,1006,86,0,-1,16.9,14.6,37890,213,9.2,5
2019,8,14,05:10,UTC,7,1006.2,84,0,-1,17.2,14.5,37170,211,10.6,6
2019,8,14,05:20,UTC,7,1006.3,85,0,-1,17.1,14.5,36190,207,8.6,5
2019,8,14,05:30,UTC,7,1006.1,84,0,-1,17.3,14.7,33510,204,9.3,5.9
2019,8,14,05:40,UTC,7,1006.3,86,0,-1,17.3,14.8,37300,211,9.6,5.4
2019,8,14,05:50,UTC,7,1006.4,83,0,-1,17.1,14.1,33520,219,12.6,6.9
2019,8,14,06:00,UTC,7,1006.5,81,0,-1,16.7,13.5,31070,227,11.1,6.7
2019,8,14,06:10,UTC,7,1006.3,79,0,-1,16.3,12.7,26010,238,12,6.5
2019,8,14,06:20,UTC,7,1006.2,75,0,-1,16.5,12,48680,251,7.8,3.9
2019,8,14,06:30,UTC,7,1006.1,74,0,-1,17,12.2,50000,246,6.5,3.2
2019,8,14,06:40,UTC,5,1006.1,71,0,-1,17.3,12.1,50000,251,6.9,3.9
2019,8,14,06:50,UTC,5,1006.2,70,0,-1,17.4,11.8,50000,262,5.7,3.6
2019,8,14,07:00,UTC,5,1006.1,68,0,-1,17.8,11.8,42880,247,6.9,3.8
2019,8,14,07:10,UTC,7,1006.3,68,0,-1,17.7,11.7,50000,254,7.4,4.8
2019,8,14,07:20,UTC,7,1006.5,64,0,-1,17.8,10.9,46630,245,7.5,4.7
2019,8,14,07:30,UTC,3,1006.5,67,0,-1,17.5,11.2,48150,234,7.5,4.2
2019,8,14,07:40,UTC,1,1006.7,68,0,-1,17.7,11.8,48850,228,8.4,5
2019,8,14,07:50,UTC,1,1006.7,66,0,-1,18.2,11.7,50000,242,8.8,5.4
2019,8,14,08:00,UTC,1,1006.7,69,0,-1,17.7,11.8,49270,234,8.9,6.1
2019,8,14,08:10,UTC,1,1006.8,65,0,-1,18.5,11.9,42390,230,9.3,5.1
2019,8,14,08:20,UTC,1,1007,66,0,-1,18.3,11.9,49430,224,9.7,6.6
2019,8,14,08:30,UTC,1,1006.9,67,0,-1,18.3,12.1,48320,233,8.4,5.7
2019,8,14,08:40,UTC,1,1006.9,69,0,-1,18.3,12.5,50000,230,9.4,5.8
2019,8,14,08:50,UTC,3,1006.9,69,0,-1,18.7,12.8,42050,237,9.5,5.3
2019,8,14,09:00,UTC,3,1007,70,0,-1,18.6,13,41470,237,10,6.3
2019,8,14,09:10,UTC,5,1007,71,0,-1,18.6,13.1,31760,227,8.6,5.6
2019,8,14,09:20,UTC,5,1007.1,70,0,-1,18.3,12.7,42640,227,8.7,5.9
2019,8,14,09:30,UTC,5,1007.2,71,0,-1,18.6,13.3,46280,227,9.2,5.3
2019,8,14,09:40,UTC,3,1007.2,69,0,-1,18.7,13,36950,218,10,6.8
2019,8,14,09:50,UTC,1,1007.2,66,0,-1,18.8,12.4,34550,216,9.7,7.1
2019,8,14,10:00,UTC,1,1007.2,60,0,-1,18.9,11,35490,229,9.7,5.9
2019,8,14,10:10,UTC,0,1007.3,61,0,-1,19.1,11.4,30080,231,9.9,6.1
2019,8,14,10:20,UTC,0,1007.4,62,0,-1,18.7,11.3,40930,233,9.6,5.8
2019,8,14,10:30,UTC,0,1007.2,63,0,-1,19.7,12.6,30820,219,10.3,6.4
2019,8,14,10:40,UTC,0,1007.3,58,0,-1,19.8,11.4,37380,219,13.6,7.9
2019,8,14,10:50,UTC,0,1007.2,62,0,-1,19.4,12.1,38750,238,12.3,6.6
2019,8,14,11:00,UTC,1,1007.3,66,0,-1,19.2,12.6,32880,223,10.6,7
2019,8,14,11:10,UTC,3,1007.3,62,0,-1,19.2,11.7,31520,221,13.2,8.2
2019,8,14,11:20,UTC,1,1007.3,51,0,-1,19.6,9.3,44160,241,12.6,7.7
2019,8,14,11:30,UTC,1,1007.4,55,0,-1,19.6,10.4,40460,244,12.8,7.2
2019,8,14,11:40,UTC,0,1007.4,59,0,-1,19.2,11,44950,232,11.5,6.6
2019,8,14,11:50,UTC,1,1007.5,58,0,-1,19.1,10.6,42450,231,11.7,7.2
2019,8,14,12:00,UTC,1,1007.5,61,0,-1,18.7,11.2,39010,228,12.4,7.3
2019,8,14,12:10,UTC,1,1007.4,52,0,-1,19,9,44170,244,9.5,5.6
2019,8,14,12:20,UTC,1,1007.3,56,0,-1,19.2,10.2,39100,242,10.7,6.9
2019,8,14,12:30,UTC,1,1007.3,57,0,-1,19.1,10.5,44060,245,10.6,6
2019,8,14,12:40,UTC,0,1007.4,60,0,-1,18.8,10.8,41530,239,12.1,7.5
2019,8,14,12:50,UTC,1,1007.3,60,0,-1,19.1,11,37380,234,12.5,7
2019,8,14,13:00,UTC,1,1007.3,61,0,-1,19.1,11.4,42170,236,12.5,6.7
2019,8,14,13:10,UTC,1,1007.3,58,0,-1,19.6,11.1,46390,236,13,7.2
2019,8,14,13:20,UTC,1,1007.3,57,0,-1,19.1,10.4,43340,235,11.9,6.4
2019,8,14,13:30,UTC,1,1007.3,55,0,-1,19.2,9.9,38030,235,11.9,6.7
2019,8,14,13:40,UTC,1,1007.3,58,0,-1,19.1,10.5,39300,236,11.1,6.8
2019,8,14,13:50,UTC,0,1007.4,57,0,-1,19.4,10.6,39720,229,11,6.8
2019,8,14,14:00,UTC,0,1007.3,60,0,-1,18.9,11.1,42200,230,12.5,7.2
2019,8,14,14:10,UTC,0,1007.4,61,0,-1,18.8,11,36810,225,11.9,7.2
2019,8,14,14:20,UTC,0,1007.4,59,0,-1,18.9,10.8,35610,225,11.4,6.6
2019,8,14,14:30,UTC,0,1007.6,60,0,-1,18.9,11,44340,233,10.7,7.1
2019,8,14,14:40,UTC,0,1007.6,62,0,-1,18.8,11.2,37140,222,11,6.1
2019,8,14,14:50,UTC,1,1007.5,63,0,-1,18.6,11.5,44580,227,12.4,6.6
2019,8,14,15:00,UTC,1,1007.6,59,0,-1,18.6,10.4,45280,230,10.9,6.8
2019,8,14,15:10,UTC,1,1007.7,61,0,-1,18.2,10.6,41720,234,11.7,6.5
2019,8,14,15:20,UTC,0,1007.7,61,0,-1,18.7,10.9,41900,227,11.3,6.6
2019,8,14,15:30,UTC,0,1007.7,61,0,-1,18.4,10.6,42250,232,10.1,5.8
2019,8,14,15:40,UTC,0,1007.7,61,0,-1,18,10.4,44810,230,10.3,5.1
2019,8,14,15:50,UTC,1,1007.7,63,0,-1,17.8,10.7,44590,241,10.5,6.7
2019,8,14,16:00,UTC,3,1007.7,65,0,-1,17.6,11,39680,238,10.2,5.7
2019,8,14,16:10,UTC,5,1007.8,67,0,-1,17,10.8,32440,243,12.2,7
2019,8,14,16:20,UTC,7,1007.7,69,0,-1,17,11.3,31530,238,11.3,6
2019,8,14,16:30,UTC,3,1007.8,66,0,-1,17.3,10.9,48270,246,9.7,6.2
2019,8,14,16:40,UTC,1,1007.8,61,0,-1,17.5,9.9,48430,244,8.1,5.3
2019,8,14,16:50,UTC,0,1007.9,60,0,-1,17.5,9.7,48010,241,11.3,5.7
2019,8,14,17:00,UTC,0,1008.1,59,0,-1,17.4,9.4,50000,245,12,7.4
2019,8,14,17:10,UTC,0,1008.1,60,0,-1,17.2,9.3,48320,244,10.8,6.4
2019,8,14,17:20,UTC,0,1008,62,0,-1,17,9.6,47270,242,9.5,6
2019,8,14,17:30,UTC,0,1008,62,0,-1,16.9,9.5,47680,245,9.5,6.1
2019,8,14,17:40,UTC,0,1008.1,62,0,-1,17,9.6,45220,242,12.2,6.2
2019,8,14,17:50,UTC,0,1008.1,62,0,-1,16.8,9.5,50000,241,12.4,5.8
2019,8,14,18:00,UTC,0,1008,63,0,-1,16.7,9.7,48220,240,10.6,5.5
2019,8,14,18:10,UTC,0,1008,64,0,-1,16.6,9.7,50000,243,9.3,5.8
2019,8,14,18:20,UTC,0,1008,63,0,-1,16.6,9.5,50000,247,10.7,5.3
2019,8,14,18:30,UTC,0,1008,63,0,-1,16.5,9.6,48870,249,8.7,5.5
2019,8,14,18:40,UTC,0,1007.9,65,0,-1,16.4,9.9,49030,247,8.6,5.4
2019,8,14,18:50,UTC,0,1007.9,64,0,-1,16.3,9.5,49590,240,7.6,4.6
2019,8,14,19:00,UTC,0,1007.7,65,0,-1,16.2,9.7,49650,247,7.8,4.7
2019,8,14,19:10,UTC,0,1007.6,66,0,-1,16.1,9.8,50000,248,7.8,4.5
2019,8,14,19:20,UTC,0,1007.6,66,0,-1,16,9.6,49360,250,8.4,4.4
2019,8,14,19:30,UTC,0,1007.7,67,0,-1,16,9.8,50000,243,5.6,3.7
2019,8,14,19:40,UTC,0,1007.6,68,0,-1,16,10,48590,245,7,4.1
2019,8,14,19:50,UTC,0,1007.6,68,0,-1,16,10.1,49010,246,6.8,4.3
2019,8,14,20:00,UTC,0,1007.5,69,0,-1,16,10.2,46200,244,7.2,4.5
2019,8,14,20:10,UTC,1,1007.4,69,0,-1,16.1,10.5,48750,250,6.9,4
2019,8,14,20:20,UTC,1,1007.4,71,0,-1,16,10.7,49150,254,7,3.5
2019,8,14,20:30,UTC,1,1007.4,71,0,-1,16,10.8,40760,247,6.1,3.7
2019,8,14,20:40,UTC,1,1007.4,72,0,-1,16.1,10.9,46450,242,6.8,4
2019,8,14,20:50,UTC,1,1007.5,71,0,-1,16.1,10.9,46560,244,6.4,3.8
2019,8,14,21:00,UTC,1,1007.5,70,0,-1,16.2,10.8,45170,251,4.9,3.5
2019,8,14,21:10,UTC,3,1007.4,71,0,-1,16.2,10.8,48760,247,6.7,4.2
2019,8,14,21:20,UTC,1,1007.4,70,0,-1,16.1,10.7,50000,252,5.4,3.4
2019,8,14,21:30,UTC,1,1007.4,71,0,-1,16.1,10.8,50000,254,6.1,3.5
2019,8,14,21:40,UTC,0,1007.4,70,0,-1,16.1,10.7,50000,253,5.6,3.1
2019,8,14,21:50,UTC,1,1007.3,70,0,-1,16.1,10.6,50000,249,6.1,3.4
2019,8,14,22:00,UTC,1,1007.3,70,0,-1,16.1,10.6,50000,247,5.1,3
2019,8,14,22:10,UTC,1,1007.3,70,0,-1,16.2,10.7,50000,241,6,3.2
2019,8,14,22:20,UTC,1,1007.2,71,0,-1,16.1,10.9,49710,240,4.3,2.7
2019,8,14,22:30,UTC,0,1007.1,71,0,-1,16.2,10.9,40780,243,4.6,2.6
2019,8,14,22:40,UTC,0,1007,72,0,-1,16.2,11,50000,238,4.3,2.7
2019,8,14,22:50,UTC,0,1007.1,74,0,-1,15.7,11.1,45670,232,4.5,2.5
2019,8,14,23:00,UTC,1,1007,76,0,-1,15.5,11.3,45230,234,3.9,2.2
2019,8,14,23:10,UTC,3,1006.9,76,0,-1,15.7,11.5,49470,223,4.3,2.1
2019,8,14,23:20,UTC,5,1007,73,0,-1,16.3,11.4,48150,225,3.8,2.1
2019,8,14,23:30,UTC,5,1007,74,0,-1,16.4,11.7,50000,216,5.3,2.8
2019,8,14,23:40,UTC,3,1007.1,75,0,-1,16.4,11.9,50000,223,5,2.9
2019,8,14,23:50,UTC,5,1007,78,0,-1,16.2,12.3,1950,224,5.7,2.8
2019,8,15,00:00,UTC,5,1006.8,77,0.4,-1,16,12.1,32440,222,7.9,3.8
2019,8,15,00:10,UTC,3,1006.6,75,0,-1,16.2,11.7,42250,243,7.2,3.8
2019,8,15,00:20,UTC,3,1006.6,75,0,-1,16.1,11.6,45560,241,7.2,3.5
2019,8,15,00:30,UTC,1,1006.7,72,0,-1,16.2,11.2,31200,236,5.1,2.7
2019,8,15,00:40,UTC,5,1006.7,70,0,-1,16.3,10.9,44840,236,5.6,3.2
2019,8,15,00:50,UTC,5,1006.8,73,0,-1,16.5,11.6,40960,231,6.6,3.2
2019,8,15,01:00,UTC,7,1006.8,75,0,-1,15.9,11.4,32380,222,7.6,4.7
2019,8,15,01:10,UTC,7,1006.7,71,0,-1,15.8,10.5,41350,221,7.6,4.7
2019,8,15,01:20,UTC,7,1006.6,72,0,-1,15.8,10.8,50000,231,5.4,3.3
2019,8,15,01:30,UTC,8,1006.7,72,0,-1,15.7,10.8,48980,226,6.4,3.4
2019,8,15,01:40,UTC,7,1006.5,72,0,-1,15.6,10.6,39900,215,6.5,4.2
2019,8,15,01:50,UTC,7,1006.4,74,0,-1,15.5,10.9,44190,219,5.4,3.5
2019,8,15,02:00,UTC,3,1006.5,76,0,-1,15.3,11.2,41530,223,5.4,3.4
2019,8,15,02:10,UTC,3,1006.4,76,0,-1,15.5,11.3,42660,224,3.4,2.3
2019,8,15,02:20,UTC,1,1006.5,77,0,-1,15.4,11.5,46290,234,4.8,2.6
2019,8,15,02:30,UTC,1,1006.4,75,0,-1,15.8,11.3,50000,233,5,2.5
2019,8,15,02:40,UTC,1,1006.5,75,0,-1,15.8,11.3,50000,237,5.9,3.3
2019,8,15,02:50,UTC,3,1006.6,72,0,-1,16,11,48120,232,5.3,3.2
2019,8,15,03:00,UTC,5,1006.5,71,0,-1,16,10.7,39390,238,4.7,2.6
2019,8,15,03:10,UTC,7,1006.6,73,0,-1,15.9,10.9,44900,249,4.6,2.8
2019,8,15,03:20,UTC,5,1006.6,70,0,-1,15.9,10.6,50000,242,4.9,3
2019,8,15,03:30,UTC,5,1006.7,71,0,-1,15.9,10.6,49980,244,6.8,3.7
2019,8,15,03:40,UTC,5,1006.9,70,0,-1,15.9,10.3,50000,245,8.2,4.2
2019,8,15,03:50,UTC,7,1006.8,69,0,-1,15.7,9.9,50000,247,7.8,4.6
2019,8,15,04:00,UTC,7,1006.8,68,0,-1,15.6,9.6,50000,244,7.6,3.8
2019,8,15,04:10,UTC,7,1006.7,67,0,-1,15.5,9.5,50000,239,5.7,3.1
2019,8,15,04:20,UTC,7,1006.7,67,0,-1,15.5,9.3,50000,240,4.8,2.9
2019,8,15,04:30,UTC,5,1006.7,67,0,-1,15.5,9.3,50000,247,5.3,3.3
2019,8,15,04:40,UTC,3,1006.6,67,0,-1,15.4,9.2,49910,244,5.6,3.3
2019,8,15,04:50,UTC,1,1006.6,67,0,-1,15.4,9.4,50000,247,4.7,3.1
2019,8,15,05:00,UTC,1,1006.6,68,0,-1,15.4,9.5,50000,249,4.7,2.7
2019,8,15,05:10,UTC,0,1006.6,69,0,-1,15.5,10,50000,262,4.9,3.3
2019,8,15,05:20,UTC,0,1006.7,67,0,-1,15.8,9.6,49800,265,6.2,3.7
2019,8,15,05:30,UTC,0,1006.8,68,0,-1,15.6,9.6,50000,267,6.2,4.3
2019,8,15,05:40,UTC,0,1006.8,67,0,-1,16,10,50000,262,6.2,4.3
2019,8,15,05:50,UTC,0,1006.8,66,0,-1,16.1,9.8,50000,266,5.9,3.9
2019,8,15,06:00,UTC,0,1006.8,66,0,-1,16.4,10.2,50000,263,6.4,4.4
2019,8,15,06:10,UTC,0,1007,69,0,-1,16.2,10.4,50000,256,6.6,4.4
2019,8,15,06:20,UTC,0,1007,70,0,-1,16.3,10.7,50000,258,5.8,4
2019,8,15,06:30,UTC,1,1007.1,70,0,-1,16,10.6,50000,260,5.9,4.2
2019,8,15,06:40,UTC,1,1007,71,0,-1,16.3,11.1,39010,257,5.1,3.4
2019,8,15,06:50,UTC,3,1007,69,0,-1,16.9,11.3,45950,243,5.2,3.8
2019,8,15,07:00,UTC,3,1007,67,0,-1,17,10.9,47110,244,5.5,3.6
2019,8,15,07:10,UTC,5,1006.9,69,0,-1,16.8,11.2,50000,262,5.6,3.6
2019,8,15,07:20,UTC,5,1006.8,64,0,-1,17.8,10.9,46450,273,5.3,4
2019,8,15,07:30,UTC,5,1006.8,65,0,-1,17.8,11,46680,279,5.3,3.4
2019,8,15,07:40,UTC,5,1006.8,64,0,-1,17.5,10.6,42310,271,5.5,3.8
2019,8,15,07:50,UTC,5,1006.9,64,0,-1,17,10,46080,270,5.7,4.1
2019,8,15,08:00,UTC,7,1007,70,0,-1,16.3,10.8,8810,253,7.4,4.3
2019,8,15,08:10,UTC,7,1007.3,86,6.6,-1,14.5,12.2,2480,264,8.5,5.4
2019,8,15,08:20,UTC,7,1007.3,87,0.8,-1,14.5,12.4,25800,291,7.1,4
2019,8,15,08:30,UTC,5,1007.3,84,0,-1,15.2,12.5,48980,286,6.8,4.1
2019,8,15,08:40,UTC,5,1007.3,81,0,-1,16,12.8,46590,294,7.9,3.6
2019,8,15,08:50,UTC,3,1007.4,72,0,-1,16.7,11.6,47340,295,7.4,5.2
2019,8,15,09:00,UTC,3,1007.4,65,0,-1,17.1,10.4,40540,288,6.6,4.3
2019,8,15,09:10,UTC,1,1007.4,64,0,-1,17.2,10.3,49420,288,7.6,5
2019,8,15,09:20,UTC,3,1007.5,64,0,-1,16.9,10,50000,289,8,4.9
2019,8,15,09:30,UTC,1,1007.6,62,0,-1,17.7,10.2,41770,287,6.9,4.5
2019,8,15,09:40,UTC,3,1007.6,60,0,-1,17.5,9.6,50000,269,6.9,4.7
2019,8,15,09:50,UTC,5,1007.6,57,0,-1,17.9,9.1,43040,278,7.6,4.7
2019,8,15,10:00,UTC,3,1007.6,58,0,-1,17.5,9.3,50000,295,7.4,3.7
2019,8,15,10:10,UTC,1,1007.6,57,0,-1,17.6,9,48490,292,6.8,4.5
2019,8,15,10:20,UTC,1,1007.7,52,0,-1,18.1,8.1,50000,285,8.8,5.6
2019,8,15,10:30,UTC,1,1007.7,50,0,-1,18.7,8,42200,281,8.3,5.8
2019,8,15,10:40,UTC,5,1007.8,48,0,-1,18.5,7.4,49530,281,11.6,6.7
2019,8,15,10:50,UTC,5,1007.8,48,0,-1,18.9,7.7,41220,277,9.2,5.5
2019,8,15,11:00,UTC,7,1007.8,49,0,-1,18.6,7.8,50000,266,8.8,6
2019,8,15,11:10,UTC,3,1007.9,51,0,-1,18.8,8.3,50000,260,8.1,4.8
2019,8,15,11:20,UTC,3,1007.9,50,0,-1,19.2,8.4,40530,276,8.2,5.5
2019,8,15,11:30,UTC,3,1008,50,0,-1,19.4,8.6,41420,277,8.2,5.1
2019,8,15,11:40,UTC,5,1008,51,0,-1,19.8,9.3,46180,256,9.5,6.3
2019,8,15,11:50,UTC,3,1008.2,47,0,-1,19.6,8.1,43420,250,9.8,5.8
2019,8,15,12:00,UTC,1,1008.2,51,0,-1,19.4,9,50000,260,12.2,7.6
2019,8,15,12:10,UTC,1,1008.3,47,0,-1,19.5,7.9,42510,244,9.8,5.9
2019,8,15,12:20,UTC,0,1008.3,48,0,-1,19.4,8.1,46300,241,10.7,7.2
2019,8,15,12:30,UTC,0,1008.4,49,0,-1,18.8,7.9,50000,243,10.5,6.1
2019,8,15,12:40,UTC,1,1008.4,48,0,-1,19.3,8,49800,244,10.1,6.2
2019,8,15,12:50,UTC,3,1008.5,50,0,-1,19.6,8.9,50000,243,10,6.3
2019,8,15,13:00,UTC,5,1008.5,50,0,-1,19.6,9.1,50000,250,8.5,6.1
2019,8,15,13:10,UTC,5,1008.6,52,0,-1,19.8,9.6,50000,259,11,7
2019,8,15,13:20,UTC,3,1008.6,51,0,-1,19.5,9.2,47450,257,9.8,6.5
2019,8,15,13:30,UTC,1,1008.6,52,0,-1,19.5,9.3,50000,262,9.2,5.8
2019,8,15,13:40,UTC,1,1008.7,52,0,-1,19.3,9.2,50000,270,8.9,5.6
2019,8,15,13:50,UTC,1,1008.9,61,0,-1,18.8,11,42060,254,9.1,5.3
2019,8,15,14:00,UTC,1,1008.8,57,0,-1,19.1,10.5,48540,222,8.7,5.2
2019,8,15,14:10,UTC,3,1008.9,46,0,-1,20.4,8.3,48740,237,11.1,4.8
2019,8,15,14:20,UTC,1,1008.9,43,0,-1,19.9,6.8,43840,285,11.5,7.5
2019,8,15,14:30,UTC,1,1009,40,0,-1,20.4,6.4,46220,276,11.1,7.6
2019,8,15,14:40,UTC,0,1009.1,41,0,-1,20,6.3,47680,269,10.3,7.5
2019,8,15,14:50,UTC,0,1009.2,41,0,-1,20,6.2,47360,260,11.4,6.7
2019,8,15,15:00,UTC,0,1009.2,39,0,-1,19.9,5.7,50000,267,9.6,6.4
2019,8,15,15:10,UTC,0,1009.3,41,0,-1,20,6.5,50000,263,9,6.2
2019,8,15,15:20,UTC,0,1009.3,41,0,-1,19.9,6.2,50000,262,9.4,6.5
2019,8,15,15:30,UTC,0,1009.3,41,0,-1,19.7,6.1,50000,278,9.1,5.6
2019,8,15,15:40,UTC,0,1009.5,42,0,-1,19.9,6.6,50000,273,10.8,6.7
2019,8,15,15:50,UTC,0,1009.6,42,0,-1,19.7,6.2,50000,280,10.5,6.2
2019,8,15,16:00,UTC,0,1009.7,42,0,-1,19.5,6.1,50000,285,9.5,6
2019,8,15,16:10,UTC,0,1009.7,42,0,-1,19.5,6.4,49240,278,9.6,6.1
2019,8,15,16:20,UTC,0,1009.9,42,0,-1,19.3,6.2,50000,281,9.7,5.8
2019,8,15,16:30,UTC,0,1009.9,43,0,-1,19.3,6.2,50000,281,9,5.4
2019,8,15,16:40,UTC,0,1010,43,0,-1,19.1,6.1,50000,270,7.7,5
2019,8,15,16:50,UTC,0,1010.1,43,0,-1,19,6,50000,269,8.6,5.6
2019,8,15,17:00,UTC,0,1010.2,43,0,-1,18.8,5.8,50000,271,9.4,6.2
2019,8,15,17:10,UTC,0,1010.3,43,0,-1,18.7,5.7,50000,265,9.1,5.6
2019,8,15,17:20,UTC,0,1010.4,44,0,-1,18.5,6,50000,274,9.3,5.7
2019,8,15,17:30,UTC,0,1010.5,45,0,-1,18.3,6.2,50000,270,8.4,5.8
2019,8,15,17:40,UTC,0,1010.6,45,0,-1,18.2,6,50000,275,9.2,5.6
2019,8,15,17:50,UTC,0,1010.7,46,0,-1,18.1,6.3,49720,277,7.8,4.7
2019,8,15,18:00,UTC,0,1010.9,47,0,-1,17.9,6.5,50000,268,7.5,4.7
2019,8,15,18:10,UTC,0,1011,47,0,-1,17.8,6.4,50000,270,7.4,4.7
2019,8,15,18:20,UTC,0,1011.1,49,0,-1,17.7,6.7,50000,269,7,4.3
2019,8,15,18:30,UTC,0,1011.1,50,0,-1,17.5,6.9,50000,260,6.1,4.1
2019,8,15,18:40,UTC,0,1011.2,52,0,-1,17.3,7.4,50000,263,8.2,5.1
2019,8,15,18:50,UTC,0,1011.3,56,0,-1,17.1,8.3,50000,260,6.9,4.8
2019,8,15,19:00,UTC,0,1011.5,59,0,-1,16.9,8.8,50000,261,7.3,4.7
2019,8,15,19:10,UTC,0,1011.6,61,0,-1,16.8,9.3,49530,262,8.4,5.1
2019,8,15,19:20,UTC,0,1011.7,64,0,-1,16.6,9.7,50000,262,8.2,4.8
2019,8,15,19:30,UTC,0,1011.9,64,0,-1,16.6,9.8,50000,259,7.6,4.9
2019,8,15,19:40,UTC,0,1012,65,0,-1,16.4,9.8,50000,266,9.2,5.6
2019,8,15,19:50,UTC,0,1012,66,0,-1,16.2,9.8,50000,267,7.3,4.6
2019,8,15,20:00,UTC,0,1012.1,66,0,-1,16.2,9.8,50000,261,7,4.7
2019,8,15,20:10,UTC,0,1012.2,67,0,-1,16.1,9.9,50000,261,7.7,4.6
2019,8,15,20:20,UTC,0,1012.3,68,0,-1,16,10.2,50000,261,6.8,4.2
2019,8,15,20:30,UTC,0,1012.4,70,0,-1,16,10.4,50000,262,7.1,4.3
2019,8,15,20:40,UTC,0,1012.5,71,0,-1,15.8,10.5,50000,264,8.2,4
2019,8,15,20:50,UTC,0,1012.6,72,0,-1,15.5,10.6,50000,263,6,4.1
2019,8,15,21:00,UTC,0,1012.7,71,0,-1,15.7,10.5,46220,261,5.8,3
2019,8,15,21:10,UTC,0,1012.7,72,0,-1,15.7,10.6,50000,262,4.6,2.6
2019,8,15,21:20,UTC,0,1012.7,72,0,-1,15.6,10.7,50000,264,5.1,3
2019,8,15,21:30,UTC,0,1012.7,74,0,-1,15.5,10.8,50000,275,4.1,2.5
2019,8,15,21:40,UTC,0,1012.7,75,0,-1,15.2,10.8,50000,273,4.7,2.8
2019,8,15,21:50,UTC,0,1012.8,74,0,-1,15.3,10.6,50000,265,4.7,2.7
2019,8,15,22:00,UTC,0,1012.8,75,0,-1,15,10.6,50000,263,5,3.1
2019,8,15,22:10,UTC,0,1012.9,75,0,-1,15.2,10.8,50000,263,4.6,3
2019,8,15,22:20,UTC,0,1013,75,0,-1,15.2,10.9,50000,257,3.6,2.6
2019,8,15,22:30,UTC,0,1013.1,77,0,-1,14.9,10.9,50000,261,3.4,2.1
2019,8,15,22:40,UTC,0,1013.2,79,0,-1,14.5,10.9,50000,250,3.8,2.4
2019,8,15,22:50,UTC,0,1013.1,79,0,-1,14.6,11.1,50000,255,3.8,2.5
2019,8,15,23:00,UTC,0,1013.1,82,0,-1,14.1,11.1,50000,260,3.5,2.3
2019,8,15,23:10,UTC,0,1013.2,83,0,-1,14.1,11.3,50000,260,3.8,2.2
2019,8,15,23:20,UTC,0,1013.1,87,0,-1,13.4,11.2,50000,259,2.9,2
2019,8,15,23:30,UTC,0,1013.2,88,0,-1,13.3,11.4,50000,263,3.2,2.2
2019,8,15,23:40,UTC,0,1013.2,89,0,-1,13.1,11.4,46370,258,3.4,2.1
2019,8,15,23:50,UTC,0,1013.2,90,0,-1,13.1,11.6,47700,262,3.1,1.9
2019,8,16,00:00,UTC,0,1013.2,91,0,-1,13.2,11.8,50000,246,2.4,1.5
2019,8,16,00:10,UTC,0,1013.2,91,0,-1,13.1,11.6,50000,243,2.1,1.4
2019,8,16,00:20,UTC,0,1013.3,92,0,-1,13.1,11.8,50000,242,3.7,2.3
2019,8,16,00:30,UTC,0,1013.3,92,0,-1,13.2,11.9,47680,251,3.6,2.2
2019,8,16,00:40,UTC,0,1013.3,93,0,-1,13.2,12.1,45660,257,3.5,2.3
2019,8,16,00:50,UTC,0,1013.4,93,0,-1,13.1,12,42960,257,3.2,1.9
2019,8,16,01:00,UTC,0,1013.4,88,0,-1,14,11.9,47190,244,3.1,2.1
2019,8,16,01:10,UTC,0,1013.3,90,0,-1,13.5,12,38960,246,2.7,1.8
2019,8,16,01:20,UTC,0,1013.3,92,0,-1,13.3,12,44430,248,1.8,1
2019,8,16,01:30,UTC,0,1013.3,92,0,-1,13.1,11.8,43850,254,2.6,1.1
2019,8,16,01:40,UTC,0,1013.4,93,0,-1,13,11.8,39430,254,2,1
2019,8,16,01:50,UTC,0,1013.4,93,0,-1,12.9,11.7,40690,251,2.4,1.2
2019,8,16,02:00,UTC,0,1013.4,93,0,-1,12.8,11.7,45730,238,2.6,1.6
2019,8,16,02:10,UTC,0,1013.5,92,0,-1,12.9,11.6,48550,241,2.8,1.8
2019,8,16,02:20,UTC,0,1013.5,92,0,-1,12.8,11.5,45740,239,2.8,2
2019,8,16,02:30,UTC,0,1013.5,92,0,-1,12.7,11.4,47550,233,3.8,2.1
2019,8,16,02:40,UTC,0,1013.5,92,0,-1,12.8,11.5,43290,236,3.2,2.2
2019,8,16,02:50,UTC,0,1013.6,91,0,-1,12.9,11.5,50000,237,3.1,2
2019,8,16,03:00,UTC,0,1013.6,92,0,-1,12.8,11.5,46000,238,3.8,2.1
2019,8,16,03:10,UTC,0,1013.6,92,0,-1,12.9,11.6,50000,247,3,1.8
2019,8,16,03:20,UTC,0,1013.7,92,0,-1,13.1,11.8,46240,251,2.9,1.6
2019,8,16,03:30,UTC,0,1013.7,91,0,-1,13.3,11.8,49110,241,2.9,1.7
2019,8,16,03:40,UTC,0,1013.8,90,0,-1,13.6,12,48360,237,2.4,1.4
2019,8,16,03:50,UTC,0,1013.8,88,0,-1,14.1,12.1,43280,236,3.1,1.6
2019,8,16,04:00,UTC,0,1013.8,80,0,-1,15.6,12.2,45990,229,3.2,1.7
2019,8,16,04:10,UTC,0,1013.9,80,0,-1,15.8,12.4,50000,225,3.8,2.5
2019,8,16,04:20,UTC,0,1014,79,0,-1,16,12.5,48930,223,4.4,2.4
2019,8,16,04:30,UTC,0,1014,78,0,-1,16.4,12.4,46300,227,4.4,2.3
2019,8,16,04:40,UTC,0,1014,77,0,-1,16.6,12.5,46850,222,4.3,2.5
2019,8,16,04:50,UTC,0,1014.2,76,0,-1,16.7,12.4,43010,228,4.7,2.6
2019,8,16,05:00,UTC,0,1014.2,77,0,-1,16.9,12.8,45870,231,4.2,2.5
2019,8,16,05:10,UTC,0,1014.2,76,0,-1,17,12.7,47500,231,6.4,3.7
2019,8,16,05:20,UTC,0,1014.3,75,0,-1,17.1,12.7,42650,227,5.2,3.5
2019,8,16,05:30,UTC,0,1014.3,76,0,-1,17.2,12.9,44810,222,6.4,3.6
2019,8,16,05:40,UTC,0,1014.3,76,0,-1,17.1,12.8,48280,218,6.4,4.4
2019,8,16,05:50,UTC,0,1014.3,77,0,-1,17.2,13.1,45440,218,6.8,4.8
2019,8,16,06:00,UTC,1,1014.4,77,0,-1,17.7,13.6,46930,222,6.8,4.7
2019,8,16,06:10,UTC,1,1014.5,79,0,-1,17.7,14,35970,225,7,4.1
2019,8,16,06:20,UTC,1,1014.5,80,0,-1,17.4,13.9,41950,222,7.9,4.1
2019,8,16,06:30,UTC,1,1014.5,81,0,-1,17.1,13.8,49350,224,8,5.1
2019,8,16,06:40,UTC,1,1014.5,84,0,-1,16.7,14,46090,220,7.7,4.9
2019,8,16,06:50,UTC,3,1014.6,82,0,-1,17.2,14.1,43120,211,7.2,4.4
2019,8,16,07:00,UTC,5,1014.7,84,0,-1,17,14.2,47830,222,8.2,4.9
2019,8,16,07:10,UTC,7,1014.7,82,0,-1,17.3,14.3,40020,225,7.5,4.2
2019,8,16,07:20,UTC,7,1014.7,84,0,-1,17.5,14.7,31830,229,8.2,4.5
2019,8,16,07:30,UTC,7,1014.7,81,0,-1,17.7,14.4,39890,224,7.2,4.6
2019,8,16,07:40,UTC,7,1014.8,79,0,-1,17.9,14.2,31690,218,9.2,5.6
2019,8,16,07:50,UTC,7,1014.8,81,0,-1,17.8,14.5,34570,220,8.2,5.7
2019,8,16,08:00,UTC,7,1014.8,82,0,-1,17.5,14.4,39940,223,8.3,5.8
2019,8,16,08:10,UTC,5,1014.8,84,0,-1,17.6,14.8,35810,223,8.2,4.7
2019,8,16,08:20,UTC,3,1014.8,81,0,-1,18.3,15,31270,223,8.1,5.8
2019,8,16,08:30,UTC,1,1014.9,80,0,-1,18.1,14.5,34750,227,7.1,4.4
2019,8,16,08:40,UTC,1,1014.9,79,0,-1,18,14.3,36720,223,7.7,5.1
2019,8,16,08:50,UTC,3,1015,81,0,-1,18,14.7,30030,219,7.9,4.8
2019,8,16,09:00,UTC,5,1014.9,83,0,-1,18,15,37500,215,8,5.5
2019,8,16,09:10,UTC,7,1015,82,0,-1,17.6,14.6,37370,221,8.5,6.2
2019,8,16,09:20,UTC,7,1015.1,80,0,-1,17.6,14.1,31340,220,8.2,6.4
2019,8,16,09:30,UTC,7,1015.2,81,0,-1,17.9,14.7,33540,226,8.3,5.6
2019,8,16,09:40,UTC,7,1015.1,80,0,-1,17.8,14.3,32770,223,7.9,5.5
2019,8,16,09:50,UTC,7,1015.1,78,0,-1,18.1,14.3,40450,221,7.2,5.3
2019,8,16,10:00,UTC,5,1015.1,73,0,-1,19,14,34230,220,7.6,5.3
2019,8,16,10:10,UTC,5,1015.1,73,0,-1,19.4,14.3,13980,225,7,5
2019,8,16,10:20,UTC,5,1015.2,73,0,-1,19.1,14.2,36050,221,7.4,5.5
2019,8,16,10:30,UTC,5,1015.1,71,0,-1,18.6,13.2,32690,222,7.3,4.9
2019,8,16,10:40,UTC,7,1015.1,73,0,-1,19.1,14.1,35480,223,7.9,5.1
2019,8,16,10:50,UTC,7,1015.2,77,0,-1,18.5,14.3,34370,223,7.4,4.8
2019,8,16,11:00,UTC,7,1015.1,75,0,-1,18.3,13.9,30960,213,7.4,4.4
2019,8,16,11:10,UTC,7,1015.1,72,0,-1,19,13.9,41960,202,7,4
2019,8,16,11:20,UTC,7,1015.2,75,0,-1,19,14.4,31600,226,8.6,4.8
2019,8,16,11:30,UTC,7,1015.2,70,0,-1,19,13.4,33370,228,10,6.7
2019,8,16,11:40,UTC,7,1015.2,67,0,-1,19.4,13.1,31220,221,8.4,3.8
2019,8,16,11:50,UTC,7,1015.3,68,0,-1,20.1,14,35540,223,7.9,4.5
2019,8,16,12:00,UTC,7,1015.3,74,0,-1,19.3,14.5,37810,226,8.2,5
2019,8,16,12:10,UTC,3,1015.3,75,0,-1,19.2,14.6,35380,228,9.2,5.4
2019,8,16,12:20,UTC,3,1015.2,70,0,-1,19.8,14.3,33370,227,8.8,5.5
2019,8,16,12:30,UTC,5,1015.2,74,0,-1,19.3,14.5,45860,222,10.7,5.8
2019,8,16,12:40,UTC,5,1015.3,73,0,-1,19,13.9,39040,219,8.9,6.4
2019,8,16,12:50,UTC,7,1015.2,73,0,-1,19.3,14.2,38670,217,10.2,7.4
2019,8,16,13:00,UTC,7,1015.2,70,0,-1,19.3,13.6,34980,222,9,6.3
2019,8,16,13:10,UTC,7,1015.2,71,0,-1,18.8,13.4,46910,217,8.8,6.9
2019,8,16,13:20,UTC,5,1015.3,74,0,-1,18.8,14.1,36080,221,9,6.5
2019,8,16,13:30,UTC,7,1015.3,72,0,-1,18.5,13.3,37930,219,8,5.4
2019,8,16,13:40,UTC,7,1015.4,71,0,-1,18.7,13.3,36720,215,7.6,5.7
2019,8,16,13:50,UTC,3,1015.4,70,0,-1,18.7,13.1,37370,215,8,5.2
2019,8,16,14:00,UTC,5,1015.3,68,0,-1,18.7,12.7,49590,217,6.4,4.2
2019,8,16,14:10,UTC,5,1015.3,68,0,-1,18.9,12.9,43230,231,6.3,3.6
2019,8,16,14:20,UTC,7,1015.4,67,0,-1,18.9,12.6,47150,238,5.7,3.2
2019,8,16,14:30,UTC,7,1015.3,67,0,-1,18.9,12.6,42870,241,5.5,3.4
2019,8,16,14:40,UTC,7,1015.2,66,0,-1,18.9,12.5,39660,233,4.1,2.4
2019,8,16,14:50,UTC,7,1015.2,63,0,-1,19,11.7,47040,217,4,2.8
2019,8,16,15:00,UTC,7,1015.1,63,0,-1,18.8,11.6,43480,222,5,3.5
2019,8,16,15:10,UTC,7,1015.1,71,0,-1,18.6,13.3,36280,222,4.2,2.8
2019,8,16,15:20,UTC,7,1015.1,68,0,-1,18.5,12.5,41920,222,4.6,3.2
2019,8,16,15:30,UTC,7,1015.1,66,0,-1,18.7,12.3,43660,218,4.2,2.5
2019,8,16,15:40,UTC,7,1015.1,67,0,-1,18.7,12.5,41810,219,3.9,2.4
2019,8,16,15:50,UTC,7,1015.1,68,0,-1,18.6,12.6,42590,216,4.3,3
2019,8,16,16:00,UTC,7,1015.1,69,0,-1,18.4,12.6,40160,217,4.9,3.4
2019,8,16,16:10,UTC,7,1015.1,70,0,-1,18.3,12.6,40890,212,3.5,2.2
2019,8,16,16:20,UTC,7,1015.1,69,0,-1,18.2,12.4,38410,206,3.8,2.8
2019,8,16,16:30,UTC,7,1015.1,74,0,-1,18.2,13.5,38990,205,3.4,2.3
2019,8,16,16:40,UTC,7,1015.1,77,0,-1,17.9,13.8,41440,193,3.4,2.3
2019,8,16,16:50,UTC,7,1015.2,76,0,-1,17.8,13.4,39390,181,4,2.6
2019,8,16,17:00,UTC,7,1015.2,75,0,-1,17.7,13.2,43410,190,4.1,2.7
2019,8,16,17:10,UTC,7,1015.2,73,0,-1,17.7,12.8,47390,197,4,2.8
2019,8,16,17:20,UTC,7,1015.3,74,0,-1,17.7,13,42990,197,3.2,2.4
2019,8,16,17:30,UTC,7,1015.3,75,0,-1,17.6,13.2,40870,182,3.4,2
2019,8,16,17:40,UTC,7,1015.2,73,0,-1,17.6,12.7,47120,178,3.6,2.2
2019,8,16,17:50,UTC,7,1015.2,75,0,-1,17.5,12.9,39940,175,4.2,2.7
2019,8,16,18:00,UTC,7,1015.2,74,0,-1,17.5,12.8,37250,164,4,2.8
2019,8,16,18:10,UTC,7,1015.2,78,0,-1,17.4,13.5,37680,156,4.6,3.1
2019,8,16,18:20,UTC,7,1015.3,78,0,-1,17.4,13.6,42480,164,4.5,2.9
2019,8,16,18:30,UTC,8,1015.2,79,0,-1,17.4,13.7,38140,163,4,2.6
2019,8,16,18:40,UTC,8,1015.2,81,0,-1,17.3,14,36190,153,3.8,2.6
2019,8,16,18:50,UTC,5,1015.3,80,0,-1,17.3,13.7,40920,156,4.3,2.5
2019,8,16,19:00,UTC,5,1015.2,80,0,-1,17.2,13.6,39810,150,4.4,2.8
2019,8,16,19:10,UTC,5,1015.2,81,0,-1,17.1,13.7,46400,138,4.7,3.3
2019,8,16,19:20,UTC,7,1015.2,80,0,-1,17.2,13.6,38770,143,4.9,3.3
2019,8,16,19:30,UTC,7,1015.3,82,0,-1,17.1,14,40180,144,4.7,2.8
2019,8,16,19:40,UTC,7,1015.3,82,0,-1,17.1,14,41120,139,4.6,3
2019,8,16,19:50,UTC,7,1015.3,81,0,-1,17.1,13.8,39440,138,4.6,3.1
2019,8,16,20:00,UTC,7,1015.2,79,0,-1,17.3,13.7,37980,132,4.7,3.2
2019,8,16,20:10,UTC,8,1015.2,80,0,-1,17.3,13.9,39750,124,4.8,3.3
2019,8,16,20:20,UTC,7,1015.2,82,0,-1,17.3,14.1,49750,126,5,3.4
2019,8,16,20:30,UTC,7,1015.3,82,0,-1,17.2,14.1,43990,131,4.8,2.8
2019,8,16,20:40,UTC,7,1015.3,83,0,-1,17.3,14.4,42060,132,4.2,2.9
2019,8,16,20:50,UTC,7,1015.4,85,0,-1,17.3,14.6,46200,131,4.8,3.2
2019,8,16,21:00,UTC,7,1015.3,85,0,-1,17.3,14.7,39320,138,4.7,2.9
2019,8,16,21:10,UTC,7,1015.4,84,0,-1,17.3,14.7,48850,135,4.3,2.9
2019,8,16,21:20,UTC,7,1015.4,84,0,-1,17.3,14.6,42670,138,4.1,2.6
2019,8,16,21:30,UTC,7,1015.3,83,0,-1,17.3,14.5,41360,142,4,2.8
2019,8,16,21:40,UTC,7,1015.3,82,0,-1,17.4,14.3,46780,145,4.4,2.8
2019,8,16,21:50,UTC,7,1015.2,81,0,-1,17.4,14.2,50000,149,4.9,3
2019,8,16,22:00,UTC,7,1015.2,80,0,-1,17.5,14,46370,148,5.2,3
2019,8,16,22:10,UTC,7,1015.2,80,0,-1,17.5,14,48800,145,4.6,3
2019,8,16,22:20,UTC,7,1015.2,80,0,-1,17.5,14,45780,138,4.4,3.1
2019,8,16,22:30,UTC,7,1015.2,81,0,-1,17.5,14.2,44770,134,5,3.2
2019,8,16,22:40,UTC,7,1015.2,80,0,-1,17.4,14,48620,137,4.4,2.9
2019,8,16,22:50,UTC,7,1015.2,80,0,-1,17.3,13.7,50000,141,3.9,2.5
2019,8,16,23:00,UTC,5,1015.2,79,0,-1,17.3,13.6,50000,141,4.4,2.9
2019,8,16,23:10,UTC,7,1015.1,78,0,-1,17.5,13.6,46500,142,3.9,2.6
2019,8,16,23:20,UTC,7,1015.1,78,0,-1,17.4,13.6,48900,143,4.7,3.1
2019,8,16,23:30,UTC,7,1015.2,78,0,-1,17.5,13.7,47270,145,5,3.1
2019,8,16,23:40,UTC,7,1015.1,79,0,-1,17.3,13.6,50000,152,5.7,3
2019,8,16,23:50,UTC,5,1015.1,79,0,-1,17.2,13.6,48580,149,5.7,3.5
2019,8,17,00:00,UTC,1,1015,80,0,-1,17,13.6,50000,147,5.5,3.3
2019,8,17,00:10,UTC,1,1015,81,0,-1,16.9,13.6,44500,145,5.3,3.3
2019,8,17,00:20,UTC,1,1015,82,0,-1,16.8,13.7,48260,140,5,3.3
2019,8,17,00:30,UTC,3,1015,82,0,-1,16.8,13.8,50000,140,5.5,3.2
2019,8,17,00:40,UTC,5,1014.9,82,0,-1,16.9,13.9,50000,141,5.1,3.3
2019,8,17,00:50,UTC,7,1014.9,83,0,-1,16.9,13.9,41480,146,5.4,3.1
2019,8,17,01:00,UTC,7,1014.8,82,0,-1,17,13.9,45500,140,4.9,3.1
2019,8,17,01:10,UTC,8,1014.8,82,0,-1,17,13.9,48220,138,4.9,3.1
2019,8,17,01:20,UTC,7,1014.8,82,0,-1,17,13.9,44170,142,5.1,3.2
2019,8,17,01:30,UTC,7,1014.7,82,0,-1,17.1,14,48290,144,5.7,3.3
2019,8,17,01:40,UTC,7,1014.6,82,0,-1,17.1,14,50000,142,5.9,3.5
2019,8,17,01:50,UTC,7,1014.7,82,0,-1,17.1,13.9,48950,143,5.4,3.2
2019,8,17,02:00,UTC,7,1014.6,82,0,-1,17,13.9,50000,145,6,3.4
2019,8,17,02:10,UTC,7,1014.5,82,0,-1,17,13.9,47360,150,6,3.2
2019,8,17,02:20,UTC,7,1014.5,82,0,-1,17,14,50000,146,5.2,3.2
2019,8,17,02:30,UTC,7,1014.5,81,0,-1,17.1,13.8,43850,151,5.9,3
2019,8,17,02:40,UTC,7,1014.4,80,0,-1,17.2,13.7,48720,153,5.6,3.4
2019,8,17,02:50,UTC,7,1014.4,80,0,-1,17.2,13.7,44660,156,6.6,4
2019,8,17,03:00,UTC,7,1014.5,80,0,-1,17.1,13.6,47000,159,5.9,3.5
2019,8,17,03:10,UTC,7,1014.5,80,0,-1,17.1,13.6,48620,162,6,4.1
2019,8,17,03:20,UTC,7,1014.6,81,0,-1,17.1,13.8,43590,164,5.7,3.9
2019,8,17,03:30,UTC,7,1014.6,80,0,-1,17.2,13.6,48000,165,5.1,3.2
2019,8,17,03:40,UTC,7,1014.5,78,0,-1,17.2,13.3,43710,173,5.5,3.6
2019,8,17,03:50,UTC,7,1014.5,78,0,-1,17.2,13.3,45810,170,7,4.3
2019,8,17,04:00,UTC,7,1014.6,78,0,-1,17.3,13.4,42880,174,6.2,3.6
2019,8,17,04:10,UTC,7,1014.6,78,0,-1,17.2,13.4,48160,176,7.8,4.4
2019,8,17,04:20,UTC,7,1014.6,78,0,-1,17.2,13.3,46120,176,6.5,4.1
2019,8,17,04:30,UTC,7,1014.7,78,0,-1,17.2,13.3,41980,176,6.1,3.9
2019,8,17,04:40,UTC,7,1014.7,79,0,-1,17.3,13.6,46940,178,7.1,4
2019,8,17,04:50,UTC,7,1014.8,80,0,-1,17.1,13.6,42500,177,5.7,3.8
2019,8,17,05:00,UTC,7,1014.8,80,0,-1,17.1,13.7,49020,181,4.7,3.1
2019,8,17,05:10,UTC,7,1014.8,81,0,-1,17.1,13.7,41710,177,5.6,3.2
2019,8,17,05:20,UTC,7,1014.8,81,0,-1,17.2,13.8,42830,185,6.3,3.3
2019,8,17,05:30,UTC,7,1014.8,79,0,-1,17.3,13.7,40000,188,6.6,3.5
2019,8,17,05:40,UTC,7,1014.8,79,0,-1,17.4,13.7,47130,189,6.4,3.9
2019,8,17,05:50,UTC,7,1014.9,79,0,-1,17.2,13.5,41830,185,5.2,3.2
2019,8,17,06:00,UTC,7,1014.9,81,0,-1,17.3,13.9,42620,184,5.6,3.3
2019,8,17,06:10,UTC,7,1014.9,80,0,-1,17.9,14.4,42540,181,5.6,3.6
2019,8,17,06:20,UTC,7,1015,79,0,-1,17.8,14.1,42710,187,5.8,3.5
2019,8,17,06:30,UTC,7,1015,80,0,-1,17.6,14.2,37610,191,6.8,4.2
2019,8,17,06:40,UTC,7,1015,81,0,-1,17.7,14.4,40620,191,6.1,3.7
2019,8,17,06:50,UTC,3,1014.9,82,0,-1,17.5,14.3,37120,192,6.9,4.5
2019,8,17,07:00,UTC,1,1014.9,79,0,-1,18.2,14.6,38670,185,5.8,3.5
2019,8,17,07:10,UTC,,,,,,,,,190,5.3,3.2
2019,8,17,07:20,UTC,3,1015.1,80,0,-1,17.9,14.4,37760,188,6.9,4.4
2019,8,17,07:30,UTC,3,1015.1,80,0,-1,17.7,14.3,34860,183,7,4.5
2019,8,17,07:40,UTC,1,1015.1,80,0,-1,18.2,14.7,34430,178,6.5,3.9
2019,8,17,07:50,UTC,1,1015.1,80,0,-1,18.4,14.8,39380,173,5.7,3.7
2019,8,17,08:00,UTC,0,1015.2,76,0,-1,18.5,14.1,34740,176,6,3.8
2019,8,17,08:10,UTC,0,1015.2,77,0,-1,18.3,14.2,33220,180,6.7,4.2
2019,8,17,08:20,UTC,0,1015.3,76,0,-1,18.5,14.2,39220,171,7,4.4
2019,8,17,08:30,UTC,0,1015.3,75,0,-1,18.7,14.2,33710,170,7,4.5
2019,8,17,08:40,UTC,0,1015.3,73,0,-1,19.1,14.2,31960,177,7,4.5
2019,8,17,08:50,UTC,0,1015.4,75,0,-1,18.8,14.2,31420,175,6.1,4.2
2019,8,17,09:00,UTC,0,1015.4,75,0,-1,18.6,14,30700,172,6.3,3.6
2019,8,17,09:10,UTC,1,1015.5,75,0,-1,18.4,14,43990,177,6.5,4.3
2019,8,17,09:20,UTC,1,1015.5,73,0,-1,19,14.1,37540,180,6,3.8
2019,8,17,09:30,UTC,3,1015.5,76,0,-1,18.8,14.4,35880,184,5.4,3.7
2019,8,17,09:40,UTC,5,1015.5,75,0,-1,18.9,14.3,36780,187,6,3.6
2019,8,17,09:50,UTC,7,1015.4,75,0,-1,18.9,14.3,31960,188,6.3,3.8
2019,8,17,10:00,UTC,5,1015.4,74,0,-1,19.2,14.4,36430,174,5.7,3.8
2019,8,17,10:10,UTC,5,1015.4,70,0,-1,19.5,14,40490,165,5.9,3.9
2019,8,17,10:20,UTC,5,1015.4,70,0,-1,19.7,14,36810,162,6.7,4.7
2019,8,17,10:30,UTC,7,1015.4,69,0,-1,19.4,13.5,32180,169,5.8,3.7
2019,8,17,10:40,UTC,7,1015.5,68,0,-1,19.4,13.3,31880,161,5.8,3.7
2019,8,17,10:50,UTC,5,1015.5,66,0,-1,20.1,13.4,34910,177,4.8,2.8
2019,8,17,11:00,UTC,3,1015.4,65,0,-1,20.5,13.6,30490,174,5.1,3.3
2019,8,17,11:10,UTC,5,1015.3,62,0,-1,21.1,13.7,40360,178,4.5,3.1
2019,8,17,11:20,UTC,5,1015.2,63,0,-1,21.6,14.3,33120,178,5.1,3.2
2019,8,17,11:30,UTC,5,1015.2,61,0,-1,21.3,13.5,31870,173,4.7,3.1
2019,8,17,11:40,UTC,3,1015.2,61,0,-1,21.3,13.5,35780,173,5.7,4
2019,8,17,11:50,UTC,3,1015.2,62,0,-1,21,13.5,33660,166,5.4,3.8
2019,8,17,12:00,UTC,3,1015.1,62,0,-1,21.4,13.8,36630,207,5.7,2.7
2019,8,17,12:10,UTC,3,1014.9,62,0,-1,21.9,14.4,29120,158,4.9,3.3
2019,8,17,12:20,UTC,1,1014.9,60,0,-1,21.4,13.4,36700,164,4.4,3.1
2019,8,17,12:30,UTC,1,1014.9,62,0,-1,21.1,13.5,41440,170,5.4,3.3
2019,8,17,12:40,UTC,3,1014.7,62,0,-1,21.4,13.7,40860,177,4.4,2.9
2019,8,17,12:50,UTC,5,1014.7,61,0,-1,21.6,13.8,43890,169,4.7,3.1
2019,8,17,13:00,UTC,3,1014.7,63,0,-1,21.4,14.1,36760,165,5.3,2.6
2019,8,17,13:10,UTC,5,1014.7,64,0,-1,20.9,13.8,39920,179,4.8,2.8
2019,8,17,13:20,UTC,5,1014.6,65,0,-1,20.7,13.9,41530,138,4.5,2.4
2019,8,17,13:30,UTC,7,1014.6,66,0,-1,20.7,14.2,38290,124,4.2,2.9
2019,8,17,13:40,UTC,7,1014.6,66,0,-1,20.5,13.9,44170,128,4.7,3.4
2019,8,17,13:50,UTC,7,1014.5,67,0,-1,20.1,13.8,43330,132,4.2,2.9
2019,8,17,14:00,UTC,7,1014.5,70,0,-1,19.9,14.3,39980,139,4.6,3
2019,8,17,14:10,UTC,7,1014.4,70,0,-1,20.4,14.7,40190,127,3.8,2.6
2019,8,17,14:20,UTC,7,1014.3,70,0,-1,20,14.4,41990,115,5,3.7
2019,8,17,14:30,UTC,5,1014.3,71,0,-1,20,14.7,39150,129,4.7,3.3
2019,8,17,14:40,UTC,5,1014.3,72,0,-1,20,14.8,38410,122,5,3.4
2019,8,17,14:50,UTC,1,1014.3,69,0,-1,19.9,14,39680,118,6.2,4.3
2019,8,17,15:00,UTC,1,1014.2,69,0,-1,19.8,13.9,43270,120,5.6,3.9
2019,8,17,15:10,UTC,0,1014.2,70,0,-1,19.8,14.1,45590,120,5,3.7
2019,8,17,15:20,UTC,0,1014.1,69,0,-1,19.8,14,43390,119,4.8,3.6
2019,8,17,15:30,UTC,1,1014.1,69,0,-1,20.2,14.4,43260,115,4.6,3.6
2019,8,17,15:40,UTC,3,1014.1,68,0,-1,20.1,13.9,43970,115,4.8,3.6
2019,8,17,15:50,UTC,3,1014,68,0,-1,20,13.8,41850,114,4.5,3.1
2019,8,17,16:00,UTC,1,1014,68,0,-1,20,13.9,38230,115,3.3,2.6
2019,8,17,16:10,UTC,1,1014,68,0,-1,19.9,13.8,46820,117,3.1,2.4
2019,8,17,16:20,UTC,3,1014,69,0,-1,19.9,14,43010,135,3.3,2.1
2019,8,17,16:30,UTC,5,1014,69,0,-1,19.8,14,42130,137,2.8,2
2019,8,17,16:40,UTC,7,1014,71,0,-1,19.7,14.3,46650,138,2.8,1.9
2019,8,17,16:50,UTC,7,1014,72,0,-1,19.6,14.3,43700,143,2.9,1.7
2019,8,17,17:00,UTC,5,1014,72,0,-1,19.6,14.5,42270,123,2.3,1.3
2019,8,17,17:10,UTC,5,1014,72,0,-1,19.6,14.5,40070,129,2.3,1.7
2019,8,17,17:20,UTC,5,1014,72,0,-1,19.6,14.4,47710,131,2.2,1.5
2019,8,17,17:30,UTC,5,1014,74,0,-1,19.4,14.7,40820,115,2.5,1.7
2019,8,17,17:40,UTC,3,1013.9,75,0,-1,19.3,14.7,44840,117,3.7,2.7
2019,8,17,17:50,UTC,1,1013.9,76,0,-1,19.1,14.8,50000,115,3.1,2.1
2019,8,17,18:00,UTC,0,1013.8,79,0,-1,18.8,15.1,43030,111,3.1,2.3
2019,8,17,18:10,UTC,0,1013.9,81,0,-1,18.5,15.1,41480,115,3.3,2.7
2019,8,17,18:20,UTC,0,1013.9,82,0,-1,18.4,15.2,41730,115,3.6,2.8
2019,8,17,18:30,UTC,0,1013.9,83,0,-1,18.1,15.1,42840,114,3.4,2.6
2019,8,17,18:40,UTC,0,1013.8,84,0,-1,17.7,15,43300,116,2.7,2.1
2019,8,17,18:50,UTC,0,1013.8,86,0,-1,17.4,15,37430,116,2.5,1.8
2019,8,17,19:00,UTC,0,1013.7,84,0,-1,17.7,15,39100,118,3.7,2.2
2019,8,17,19:10,UTC,1,1013.7,83,0,-1,17.9,15,44020,120,3.8,2.4
2019,8,17,19:20,UTC,3,1013.7,79,0,-1,18.3,14.6,42380,125,3.7,2.3
2019,8,17,19:30,UTC,3,1013.6,77,0,-1,18.6,14.5,46020,146,4.3,2.3
2019,8,17,19:40,UTC,5,1013.8,77,0,-1,18.8,14.6,46900,150,3.2,2
2019,8,17,19:50,UTC,5,1013.7,74,0,-1,19,14.3,47430,142,6,3.2
2019,8,17,20:00,UTC,7,1013.7,73,0,-1,18.9,13.9,47390,143,4.2,2.1
2019,8,17,20:10,UTC,7,1013.6,74,0,-1,19,14.2,50000,155,5.5,2.1
2019,8,17,20:20,UTC,7,1013.6,76,0,-1,18.9,14.6,45510,154,6,3.5
2019,8,17,20:30,UTC,7,1013.6,77,0,-1,18.7,14.6,46180,161,6.8,3.8
2019,8,17,20:40,UTC,7,1013.6,77,0,-1,18.8,14.6,49070,162,6.1,3.4
2019,8,17,20:50,UTC,7,1013.5,76,0,-1,18.8,14.4,45780,162,7.5,3.9
2019,8,17,21:00,UTC,5,1013.5,75,0,-1,18.8,14.2,42760,162,8.7,4.3
2019,8,17,21:10,UTC,3,1013.6,75,0,-1,18.7,14.2,43460,162,7.2,4.5
2019,8,17,21:20,UTC,1,1013.6,76,0,-1,18.5,14.2,47480,157,8.8,5.1
2019,8,17,21:30,UTC,1,1013.6,77,0,-1,18.3,14.3,49450,157,7.9,4.6
2019,8,17,21:40,UTC,1,1013.5,77,0,-1,18.3,14.2,44710,158,7.4,4.3
2019,8,17,21:50,UTC,1,1013.5,76,0,-1,18.3,14,50000,154,7.4,4.9
2019,8,17,22:00,UTC,1,1013.5,76,0,-1,18.2,13.9,45460,156,7.9,4.5
2019,8,17,22:10,UTC,1,1013.5,76,0,-1,18.2,13.8,46910,159,7.3,4.7
2019,8,17,22:20,UTC,3,1013.5,76,0,-1,18.2,13.8,50000,160,7.3,5
2019,8,17,22:30,UTC,5,1013.6,75,0,-1,18.3,13.7,50000,170,6.5,3.7
2019,8,17,22:40,UTC,7,1013.5,76,0,-1,18.2,13.8,47300,194,5.4,2.3
2019,8,17,22:50,UTC,7,1013.4,77,0,-1,18.1,14,43440,163,5.2,2.3
2019,8,17,23:00,UTC,7,1013.4,76,0,-1,18.1,13.9,50000,153,5.7,3.5
2019,8,17,23:10,UTC,7,1013.6,75,0,-1,18.2,13.7,45710,179,6.1,3.2
2019,8,17,23:20,UTC,5,1013.5,77,0,-1,18,13.9,46850,230,5.2,2.7
2019,8,17,23:30,UTC,5,1013.5,79,0,-1,17.8,14,47100,176,5,2.5
2019,8,17,23:40,UTC,5,1013.4,78,0,-1,17.8,13.8,49930,165,5,3.2
2019,8,17,23:50,UTC,3,1013.3,77,0,-1,17.6,13.6,44120,164,6.4,3.3
2019,8,18,00:00,UTC,1,1013.3,78,0,-1,17.4,13.5,46980,167,4.2,2.5
2019,8,18,00:10,UTC,1,1013.3,78,0,-1,17.5,13.5,46530,181,5.5,2.8
2019,8,18,00:20,UTC,0,1013.4,80,0,-1,16.9,13.5,44520,203,4.2,2.3
2019,8,18,00:30,UTC,0,1013.3,78,0,-1,17.2,13.4,47430,184,6.3,3.5
2019,8,18,00:40,UTC,0,1013.3,77,0,-1,17.4,13.4,49970,169,5.9,3.4
2019,8,18,00:50,UTC,1,1013.2,78,0,-1,17.3,13.5,41710,165,7.2,3.8
2019,8,18,01:00,UTC,3,1013.2,77,0,-1,17.4,13.4,42980,162,6.7,3.4
2019,8,18,01:10,UTC,3,1013.1,78,0,-1,17.3,13.4,49410,152,5.8,3.6
2019,8,18,01:20,UTC,1,1013.1,78,0,-1,17.3,13.4,44190,150,6.8,4
2019,8,18,01:30,UTC,1,1013,77,0,-1,17.3,13.2,49010,149,7,4.4
2019,8,18,01:40,UTC,1,1012.9,76,0,-1,17.2,13,50000,157,7.4,4.1
2019,8,18,01:50,UTC,1,1012.8,76,0,-1,17.3,12.9,49180,161,8.2,4.1
2019,8,18,02:00,UTC,1,1012.8,76,0,-1,17.1,12.9,46090,164,7.9,4.7
2019,8,18,02:10,UTC,1,1012.7,76,0,-1,17.2,12.9,44460,161,7.1,4.1
2019,8,18,02:20,UTC,0,1012.7,76,0,-1,17.1,12.8,49100,162,7,4.1
2019,8,18,02:30,UTC,3,1012.7,77,0,-1,17.1,13,47310,162,7,4.1
2019,8,18,02:40,UTC,5,1012.7,76,0,-1,17.2,12.9,44680,160,5,3.4
2019,8,18,02:50,UTC,7,1012.7,76,0,-1,17.1,12.8,45960,161,5.8,3.5
2019,8,18,03:00,UTC,7,1012.7,76,0,-1,17.1,12.9,48400,166,5.6,3.3
2019,8,18,03:10,UTC,5,1012.7,78,0,-1,17,13,48820,156,5.2,3
2019,8,18,03:20,UTC,1,1012.7,80,0,-1,16.9,13.4,42840,146,4.3,2.6
2019,8,18,03:30,UTC,1,1012.8,80,0,-1,16.8,13.3,42370,155,5.3,3
2019,8,18,03:40,UTC,0,1012.8,80,0,-1,16.7,13.2,46920,168,5.1,3.2
2019,8,18,03:50,UTC,0,1012.8,79,0,-1,16.9,13.2,48870,164,5.5,3.1
2019,8,18,04:00,UTC,0,1012.8,80,0,-1,16.8,13.4,42460,152,5,3.3
2019,8,18,04:10,UTC,0,1012.8,80,0,-1,16.9,13.4,50000,158,5.5,3.7
2019,8,18,04:20,UTC,0,1012.7,79,0,-1,17.1,13.4,43630,158,6.3,3.6
2019,8,18,04:30,UTC,0,1012.7,78,0,-1,17.3,13.4,50000,154,5.7,3.5
2019,8,18,04:40,UTC,0,1012.6,76,0,-1,17.7,13.4,44660,156,6,3.4
2019,8,18,04:50,UTC,0,1012.6,76,0,-1,17.7,13.3,50000,157,6.4,4
2019,8,18,05:00,UTC,0,1012.6,74,0,-1,18,13.3,44310,159,6.6,4.5
2019,8,18,05:10,UTC,0,1012.5,74,0,-1,18.2,13.4,46290,160,7.5,4.5
2019,8,18,05:20,UTC,0,1012.5,73,0,-1,18.3,13.3,41390,161,6.4,4.4
2019,8,18,05:30,UTC,0,1012.5,71,0,-1,18.4,13.1,49750,160,7.6,5.1
2019,8,18,05:40,UTC,0,1012.5,71,0,-1,18.3,12.9,42260,156,8.5,5.5
2019,8,18,05:50,UTC,0,1012.6,70,0,-1,18.3,12.7,46210,158,7.5,4.5
2019,8,18,06:00,UTC,0,1012.6,70,0,-1,18.3,12.8,44740,158,7.6,4.7
2019,8,18,06:10,UTC,0,1012.6,71,0,-1,18.3,13,38820,144,8.3,5.1
2019,8,18,06:20,UTC,1,1012.7,68,0,-1,18.7,12.8,45040,148,7.8,5.5
2019,8,18,06:30,UTC,3,1012.7,66,0,-1,19.1,12.6,37570,147,8.3,6
2019,8,18,06:40,UTC,5,1012.7,65,0,-1,19.2,12.5,43800,152,8.4,5.4
2019,8,18,06:50,UTC,7,1012.7,65,0,-1,19.2,12.4,39750,148,8.1,5.4
2019,8,18,07:00,UTC,7,1012.6,66,0,-1,18.4,11.9,42350,145,7.7,5.2
2019,8,18,07:10,UTC,7,1012.6,65,0,-1,18.7,12.1,47950,150,9.2,5.3
2019,8,18,07:20,UTC,7,1012.5,64,0,-1,18.9,11.9,40200,151,7.2,4.3
2019,8,18,07:30,UTC,7,1012.5,62,0,-1,19.4,12,48110,145,5.5,3.4
2019,8,18,07:40,UTC,7,1012.3,60,0,-1,19.7,11.6,46900,138,5.9,4
2019,8,18,07:50,UTC,7,1012.3,61,0,-1,19.6,11.9,47500,134,7.1,4.7
2019,8,18,08:00,UTC,5,1012.2,62,0,-1,19.7,12.1,37250,132,8.3,5
2019,8,18,08:10,UTC,7,1012.2,61,0,-1,19.7,11.9,44760,132,9.6,5.6
2019,8,18,08:20,UTC,5,1012.2,64,0,-1,19.3,12.3,45360,132,8.9,6
2019,8,18,08:30,UTC,5,1012.2,65,0,-1,19.8,13,46010,130,9.7,5.5
2019,8,18,08:40,UTC,5,1012.3,64,0,-1,19.6,12.6,45360,131,8,4.9
2019,8,18,08:50,UTC,7,1012.2,62,0,-1,20,12.6,43560,132,8.4,4.8
2019,8,18,09:00,UTC,8,1012.2,64,0,-1,19.5,12.6,49140,128,8.4,5.2
2019,8,18,09:10,UTC,8,1012.2,62,0,-1,19.8,12.3,46550,130,8.7,5.7
2019,8,18,09:20,UTC,7,1012.2,62,0,-1,19.6,12.2,45850,124,8.6,4.9
2019,8,18,09:30,UTC,7,1012.2,61,0,-1,19.8,12,44610,129,7.8,5
2019,8,18,09:40,UTC,7,1012.2,65,0,-1,19.6,12.9,45800,118,9,5.9
2019,8,18,09:50,UTC,7,1012.2,67,0,-1,19.2,13,45160,115,9.7,5.7
2019,8,18,10:00,UTC,7,1012.1,66,0,-1,19.5,13,41390,116,9.1,5.8
2019,8,18,10:10,UTC,7,1012.2,65,0,-1,19.4,12.7,49300,114,9.4,6.7
2019,8,18,10:20,UTC,7,1012.3,65,0,-1,19.4,12.6,44150,118,8.9,6
2019,8,18,10:30,UTC,7,1012.2,66,0,-1,19.2,12.6,47720,119,8.5,5.6
2019,8,18,10:40,UTC,7,1012.2,66,0,-1,19.1,12.6,48790,118,9.9,6.1
2019,8,18,10:50,UTC,7,1012.1,64,0,-1,19.4,12.3,50000,116,9.4,5.4
2019,8,18,11:00,UTC,7,1012,62,0,-1,20,12.6,46970,112,9.1,6.4
2019,8,18,11:10,UTC,7,1011.9,62,0,-1,20,12.6,37040,113,9.8,7.1
2019,8,18,11:20,UTC,7,1011.9,64,0,-1,19.8,12.7,42620,112,9.9,7.4
2019,8,18,11:30,UTC,7,1011.9,63,0,-1,19.7,12.5,42710,113,9.9,7.7
2019,8,18,11:40,UTC,7,1011.8,62,0,-1,20.8,13.2,38980,112,10.2,7.9
2019,8,18,11:50,UTC,5,1011.8,57,0,-1,20.7,11.9,45010,113,10.3,8
2019,8,18,12:00,UTC,3,1011.8,58,0,-1,20.7,12.1,41330,113,10.7,7.3
2019,8,18,12:10,UTC,3,1011.9,56,0,-1,21.1,12,42910,113,11.6,8.7
2019,8,18,12:20,UTC,3,1012,56,0,-1,21.1,12,34000,114,10.5,8.2
2019,8,18,12:30,UTC,5,1012,56,0,-1,21.2,12.1,35740,114,10.5,7.8
2019,8,18,12:40,UTC,3,1011.8,57,0,-1,20.7,11.8,39480,112,10.4,8.4
2019,8,18,12:50,UTC,5,1011.8,59,0,-1,20.2,11.8,46250,113,11.1,8.4
2019,8,18,13:00,UTC,3,1011.7,56,0,-1,20.7,11.7,47770,113,10.8,8.2
2019,8,18,13:10,UTC,1,1011.7,56,0,-1,20.3,11.4,49210,113,11.1,8.2
2019,8,18,13:20,UTC,1,1011.5,58,0,-1,20.4,11.8,49860,113,11.2,8.7
2019,8,18,13:30,UTC,0,1011.5,57,0,-1,20,11.3,49100,114,11.6,8.7
2019,8,18,13:40,UTC,1,1011.5,58,0,-1,20.1,11.5,40910,114,12,8.9
2019,8,18,13:50,UTC,1,1011.5,60,0,-1,19.9,11.9,48570,115,11.6,8.3
2019,8,18,14:00,UTC,3,1011.6,60,0,-1,19.7,11.7,44750,116,10.9,8.2
2019,8,18,14:10,UTC,5,1011.5,61,0,-1,19.7,12,47790,114,11.1,8.5
2019,8,18,14:20,UTC,7,1011.4,61,0,-1,19.6,11.9,46980,116,11.3,7.8
2019,8,18,14:30,UTC,7,1011.2,60,0,-1,19.8,11.9,43960,114,8.8,6
2019,8,18,14:40,UTC,7,1011.1,59,0,-1,19.9,11.7,46550,112,9.8,6.9
2019,8,18,14:50,UTC,5,1010.9,60,0,-1,19.6,11.6,50000,111,9.3,5.8
2019,8,18,15:00,UTC,3,1010.9,60,0,-1,19.7,11.6,40330,114,9.1,6.5
2019,8,18,15:10,UTC,3,1010.9,59,0,-1,19.5,11.4,50000,112,10.7,6
2019,8,18,15:20,UTC,5,1011,61,0,-1,19.3,11.6,50000,112,9.1,6.1
2019,8,18,15:30,UTC,5,1010.9,62,0,-1,19.2,11.7,50000,113,8.9,5.9
2019,8,18,15:40,UTC,7,1010.8,63,0,-1,19.2,11.9,50000,112,8.4,5.9
2019,8,18,15:50,UTC,5,1010.8,65,0,-1,19,12.2,49970,113,8.9,6
2019,8,18,16:00,UTC,7,1010.8,66,0,-1,19,12.5,50000,112,9,6.3
2019,8,18,16:10,UTC,7,1010.8,66,0,-1,19,12.6,50000,111,9.6,6.4
2019,8,18,16:20,UTC,7,1010.8,67,0,-1,19,12.7,47050,113,9.3,6.4
2019,8,18,16:30,UTC,7,1010.8,68,0,-1,18.9,12.8,47770,113,9.1,6.5
2019,8,18,16:40,UTC,7,1010.8,69,0,-1,18.8,12.9,49900,113,9.5,6.3
2019,8,18,16:50,UTC,7,1010.7,69,0,-1,18.8,13,50000,114,8.9,6
2019,8,18,17:00,UTC,7,1010.6,71,0,-1,18.7,13.3,50000,112,8.4,6.4
2019,8,18,17:10,UTC,7,1010.5,71,0,-1,18.8,13.3,50000,113,8.6,6.2
2019,8,18,17:20,UTC,7,1010.5,71,0,-1,18.8,13.4,46390,113,8.9,6.5
2019,8,18,17:30,UTC,7,1010.5,72,0,-1,18.8,13.5,46400,113,8.7,6.6
2019,8,18,17:40,UTC,7,1010.3,72,0,-1,18.7,13.6,50000,114,8.3,6.1
2019,8,18,17:50,UTC,7,1010.2,73,0,-1,18.8,13.8,46150,113,8.3,5.9
2019,8,18,18:00,UTC,7,1010.1,74,0,-1,18.7,14,50000,113,7.6,5.6
2019,8,18,18:10,UTC,7,1010,74,0,-1,18.8,14,48120,112,6.9,5.2
2019,8,18,18:20,UTC,7,1009.9,72,0,-1,19,13.8,50000,113,7.2,4.9
2019,8,18,18:30,UTC,7,1009.9,72,0,-1,19,13.8,50000,115,5.6,4.1
2019,8,18,18:40,UTC,7,1010,72,0,-1,19,13.9,50000,128,7.3,4.2
2019,8,18,18:50,UTC,7,1009.9,73,0,-1,18.9,14,45280,127,6.5,4.2
2019,8,18,19:00,UTC,5,1009.7,74,0,-1,18.7,14,48380,129,8.9,5.1
2019,8,18,19:10,UTC,5,1009.8,74,0,-1,18.7,14,49860,129,7.5,4.5
2019,8,18,19:20,UTC,7,1009.8,73,0,-1,18.8,13.9,50000,131,7.1,3.7
2019,8,18,19:30,UTC,7,1009.7,73,0,-1,18.8,13.9,50000,132,8,4.8
2019,8,18,19:40,UTC,7,1009.5,71,0,-1,19,13.7,50000,133,8,4.8
2019,8,18,19:50,UTC,7,1009.3,71,0,-1,18.9,13.6,42030,128,8.4,4.6
2019,8,18,20:00,UTC,7,1009.4,71,0,-1,18.8,13.5,48180,133,8.7,4.9
2019,8,18,20:10,UTC,7,1009.5,72,0,-1,18.8,13.5,50000,137,8.5,5.1
2019,8,18,20:20,UTC,7,1009.5,71,0,-1,18.8,13.3,50000,135,7.9,5.3
2019,8,18,20:30,UTC,7,1009.4,70,0,-1,18.8,13.3,48990,131,7.7,4.6
2019,8,18,20:40,UTC,7,1009.3,71,0,-1,18.7,13.3,50000,129,7.6,5
2019,8,18,20:50,UTC,7,1009.1,70,0,-1,18.7,13.2,42090,131,8.4,4.5
2019,8,18,21:00,UTC,7,1009.2,71,0,-1,18.7,13.3,49760,128,7.6,4.6
2019,8,18,21:10,UTC,7,1009.2,70,0,-1,18.7,13.1,49310,131,7.3,4.9
2019,8,18,21:20,UTC,7,1009.2,69,0,-1,18.7,12.9,48920,133,8,4.8
2019,8,18,21:30,UTC,7,1009.1,66,0,-1,18.9,12.5,46120,136,6.3,3.9
2019,8,18,21:40,UTC,7,1009,66,0,-1,19,12.5,49040,139,8.9,4
2019,8,18,21:50,UTC,7,1008.9,66,0,-1,19,12.4,50000,136,8,4.5
2019,8,18,22:00,UTC,7,1008.9,65,0,-1,19,12.3,45900,140,8.4,3.8
2019,8,18,22:10,UTC,7,1008.9,65,0,-1,19.1,12.3,49810,139,6.7,3.9
2019,8,18,22:20,UTC,8,1008.8,65,0,-1,19,12.3,50000,138,7.4,4.3
2019,8,18,22:30,UTC,7,1008.7,65,0,-1,19,12.3,46520,140,9.4,4.6
2019,8,18,22:40,UTC,7,1008.6,66,0,-1,19,12.4,50000,139,7.6,4.6
2019,8,18,22:50,UTC,7,1008.5,66,0,-1,18.9,12.5,50000,136,7.5,4.6
2019,8,18,23:00,UTC,7,1008.5,66,0,-1,19,12.5,50000,141,7.5,4.7
2019,8,18,23:10,UTC,7,1008.4,69,0,-1,18.8,12.9,24970,145,7,4.4
2019,8,18,23:20,UTC,7,1008.2,71,0,-1,18.5,13.1,50000,142,7.3,4.2
2019,8,18,23:30,UTC,7,1008.1,69,0,-1,18.5,12.8,47480,136,8.8,4.4
2019,8,18,23:40,UTC,7,1008,69,0,-1,18.5,12.8,48410,133,7.8,4.6
2019,8,18,23:50,UTC,7,1007.9,69,0,-1,18.5,12.7,50000,137,8.2,4.6
2019,8,19,00:00,UTC,7,1007.8,68,0,-1,18.6,12.6,50000,142,8.1,4.8
2019,8,19,00:10,UTC,7,1007.7,69,0,-1,18.6,12.7,50000,142,8,4.8
2019,8,19,00:20,UTC,7,1007.6,69,0,-1,18.5,12.7,48080,140,8.4,5
2019,8,19,00:30,UTC,7,1007.5,69,0,-1,18.6,12.7,50000,143,9.3,5.4
2019,8,19,00:40,UTC,7,1007.3,69,0,-1,18.5,12.8,42940,146,9.3,5.4
2019,8,19,00:50,UTC,7,1007.2,69,0,-1,18.6,12.8,50000,146,8.7,4.8
2019,8,19,01:00,UTC,7,1007.3,71,0,-1,18.4,13.1,35210,149,8.5,4.9
2019,8,19,01:10,UTC,7,1007,73,0,-1,18.2,13.2,37910,151,9.7,6
2019,8,19,01:20,UTC,7,1006.9,74,0,-1,18.1,13.4,27950,155,8.4,5.2
2019,8,19,01:30,UTC,7,1006.9,75,0,-1,18,13.4,47610,153,7.4,4.1
2019,8,19,01:40,UTC,7,1006.7,74,0,-1,18,13.4,38480,150,7.4,4.5
2019,8,19,01:50,UTC,7,1006.7,73,0,-1,18.1,13.2,46210,152,9.2,5.1
2019,8,19,02:00,UTC,7,1006.7,74,0,-1,18.1,13.3,40010,155,8.5,5
2019,8,19,02:10,UTC,7,1006.8,75,0,-1,18,13.5,47220,158,7.8,5.4
2019,8,19,02:20,UTC,7,1006.7,78,0,-1,17.7,13.8,27480,158,7.8,4.3
2019,8,19,02:30,UTC,7,1006.7,81,0.4,-1,17.4,14.1,29850,152,5.9,3.7
2019,8,19,02:40,UTC,7,1006.7,83,0.1,-1,17.3,14.3,27390,152,6.9,3.5
2019,8,19,02:50,UTC,7,1006.6,84,0.6,-1,17.1,14.4,16540,151,7.3,3.8
2019,8,19,03:00,UTC,7,1006.4,84,0.8,-1,17.1,14.3,17420,148,6.7,3.5
2019,8,19,03:10,UTC,7,1006.4,83,0.4,-1,17.1,14.2,20640,150,7.3,4
2019,8,19,03:20,UTC,7,1006.5,85,0.9,-1,17,14.4,15950,156,7.5,4.7
2019,8,19,03:30,UTC,7,1006.6,86,0.1,-1,16.9,14.5,22480,160,7,4.4
2019,8,19,03:40,UTC,7,1006.5,85,0.4,-1,16.9,14.4,25730,156,6.7,4.3
2019,8,19,03:50,UTC,7,1006.4,86,0.3,-1,16.9,14.5,20080,156,7.6,4.1
2019,8,19,04:00,UTC,8,1006.2,86,0.1,-1,16.9,14.5,27490,153,6.4,3.9
2019,8,19,04:10,UTC,8,1006.1,84,0,-1,17,14.3,34180,136,6.3,4.4
2019,8,19,04:20,UTC,7,1006.1,83,0,-1,17.1,14.2,32030,141,7,4.4
2019,8,19,04:30,UTC,7,1006.1,84,0.5,-1,17.1,14.4,16490,147,9.1,5.1
2019,8,19,04:40,UTC,7,1006.1,85,0.8,-1,17,14.4,19970,153,7.7,5.3
2019,8,19,04:50,UTC,7,1006,85,0.1,-1,16.9,14.5,28590,154,7.6,4.3
2019,8,19,05:00,UTC,7,1005.8,84,0,-1,17.1,14.3,37810,154,9.5,5.7
2019,8,19,05:10,UTC,7,1005.8,84,0,-1,17.1,14.4,33760,151,7.6,4.8
2019,8,19,05:20,UTC,7,1006,84,0,-1,17.2,14.5,21140,157,8.1,5.2
2019,8,19,05:30,UTC,7,1006.2,86,0.7,-1,17,14.5,10090,171,7.3,4.6
2019,8,19,05:40,UTC,7,1006.2,89,2,-1,16.6,14.7,6840,170,6.8,4.7
2019,8,19,05:50,UTC,7,1006.3,91,7.4,-1,16.3,14.8,2620,168,7.6,4.8
2019,8,19,06:00,UTC,7,1006.2,93,6.7,-1,16,14.9,3110,162,7.8,5.3
2019,8,19,06:10,UTC,7,1006.1,95,4.6,-1,15.9,15.1,4070,154,7.6,4.7
2019,8,19,06:20,UTC,8,1006,95,2.2,-1,15.9,15.2,6760,157,7,4.3
2019,8,19,06:30,UTC,8,1005.9,95,1.9,-1,16,15.2,7540,145,6.8,4
2019,8,19,06:40,UTC,7,1005.9,95,1.1,-1,16.1,15.3,8300,143,6.6,4
2019,8,19,06:50,UTC,7,1005.8,94,1.1,-1,16.1,15.1,11630,136,7.4,4.4
2019,8,19,07:00,UTC,7,1005.9,94,0.2,-1,16.2,15.2,19120,132,6.9,4.1
2019,8,19,07:10,UTC,7,1006,93,0,-1,16.2,15.1,16810,139,5.9,4
2019,8,19,07:20,UTC,8,1005.9,93,0,-1,16.2,15.1,18470,134,6.8,4.2
2019,8,19,07:30,UTC,8,1006,93,0,-1,16.3,15.2,24280,137,7.2,4.8
2019,8,19,07:40,UTC,8,1006,92,0,-1,16.4,15.1,23380,127,6.5,4
2019,8,19,07:50,UTC,7,1006,92,0,-1,16.5,15.2,24280,129,7.5,4.3
2019,8,19,08:00,UTC,7,1006,91,0,-1,16.6,15.1,27440,130,5.8,3.7
2019,8,19,08:10,UTC,7,1005.9,91,0,-1,16.7,15.1,26020,140,6.4,3.6
2019,8,19,08:20,UTC,7,1005.8,90,0,-1,16.7,15.1,8270,143,7.3,4.1
2019,8,19,08:30,UTC,7,1005.9,88,0.5,-1,17,15,27760,149,6.8,4
2019,8,19,08:40,UTC,8,1006,88,0,-1,17.1,15,30870,150,7.6,4.5
2019,8,19,08:50,UTC,7,1006,87,0,-1,17.3,15.1,25850,166,8,4.7
2019,8,19,09:00,UTC,8,1006.1,87,0,-1,17.4,15.1,8480,184,6.5,3.2
2019,8,19,09:10,UTC,7,1006.2,91,0.3,-1,17,15.6,5730,187,7.7,4.5
2019,8,19,09:20,UTC,7,1006.2,92,0,-1,17.1,15.7,10800,187,7.2,3.7
2019,8,19,09:30,UTC,8,1006.4,94,0,-1,17.3,16.4,13940,188,6.9,3.8
2019,8,19,09:40,UTC,7,1006.5,95,0,-1,17.5,16.7,12440,208,8,4.7
2019,8,19,09:50,UTC,7,1006.6,95,0,-1,17.6,16.7,9520,215,6.5,3.7
2019,8,19,10:00,UTC,8,1006.7,95,0,-1,17.7,16.8,6430,219,7.8,5.2
2019,8,19,10:10,UTC,8,1006.7,94,0,-1,17.7,16.7,11660,221,7.4,4.6
2019,8,19,10:20,UTC,7,1006.8,93,0,-1,18.1,16.9,13890,218,7.4,5.1
2019,8,19,10:30,UTC,7,1006.8,91,0,-1,18.5,17.1,16750,222,6.1,4
2019,8,19,10:40,UTC,5,1006.9,86,0,-1,19,16.6,21540,221,6.4,3.2
2019,8,19,10:50,UTC,3,1006.9,82,0,-1,19.5,16.4,36180,229,7.7,4.2
2019,8,19,11:00,UTC,1,1007.1,80,0,-1,19.2,15.6,39300,222,8.3,5.5
2019,8,19,11:10,UTC,1,1007.1,81,0,-1,19,15.6,37270,218,7.7,5.4
2019,8,19,11:20,UTC,1,1007.4,83,0,-1,19,16,45910,221,6.7,4.5
2019,8,19,11:30,UTC,1,1007.6,82,0,-1,18.7,15.6,50000,222,6.5,4.2
2019,8,19,11:40,UTC,1,1007.8,82,0,-1,18.9,15.7,45930,229,6.5,3.8
2019,8,19,11:50,UTC,1,1008,81,0,-1,19,15.6,41550,226,7.6,4.3
2019,8,19,12:00,UTC,1,1008.2,81,0,-1,18.9,15.6,43350,217,6.7,4.2
2019,8,19,12:10,UTC,1,1008.3,81,0,-1,18.9,15.5,50000,229,8.5,5.4
2019,8,19,12:20,UTC,1,1008.4,80,0,-1,18.9,15.4,43260,231,7.4,4.7
2019,8,19,12:30,UTC,1,1008.5,80,0,-1,19.2,15.6,40450,235,7.8,4.3
2019,8,19,12:40,UTC,1,1008.5,77,0,-1,19.3,15.2,44200,244,8.1,4.9
2019,8,19,12:50,UTC,1,1008.6,76,0,-1,19.3,15,41780,240,8.8,5.6
2019,8,19,13:00,UTC,0,1008.8,74,0,-1,19.3,14.6,45150,247,9.4,6.2
2019,8,19,13:10,UTC,0,1009.2,76,0,-1,19.1,14.7,43180,241,7.9,5
2019,8,19,13:20,UTC,1,1009.3,77,0,-1,19,14.9,44900,232,9.6,5.3
2019,8,19,13:30,UTC,3,1009.2,79,0,-1,18.7,15,43770,229,9.4,4.9
2019,8,19,13:40,UTC,5,1009.4,78,0,-1,18.6,14.7,40660,234,7.5,4.2
2019,8,19,13:50,UTC,5,1009.6,79,0,-1,18.6,14.9,40450,219,6.6,4.6
2019,8,19,14:00,UTC,5,1009.7,76,0,-1,18.9,14.6,47100,223,9,4.2
2019,8,19,14:10,UTC,3,1009.8,77,0,-1,19.3,15.1,40890,231,8.3,5
2019,8,19,14:20,UTC,1,1009.9,75,0,-1,19.1,14.5,46660,230,9.3,5.2
2019,8,19,14:30,UTC,1,1010.1,73,0,-1,19.2,14.2,39940,239,10.4,5.7
2019,8,19,14:40,UTC,1,1010.2,72,0,-1,19.1,14.1,49550,228,8.6,5.8
2019,8,19,14:50,UTC,0,1010.3,71,0,-1,19.3,13.9,48270,236,9.1,4.6
2019,8,19,15:00,UTC,1,1010.4,70,0,-1,19.5,14,44730,238,8.9,4.8
2019,8,19,15:10,UTC,0,1010.4,70,0,-1,19.3,13.7,44230,242,9.9,6
2019,8,19,15:20,UTC,1,1010.5,73,0,-1,18.9,14,48070,240,8.5,5
2019,8,19,15:30,UTC,0,1010.7,73,0,-1,18.7,13.8,50000,243,8.7,5.4
2019,8,19,15:40,UTC,1,1010.8,75,0,-1,18.5,13.9,47200,239,9.2,5.5
2019,8,19,15:50,UTC,1,1010.9,75,0,-1,18.6,14.1,47470,244,8.3,5.2
2019,8,19,16:00,UTC,1,1011,76,0,-1,18.5,14.2,43920,238,7.4,4.3
2019,8,19,16:10,UTC,1,1011.1,78,0,-1,18.3,14.3,42410,239,8.5,4.5
2019,8,19,16:20,UTC,1,1011.2,78,0,-1,18.1,14.3,50000,234,8.9,4.6
2019,8,19,16:30,UTC,0,1011.3,78,0,-1,18.3,14.4,47130,229,7.9,4.3
2019,8,19,16:40,UTC,0,1011.5,77,0,-1,18.3,14.3,44140,227,8,4.7
2019,8,19,16:50,UTC,0,1011.5,77,0,-1,18.3,14.1,47660,226,7.2,4.9
2019,8,19,17:00,UTC,0,1011.6,77,0,-1,18.2,14,46900,229,7.1,4.2
2019,8,19,17:10,UTC,0,1011.8,77,0,-1,18,13.9,50000,232,7.7,4.1
2019,8,19,17:20,UTC,0,1011.8,78,0,-1,17.7,13.8,47070,223,7.7,4.3
2019,8,19,17:30,UTC,0,1011.8,80,0,-1,17.5,14,49460,223,6.1,3.8
2019,8,19,17:40,UTC,0,1011.8,80,0,-1,17.5,13.9,44690,224,6.9,3.8
2019,8,19,17:50,UTC,0,1011.9,80,0,-1,17.4,13.9,50000,237,6.9,3.7
2019,8,19,18:00,UTC,0,1012.1,80,0,-1,17.3,13.9,50000,240,7.3,4.5
2019,8,19,18:10,UTC,0,1012.2,80,0,-1,17.2,13.8,46130,244,7.8,4.7
2019,8,19,18:20,UTC,0,1012.2,80,0,-1,17.2,13.8,50000,241,8.1,4.8
2019,8,19,18:30,UTC,0,1012.3,81,0,-1,17.1,13.8,50000,241,5.8,3.7
2019,8,19,18:40,UTC,0,1012.3,81,0,-1,16.9,13.6,50000,239,7.9,4.3
2019,8,19,18:50,UTC,0,1012.4,79,0,-1,16.9,13.3,50000,242,8.4,4.3
2019,8,19,19:00,UTC,0,1012.4,81,0,-1,16.7,13.5,46550,247,6.4,3.8
2019,8,19,19:10,UTC,0,1012.6,82,0,-1,16.6,13.5,49160,243,5.5,3.4
2019,8,19,19:20,UTC,0,1012.7,81,0,-1,16.6,13.4,49090,241,5.6,3.2
2019,8,19,19:30,UTC,0,1012.7,82,0,-1,16.5,13.4,43850,241,5.9,3.8
2019,8,19,19:40,UTC,0,1012.8,82,0,-1,16.5,13.4,45610,248,6.9,3.5
2019,8,19,19:50,UTC,0,1012.9,82,0,-1,16.5,13.4,49830,246,6.9,4.1
2019,8,19,20:00,UTC,0,1013,82,0,-1,16.6,13.5,44750,246,7.7,4.1
2019,8,19,20:10,UTC,0,1013.1,83,0,-1,16.5,13.6,43160,247,7.7,4.3
2019,8,19,20:20,UTC,0,1013.2,83,0,-1,16.5,13.5,40230,244,6.6,3.9
2019,8,19,20:30,UTC,0,1013.3,82,0,-1,16.6,13.5,41270,247,7.3,4
2019,8,19,20:40,UTC,0,1013.4,83,0,-1,16.5,13.5,39770,245,6.6,4.1
2019,8,19,20:50,UTC,0,1013.5,82,0,-1,16.5,13.4,36020,244,6.5,4
2019,8,19,21:00,UTC,0,1013.5,82,0,-1,16.4,13.4,35290,245,5.8,3.7
2019,8,19,21:10,UTC,0,1013.6,82,0,-1,16.3,13.3,39950,253,4.9,3.1
2019,8,19,21:20,UTC,0,1013.7,82,0,-1,16.3,13.3,37430,252,5.7,3.4
2019,8,19,21:30,UTC,0,1013.8,82,0,-1,16.3,13.2,37110,246,6.2,3.1
2019,8,19,21:40,UTC,0,1013.8,81,0,-1,16.4,13.1,32460,247,4.9,2.9
2019,8,19,21:50,UTC,0,1013.8,82,0,-1,16.3,13.2,39590,248,3.8,2.2
2019,8,19,22:00,UTC,0,1013.9,83,0,-1,15.9,13.1,34600,234,3.7,2.3
2019,8,19,22:10,UTC,0,1013.9,86,0,-1,15.4,13,29510,231,3.6,1.8
2019,8,19,22:20,UTC,0,1013.9,88,0,-1,15.2,13.2,30320,236,3.4,1.9
2019,8,19,22:30,UTC,0,1013.9,87,0,-1,15.7,13.5,32370,229,3.7,2.3
2019,8,19,22:40,UTC,0,1014,86,0,-1,16,13.8,28290,226,4.9,2.6
2019,8,19,22:50,UTC,0,1014,87,0,-1,16.2,13.9,26840,226,4.9,2.7
2019,8,19,23:00,UTC,0,1014,87,0,-1,16.2,14,26330,227,5.2,3
2019,8,19,23:10,UTC,0,1014,87,0,-1,16.1,14,24870,233,5,2.5
2019,8,19,23:20,UTC,0,1014,88,0,-1,16.1,14.1,27770,224,4,2.4
2019,8,19,23:30,UTC,0,1014,87,0,-1,16.2,14,24050,228,5.2,3.1
2019,8,19,23:40,UTC,0,1014.1,88,0,-1,16.1,14,24890,224,4.9,2.9
2019,8,19,23:50,UTC,0,1014.1,89,0,-1,16,14.3,22810,216,4.5,2.7
2019,8,20,00:00,UTC,0,1014.2,90,0,-1,16,14.3,20940,212,4.8,2.7
2019,8,20,00:10,UTC,0,1014.2,91,0,-1,16,14.4,19670,217,4.6,2.3
2019,8,20,00:20,UTC,0,1014.3,92,0,-1,16,14.6,19410,213,5.6,3.2
2019,8,20,00:30,UTC,0,1014.3,92,0,-1,16.1,14.8,21500,214,5.6,3.1
2019,8,20,00:40,UTC,0,1014.4,93,0,-1,16,14.9,20140,213,5.7,3.2
2019,8,20,00:50,UTC,1,1014.6,93,0,-1,16.2,15.1,17860,209,5.3,3.2
2019,8,20,01:00,UTC,5,1014.7,93,0,-1,16.4,15.2,18170,214,4.9,3.1
2019,8,20,01:10,UTC,5,1014.8,93,0,-1,16.4,15.3,17840,206,5.1,3.1
2019,8,20,01:20,UTC,7,1014.9,93,0,-1,16.4,15.3,15810,200,5,2.8
2019,8,20,01:30,UTC,7,1014.9,93,0,-1,16.5,15.4,16650,206,5.4,3.3
2019,8,20,01:40,UTC,7,1015,93,0,-1,16.6,15.5,16290,215,6.2,4.1
2019,8,20,01:50,UTC,7,1015.1,93,0,-1,16.6,15.3,17550,213,7,3.9
2019,8,20,02:00,UTC,7,1015.1,93,0,-1,16.5,15.3,16360,210,7.5,3.9
2019,8,20,02:10,UTC,7,1015.1,93,0,-1,16.4,15.3,18600,209,6.6,4.1
2019,8,20,02:20,UTC,5,1015.1,93,0,-1,16.4,15.2,16990,217,7.2,4
2019,8,20,02:30,UTC,5,1015.2,93,0,-1,16.4,15.3,17240,211,7.3,3.5
2019,8,20,02:40,UTC,5,1015.3,93,0,-1,16.3,15.2,16810,210,6.7,4.4
2019,8,20,02:50,UTC,7,1015.4,94,0,-1,16.3,15.3,15570,207,6.4,4.1
2019,8,20,03:00,UTC,7,1015.5,94,0,-1,16.4,15.3,15870,212,5.6,3.8
2019,8,20,03:10,UTC,5,1015.6,93,0,-1,16.5,15.4,15650,213,7.2,4.2
2019,8,20,03:20,UTC,3,1015.6,93,0,-1,16.6,15.5,17000,210,7.8,4.7
2019,8,20,03:30,UTC,5,1015.7,93,0,-1,16.6,15.5,16050,213,8.4,4.7
2019,8,20,03:40,UTC,7,1015.7,93,0,-1,16.6,15.5,15910,213,7.9,4.7
2019,8,20,03:50,UTC,7,1015.7,93,0,-1,16.5,15.5,15090,217,5.6,3.4
2019,8,20,04:00,UTC,7,1015.8,93,0,-1,16.5,15.4,15940,217,7,3.7
2019,8,20,04:10,UTC,8,1015.8,93,0,-1,16.6,15.4,16040,217,6.6,4.3
2019,8,20,04:20,UTC,8,1015.9,93,0,-1,16.7,15.5,16500,213,6.7,4.2
2019,8,20,04:30,UTC,8,1015.9,92,0,-1,16.7,15.5,16600,211,6.5,4
2019,8,20,04:40,UTC,8,1015.9,92,0,-1,16.8,15.5,17090,210,6.9,4
2019,8,20,04:50,UTC,7,1016.1,92,0,-1,16.8,15.4,17620,210,7.4,4.8
2019,8,20,05:00,UTC,7,1016.1,91,0,-1,16.9,15.4,18280,208,8,4.6
2019,8,20,05:10,UTC,8,1016.2,91,0,-1,16.9,15.5,17410,208,7.6,5.1
2019,8,20,05:20,UTC,8,1016.3,91,0,-1,16.9,15.4,18290,204,8,5.1
2019,8,20,05:30,UTC,8,1016.4,91,0,-1,16.8,15.3,19470,211,7.4,4.2
2019,8,20,05:40,UTC,8,1016.4,91,0,-1,16.9,15.4,19180,209,6.5,4
2019,8,20,05:50,UTC,8,1016.4,91,0,-1,16.9,15.4,18770,205,7.6,4.6
2019,8,20,06:00,UTC,7,1016.5,90,0,-1,17.2,15.4,17450,205,7.6,4.6
2019,8,20,06:10,UTC,7,1016.5,91,0,-1,17.1,15.5,20410,203,7.8,5.4
2019,8,20,06:20,UTC,8,1016.6,90,0,-1,16.9,15.4,17530,205,8.8,5.1
2019,8,20,06:30,UTC,8,1016.7,88,0,-1,17.4,15.4,21630,206,8.3,5.3
2019,8,20,06:40,UTC,7,1016.7,88,0,-1,17.5,15.5,25480,211,8.3,4.9
2019,8,20,06:50,UTC,7,1016.8,88,0,-1,17.6,15.6,21750,209,8.3,4.9
2019,8,20,07:00,UTC,7,1017,87,0,-1,17.6,15.4,24950,204,8.4,5.1
2019,8,20,07:10,UTC,7,1017,89,0,-1,17.3,15.4,20190,208,8.7,5.5
2019,8,20,07:20,UTC,7,1017.1,89,0,-1,17.4,15.5,19580,204,8.1,5
2019,8,20,07:30,UTC,7,1017.1,88,0,-1,17.5,15.5,18970,205,8.7,6.2
2019,8,20,07:40,UTC,5,1017.2,86,0,-1,17.9,15.6,20270,205,9,6.3
2019,8,20,07:50,UTC,5,1017.2,86,0,-1,18,15.7,20200,205,9.7,6.2
2019,8,20,08:00,UTC,7,1017.3,86,0,-1,17.8,15.4,22640,208,8.5,5.5
2019,8,20,08:10,UTC,7,1017.3,86,0,-1,18,15.5,22600,208,8.8,6
2019,8,20,08:20,UTC,7,1017.3,84,0,-1,18.4,15.6,21380,206,8.9,5.2
2019,8,20,08:30,UTC,7,1017.4,83,0,-1,18.8,15.9,25730,208,9.2,5.8
2019,8,20,08:40,UTC,5,1017.4,82,0,-1,18.9,15.8,21710,211,8.7,5.2
2019,8,20,08:50,UTC,3,1017.4,82,0,-1,19,15.8,23490,219,9.7,5.1
2019,8,20,09:00,UTC,1,1017.4,80,0,-1,19.2,15.7,25190,214,8.1,4.1
2019,8,20,09:10,UTC,1,1017.4,81,0,-1,19.2,15.9,26200,224,10.8,6.2
2019,8,20,09:20,UTC,1,1017.5,80,0,-1,19.1,15.6,26100,220,9,5.6
2019,8,20,09:30,UTC,1,1017.5,79,0,-1,19.6,15.8,30150,224,11.4,5.8
2019,8,20,09:40,UTC,1,1017.6,80,0,-1,19.3,15.8,29600,220,12.1,8
2019,8,20,09:50,UTC,0,1017.6,79,0,-1,19.4,15.7,24770,221,12.6,7.5
2019,8,20,10:00,UTC,0,1017.7,78,0,-1,19.5,15.6,25570,222,11.7,7.8
2019,8,20,10:10,UTC,0,1017.7,80,0,-1,19.2,15.7,26810,222,13,8.5
2019,8,20,10:20,UTC,0,1017.8,80,0,-1,19.2,15.6,26000,217,12,8.9
2019,8,20,10:30,UTC,0,1017.8,80,0,-1,19.6,16,32850,219,11.3,7.5
2019,8,20,10:40,UTC,0,1017.8,77,0,-1,19.9,15.7,28300,216,11.4,8
2019,8,20,10:50,UTC,0,1017.8,77,0,-1,19.2,15.2,26520,216,10.8,6.9
2019,8,20,11:00,UTC,0,1017.8,75,0,-1,19.9,15.3,25120,216,10.6,6.9
2019,8,20,11:10,UTC,0,1017.8,75,0,-1,20,15.5,32410,216,11.6,7.5
2019,8,20,11:20,UTC,0,1017.9,75,0,-1,20,15.3,28630,216,12,8.1
2019,8,20,11:30,UTC,0,1017.9,75,0,-1,19.6,15,31760,216,11.5,8.1
2019,8,20,11:40,UTC,0,1018,76,0,-1,19.6,15.3,24440,216,12,8.5
2019,8,20,11:50,UTC,0,1018.1,74,0,-1,19.9,15.1,27700,216,11.8,8.6
2019,8,20,12:00,UTC,0,1018.2,74,0,-1,20.1,15.4,27800,215,12.1,9
2019,8,20,12:10,UTC,0,1018.2,72,0,-1,20,14.9,29500,214,11.3,8.1
2019,8,20,12:20,UTC,0,1018.3,73,0,-1,19.6,14.7,30380,221,10.7,6.5
2019,8,20,12:30,UTC,0,1018.4,72,0,-1,20,14.9,33830,216,11.1,6.7
2019,8,20,12:40,UTC,0,1018.4,73,0,-1,20,15,33230,214,11.2,8.1
2019,8,20,12:50,UTC,0,1018.4,72,0,-1,19.9,14.6,31570,215,11.5,8.1
2019,8,20,13:00,UTC,0,1018.5,73,0,-1,20.1,15.1,31960,216,10.8,7.2
2019,8,20,13:10,UTC,0,1018.6,74,0,-1,19.9,15.1,32150,216,11.1,7.3
2019,8,20,13:20,UTC,0,1018.7,74,0,-1,19.6,14.8,32910,216,11.5,7.5
2019,8,20,13:30,UTC,0,1018.7,70,0,-1,19.7,14,40130,215,9.8,7.2
2019,8,20,13:40,UTC,0,1018.8,68,0,-1,19.8,13.6,37670,222,9.8,6.4
2019,8,20,13:50,UTC,0,1018.8,70,0,-1,19.2,13.6,39300,222,9.7,5.4
2019,8,20,14:00,UTC,0,1018.9,71,0,-1,19.5,14.1,37990,215,10.6,6.9
2019,8,20,14:10,UTC,0,1019,72,0,-1,19.6,14.4,31570,213,9.8,6.8
2019,8,20,14:20,UTC,0,1019.1,74,0,-1,19,14.2,30980,216,10,6.9
2019,8,20,14:30,UTC,0,1019.1,74,0,-1,19,14.1,35390,219,9.5,6.1
2019,8,20,14:40,UTC,0,1019.1,76,0,-1,18.9,14.5,34210,222,9.7,5.6
2019,8,20,14:50,UTC,0,1019.2,77,0,-1,18.8,14.6,37270,222,9.7,5.9
2019,8,20,15:00,UTC,0,1019.3,78,0,-1,18.9,15,31620,217,9.6,6.4
2019,8,20,15:10,UTC,0,1019.3,80,0,-1,18.7,15.1,30140,215,11.7,7.4
2019,8,20,15:20,UTC,0,1019.3,79,0,-1,18.4,14.7,32990,218,10.8,6.8
2019,8,20,15:30,UTC,0,1019.4,79,0,-1,18.3,14.6,33650,221,10.3,6.5
2019,8,20,15:40,UTC,0,1019.4,79,0,-1,18.5,14.8,29480,227,10.5,5.1
2019,8,20,15:50,UTC,0,1019.3,77,0,-1,18.5,14.4,30810,231,10.2,6.2
2019,8,20,16:00,UTC,0,1019.4,76,0,-1,18.5,14.2,32820,228,8.4,5.4
2019,8,20,16:10,UTC,0,1019.5,77,0,-1,18.5,14.4,30450,230,9.4,5.9
2019,8,20,16:20,UTC,0,1019.5,77,0,-1,18.4,14.3,31660,229,8.5,5
2019,8,20,16:30,UTC,0,1019.6,77,0,-1,18.3,14.1,30990,230,7.5,4.5
2019,8,20,16:40,UTC,0,1019.6,77,0,-1,18.2,14.1,28780,230,8.1,4.8
2019,8,20,16:50,UTC,0,1019.6,77,0,-1,18.1,14.1,32120,228,7.2,4.4
2019,8,20,17:00,UTC,0,1019.7,77,0,-1,18.1,14,34050,238,7.7,4.3
2019,8,20,17:10,UTC,0,1019.8,77,0,-1,18,13.9,27860,239,7.3,4.2
2019,8,20,17:20,UTC,0,1019.8,77,0,-1,17.9,13.8,28530,241,8.3,5.2
2019,8,20,17:30,UTC,0,1019.9,79,0,-1,17.8,14.1,26570,242,9.6,5.2
2019,8,20,17:40,UTC,0,1019.9,80,0,-1,17.7,14.1,27280,245,7.9,4.3
2019,8,20,17:50,UTC,0,1019.9,80,0,-1,17.6,14.1,23710,245,7.2,4.6
2019,8,20,18:00,UTC,0,1020,81,0,-1,17.5,14.2,27290,243,7.6,4
2019,8,20,18:10,UTC,0,1020,81,0,-1,17.5,14.2,24640,241,6.6,4
2019,8,20,18:20,UTC,0,1020,82,0,-1,17.4,14.2,24340,245,7.4,4.4
2019,8,20,18:30,UTC,0,1020,82,0,-1,17.3,14.3,23640,241,6.1,3.6
2019,8,20,18:40,UTC,0,1020.1,82,0,-1,17.3,14.2,24630,243,7.1,4.2
2019,8,20,18:50,UTC,0,1020.2,83,0,-1,17.3,14.3,22520,236,5.9,2.9
2019,8,20,19:00,UTC,0,1020.2,83,0,-1,17.3,14.4,24370,232,7.7,3.2
2019,8,20,19:10,UTC,0,1020.2,84,0,-1,17.2,14.4,20770,242,6.7,3.6
2019,8,20,19:20,UTC,0,1020.3,84,0,-1,17.1,14.4,20700,238,6.4,3.7
2019,8,20,19:30,UTC,0,1020.3,84,0,-1,17.1,14.4,23610,227,5.7,3.4
2019,8,20,19:40,UTC,0,1020.3,84,0,-1,17,14.4,22480,225,5.6,3.1
2019,8,20,19:50,UTC,0,1020.4,84,0,-1,17,14.3,23700,224,5.7,3.3
2019,8,20,20:00,UTC,0,1020.4,84,0,-1,17,14.2,21850,227,5.5,3.1
2019,8,20,20:10,UTC,0,1020.5,84,0,-1,16.9,14.2,24890,223,5.7,3.3
2019,8,20,20:20,UTC,0,1020.5,86,0,-1,16.7,14.4,21320,218,5,3.4
2019,8,20,20:30,UTC,0,1020.6,86,0,-1,16.7,14.4,21440,218,4.8,2.9
2019,8,20,20:40,UTC,0,1020.6,86,0,-1,16.8,14.5,20370,217,5.3,3
2019,8,20,20:50,UTC,0,1020.6,86,0,-1,16.8,14.5,24180,220,5.8,3.2
2019,8,20,21:00,UTC,0,1020.6,87,0,-1,16.8,14.6,23600,219,5.4,3
2019,8,20,21:10,UTC,0,1020.7,88,0,-1,16.6,14.6,21760,215,5,3.1
2019,8,20,21:20,UTC,0,1020.6,88,0,-1,16.6,14.6,19440,218,5.7,3.8
2019,8,20,21:30,UTC,0,1020.7,88,0,-1,16.7,14.7,20430,217,5.9,3.2
2019,8,20,21:40,UTC,0,1020.7,88,0,-1,16.7,14.6,22500,219,5.8,3.3
2019,8,20,21:50,UTC,0,1020.8,87,0,-1,16.7,14.6,22000,227,5,3
2019,8,20,22:00,UTC,1,1020.8,87,0,-1,16.7,14.6,23480,230,5.9,2.9
2019,8,20,22:10,UTC,1,1020.7,87,0,-1,16.8,14.6,22780,230,5.9,3.5
2019,8,20,22:20,UTC,3,1020.7,87,0,-1,16.8,14.6,23980,226,6.7,3.4
2019,8,20,22:30,UTC,3,1020.8,88,0,-1,16.8,14.7,23590,224,5.6,3.5
2019,8,20,22:40,UTC,3,1020.9,88,0,-1,16.8,14.8,23160,222,5.5,3.3
2019,8,20,22:50,UTC,3,1020.9,89,0,-1,16.8,14.9,24370,225,5.3,3.2
2019,8,20,23:00,UTC,1,1021,89,0,-1,16.8,14.9,22580,226,4.7,3.1
2019,8,20,23:10,UTC,1,1021,89,0,-1,16.7,14.9,20370,222,5.4,3.3
2019,8,20,23:20,UTC,1,1021,90,0,-1,16.7,14.9,19640,226,5.8,3
2019,8,20,23:30,UTC,0,1021.1,89,0,-1,16.7,15,21380,234,5.4,3.1
2019,8,20,23:40,UTC,0,1021.1,89,0,-1,16.8,15,24050,231,5.8,3.1
2019,8,20,23:50,UTC,0,1021.1,90,0,-1,16.7,15,21100,240,5.4,3.1
2019,8,21,00:00,UTC,0,1021.2,90,0,-1,16.7,15.1,22850,229,5.3,2.7
2019,8,21,00:10,UTC,0,1021.3,90,0,-1,16.7,15.1,22380,226,5.2,2.7
2019,8,21,00:20,UTC,0,1021.3,90,0,-1,16.7,15.1,21780,232,5.5,2.6
2019,8,21,00:30,UTC,0,1021.4,91,0,-1,16.6,15.1,20090,226,4.4,3
2019,8,21,00:40,UTC,0,1021.4,91,0,-1,16.5,15.1,19480,223,5.2,3
2019,8,21,00:50,UTC,0,1021.5,92,0,-1,16.5,15.2,18780,218,5,3
2019,8,21,01:00,UTC,3,1021.5,93,0,-1,16.5,15.3,17940,213,4.7,2.9
2019,8,21,01:10,UTC,3,1021.5,93,0,-1,16.5,15.3,16870,217,5.3,2.5
2019,8,21,01:20,UTC,3,1021.5,93,0,-1,16.3,15.2,15150,214,5,3.2
2019,8,21,01:30,UTC,1,1021.5,93,0,-1,16.3,15.2,16140,208,5.5,3.1
2019,8,21,01:40,UTC,1,1021.5,94,0,-1,16.3,15.3,15310,205,4.9,3.4
2019,8,21,01:50,UTC,1,1021.6,93,0,-1,16.4,15.3,16420,214,5,2.9
2019,8,21,02:00,UTC,3,1021.6,93,0,-1,16.3,15.3,17150,223,5.1,2.8
2019,8,21,02:10,UTC,5,1021.6,93,0,-1,16.5,15.3,16420,224,5.3,2.9
2019,8,21,02:20,UTC,5,1021.7,93,0,-1,16.5,15.3,17420,215,4.7,2.9
2019,8,21,02:30,UTC,5,1021.7,93,0,-1,16.5,15.4,16120,218,5.2,3.1
2019,8,21,02:40,UTC,5,1021.7,93,0,-1,16.4,15.3,15550,219,5.7,3.6
2019,8,21,02:50,UTC,7,1021.6,93,0,-1,16.4,15.3,16300,216,6.3,3.6
2019,8,21,03:00,UTC,5,1021.5,93,0,-1,16.3,15.1,16810,213,5.9,3.4
2019,8,21,03:10,UTC,3,1021.6,93,0,-1,16.4,15.2,18120,217,4.4,2
2019,8,21,03:20,UTC,1,1021.6,92,0,-1,16.4,15.2,18080,216,5.3,2.9
2019,8,21,03:30,UTC,1,1021.8,92,0,-1,16.4,15.2,18010,218,5.7,3.2
2019,8,21,03:40,UTC,3,1021.7,92,0,-1,16.5,15.2,17120,214,6.8,3.5
2019,8,21,03:50,UTC,3,1021.7,93,0,-1,16.5,15.3,17370,212,5.1,3.1
2019,8,21,04:00,UTC,5,1021.6,92,0,-1,16.6,15.3,18260,219,4.8,2.9
2019,8,21,04:10,UTC,7,1021.8,92,0,-1,16.6,15.3,17730,223,5.7,3.3
2019,8,21,04:20,UTC,7,1021.7,92,0,-1,16.6,15.4,17400,219,5.9,3.7
2019,8,21,04:30,UTC,8,1021.8,92,0,-1,16.7,15.4,17420,217,6.6,3.3
2019,8,21,04:40,UTC,7,1021.8,92,0,-1,16.7,15.3,17500,217,6,3.6
2019,8,21,04:50,UTC,8,1021.8,92,0,-1,16.6,15.3,16870,218,6.3,3.6
2019,8,21,05:00,UTC,8,1021.8,92,0,-1,16.7,15.3,17520,225,6.1,3.6
2019,8,21,05:10,UTC,7,1021.9,92,0,-1,16.7,15.4,17700,219,6.8,3.9
2019,8,21,05:20,UTC,8,1021.9,92,0,-1,16.7,15.4,18230,223,6.1,3.9
2019,8,21,05:30,UTC,8,1021.9,92,0,-1,16.7,15.4,18340,225,6.4,3.4
2019,8,21,05:40,UTC,8,1021.9,92,0,-1,16.7,15.4,16890,216,8,4.3
2019,8,21,05:50,UTC,8,1021.9,92,0,-1,16.9,15.5,16270,217,7,4.3
2019,8,21,06:00,UTC,7,1021.9,91,0,-1,16.9,15.4,17370,218,5.9,3.4
2019,8,21,06:10,UTC,7,1021.8,91,0,-1,16.9,15.4,17090,219,6.3,4
2019,8,21,06:20,UTC,7,1021.8,90,0,-1,17.3,15.6,18830,222,6.2,3.9
2019,8,21,06:30,UTC,7,1021.9,90,0,-1,17.1,15.4,17880,217,6.7,3.7
2019,8,21,06:40,UTC,7,1022,91,0,-1,17,15.5,17850,217,8.6,5.2
2019,8,21,06:50,UTC,7,1022.1,90,0,-1,17.6,15.8,17710,207,5.9,4
2019,8,21,07:00,UTC,7,1022,89,0,-1,17.3,15.5,17830,222,7,4.1
2019,8,21,07:10,UTC,7,1022,89,0,-1,17.3,15.6,17090,217,6.8,4.2
2019,8,21,07:20,UTC,7,1021.9,89,0,-1,17.5,15.6,19420,218,8,4.7
2019,8,21,07:30,UTC,7,1021.9,88,0,-1,17.6,15.6,19970,211,6.1,3.6
2019,8,21,07:40,UTC,7,1021.9,87,0,-1,17.6,15.5,18890,208,6.1,3.5
2019,8,21,07:50,UTC,5,1021.9,87,0,-1,17.9,15.7,20990,205,7.3,4.2
2019,8,21,08:00,UTC,3,1021.9,85,0,-1,17.8,15.4,21120,205,8.5,5.5
2019,8,21,08:10,UTC,3,1022,86,0,-1,17.9,15.5,19740,201,8,5.1
2019,8,21,08:20,UTC,5,1021.8,87,0,-1,17.7,15.5,20180,204,9.5,5.7
2019,8,21,08:30,UTC,7,1021.9,87,0,-1,17.6,15.4,19440,189,8.2,5
2019,8,21,08:40,UTC,7,1021.9,87,0,-1,17.5,15.2,19270,197,7.8,4.2
2019,8,21,08:50,UTC,7,1022,86,0,-1,17.9,15.5,18290,196,7,4
2019,8,21,09:00,UTC,7,1022.1,86,0,-1,17.7,15.4,20850,195,7.1,5.1
2019,8,21,09:10,UTC,7,1022.1,88,0,-1,17.5,15.5,17920,201,7.8,4.7
2019,8,21,09:20,UTC,7,1022.1,89,0,-1,17.8,15.8,16190,208,6.7,4.2
2019,8,21,09:30,UTC,7,1022,86,0,-1,18,15.7,20310,207,7.9,4.2
2019,8,21,09:40,UTC,7,1022,86,0,-1,17.9,15.5,18060,209,7.4,5
2019,8,21,09:50,UTC,5,1021.7,83,0,-1,18.7,15.7,20680,207,8.7,5.4
2019,8,21,10:00,UTC,5,1021.8,82,0,-1,18.3,15.3,23300,207,8,5.4
2019,8,21,10:10,UTC,3,1021.6,81,0,-1,19,15.6,27080,215,8.2,4.3
2019,8,21,10:20,UTC,5,1021.6,82,0,-1,18.6,15.4,26270,227,9.1,5.6
2019,8,21,10:30,UTC,3,1021.6,81,0,-1,19,15.7,22000,218,7.9,4.1
2019,8,21,10:40,UTC,3,1021.5,80,0,-1,19.1,15.6,26960,215,7.5,3.8
2019,8,21,10:50,UTC,1,1021.3,81,0,-1,18.5,15.2,26650,209,7,4.3
2019,8,21,11:00,UTC,1,1021.3,79,0,-1,19.2,15.5,21560,196,8.7,5.4
2019,8,21,11:10,UTC,1,1021.3,81,0,-1,18.8,15.4,21950,213,7.2,5.1
2019,8,21,11:20,UTC,3,1021.2,81,0,-1,18.9,15.6,21510,218,7.6,4.5
2019,8,21,11:30,UTC,3,1021.1,82,0,-1,18.7,15.6,23460,223,7.1,3.5
2019,8,21,11:40,UTC,1,1021.1,80,0,-1,18.9,15.5,24630,200,6.6,3.8
2019,8,21,11:50,UTC,1,1021.1,80,0,-1,19.2,15.7,24980,206,7.7,4.9
2019,8,21,12:00,UTC,1,1021,80,0,-1,19.1,15.6,27490,210,7.7,4.8
2019,8,21,12:10,UTC,3,1020.9,81,0,-1,18.9,15.5,26320,224,9.9,5.6
2019,8,21,12:20,UTC,3,1020.9,81,0,-1,18.9,15.6,27410,222,8.9,4.3
2019,8,21,12:30,UTC,3,1020.8,83,0,-1,18.5,15.5,23380,216,9,4
2019,8,21,12:40,UTC,3,1020.8,83,0,-1,18.5,15.7,21640,196,6.3,3.5
2019,8,21,12:50,UTC,1,1020.7,82,0,-1,19.2,16,23730,198,6.9,4.3
2019,8,21,13:00,UTC,1,1020.6,80,0,-1,18.7,15.2,26460,206,7.7,5.3
2019,8,21,13:10,UTC,1,1020.5,81,0,-1,18.9,15.5,27190,206,7.6,5.2
2019,8,21,13:20,UTC,1,1020.4,80,0,-1,18.9,15.3,25950,223,8.1,5.3
2019,8,21,13:30,UTC,1,1020.3,79,0,-1,19,15.2,25850,224,7.9,5.8
2019,8,21,13:40,UTC,1,1020.3,78,0,-1,18.8,14.9,23840,227,7.2,4.9
2019,8,21,13:50,UTC,1,1020.3,75,0,-1,19,14.5,28750,220,7,4.7
2019,8,21,14:00,UTC,0,1020.3,74,0,-1,19.2,14.5,37720,221,7,4
2019,8,21,14:10,UTC,1,1020.2,79,0,-1,18.6,14.8,32170,224,7.5,5.4
2019,8,21,14:20,UTC,1,1020.2,80,0,-1,18.6,15.1,27680,212,6.4,4.2
2019,8,21,14:30,UTC,1,1020.2,79,0,-1,19,15.3,26860,196,6.9,4.3
2019,8,21,14:40,UTC,1,1020.2,80,0,-1,18.7,15.2,27170,199,6.9,4.1
2019,8,21,14:50,UTC,1,1020.2,80,0,-1,18.6,15.1,31940,220,7.7,4.6
2019,8,21,15:00,UTC,0,1020.1,78,0,-1,18.7,14.9,27750,216,7.3,5.3
2019,8,21,15:10,UTC,1,1020.1,79,0,-1,18.6,15,30490,211,5.9,3.9
2019,8,21,15:20,UTC,3,1020.1,80,0,-1,18.7,15.1,25310,215,5.8,3.4
2019,8,21,15:30,UTC,3,1020.2,78,0,-1,18.9,15,31060,221,4.5,2.9
2019,8,21,15:40,UTC,5,1020.2,81,0,-1,18.5,15.2,27440,201,5.7,3.6
2019,8,21,15:50,UTC,3,1020.1,83,0,-1,18.2,15.2,23750,216,6.3,4.4
2019,8,21,16:00,UTC,1,1020,83,0,-1,18.5,15.4,29230,207,5.5,3.3
2019,8,21,16:10,UTC,1,1020,84,0,-1,18.4,15.6,25100,198,5.5,3.5
2019,8,21,16:20,UTC,1,1020.1,83,0,-1,18.3,15.4,28250,203,6.9,4.2
2019,8,21,16:30,UTC,3,1020,85,0,-1,18.1,15.6,27650,202,5.8,3.6
2019,8,21,16:40,UTC,3,1020,85,0,-1,17.9,15.3,34000,203,6.3,3.7
2019,8,21,16:50,UTC,1,1020.1,88,0,-1,17.6,15.5,27660,193,6.7,3.5
2019,8,21,17:00,UTC,3,1020.1,87,0,-1,17.5,15.4,26310,195,6.2,3.9
2019,8,21,17:10,UTC,3,1020,88,0,-1,17.3,15.4,28960,205,7,4.2
2019,8,21,17:20,UTC,1,1020.1,89,0,-1,17.3,15.5,29040,202,6.1,3.9
2019,8,21,17:30,UTC,1,1020.1,89,0,-1,17.2,15.4,26370,199,6.7,4
2019,8,21,17:40,UTC,1,1020.1,90,0,-1,17.1,15.3,32810,206,7.6,4.2
2019,8,21,17:50,UTC,1,1020,89,0,-1,16.9,15.1,25890,206,7,4.1
2019,8,21,18:00,UTC,1,1020.1,88,0,-1,16.9,14.9,30850,203,6.3,3.8
2019,8,21,18:10,UTC,3,1020.1,87,0,-1,16.9,14.7,30810,208,5.2,3.5
2019,8,21,18:20,UTC,5,1020.1,86,0,-1,16.8,14.5,38210,208,7,3.8
2019,8,21,18:30,UTC,7,1020.1,86,0,-1,16.9,14.5,40640,212,6.3,3.5
2019,8,21,18:40,UTC,3,1020.1,84,0,-1,16.9,14.2,38520,215,6.5,4.3
2019,8,21,18:50,UTC,1,1020.1,84,0,-1,16.8,14.2,39650,223,5.4,3.3
2019,8,21,19:00,UTC,3,1020,84,0,-1,16.8,14.1,36520,227,4.6,2.7
2019,8,21,19:10,UTC,1,1020.1,83,0,-1,16.9,14,42410,240,4.7,3
2019,8,21,19:20,UTC,3,1020.1,82,0,-1,16.9,13.8,43470,250,5.4,3.3
2019,8,21,19:30,UTC,1,1020.1,78,0,-1,17,13.2,45950,255,4.1,2.7
2019,8,21,19:40,UTC,1,1020.1,76,0,-1,17,12.6,46320,265,5.6,3.2
2019,8,21,19:50,UTC,1,1020.2,75,0,-1,16.8,12.3,49660,266,5.4,3
2019,8,21,20:00,UTC,0,1020.2,74,0,-1,16.7,12,48110,273,3.8,2.5
2019,8,21,20:10,UTC,0,1020.3,74,0,-1,16.6,11.9,50000,277,6.2,3.4
2019,8,21,20:20,UTC,0,1020.3,75,0,-1,16.4,12,49250,284,5.5,3.5
2019,8,21,20:30,UTC,0,1020.4,76,0,-1,16.2,12,48110,281,5.5,3.8
2019,8,21,20:40,UTC,0,1020.4,76,0,-1,16.2,12,49340,285,5.3,3.1
2019,8,21,20:50,UTC,0,1020.4,76,0,-1,16,11.8,44790,282,5.5,3.5
2019,8,21,21:00,UTC,0,1020.5,77,0,-1,15.8,11.8,43630,283,4.8,3.1
2019,8,21,21:10,UTC,0,1020.5,78,0,-1,15.7,11.8,45860,283,4.9,3.3
2019,8,21,21:20,UTC,0,1020.5,80,0,-1,15.3,11.8,46390,284,4.7,2.8
2019,8,21,21:30,UTC,0,1020.5,80,0,-1,15.3,11.9,50000,282,4.4,2.6
2019,8,21,21:40,UTC,0,1020.4,79,0,-1,15.5,11.9,50000,283,5.2,3.4
2019,8,21,21:50,UTC,0,1020.4,83,0,-1,14.7,11.8,38160,280,4,2.1
2019,8,21,22:00,UTC,0,1020.3,86,0,-1,14.1,11.7,37720,283,3.6,2.5
2019,8,21,22:10,UTC,0,1020.3,87,0,-1,14,11.8,42100,276,4,2.6
2019,8,21,22:20,UTC,0,1020.4,87,0,-1,14,11.9,41160,289,4,2.7
2019,8,21,22:30,UTC,0,1020.5,84,0,-1,14.7,12,50000,284,4.8,3.1
2019,8,21,22:40,UTC,0,1020.4,85,0,-1,14.4,11.9,45390,299,4.6,2.9
2019,8,21,22:50,UTC,0,1020.5,85,0,-1,14.4,11.8,47970,290,5.1,3.2
2019,8,21,23:00,UTC,0,1020.4,86,0,-1,13.9,11.7,44640,287,4.6,2.9
2019,8,21,23:10,UTC,0,1020.5,89,0,-1,13.5,11.7,36960,296,2.9,1.9
2019,8,21,23:20,UTC,0,1020.5,91,0,-1,13.2,11.7,41070,297,3.4,2.1
2019,8,21,23:30,UTC,0,1020.5,92,0,-1,13.1,11.8,44260,289,3.6,2.2
2019,8,21,23:40,UTC,0,1020.6,93,0,-1,13,11.9,34930,287,4.2,2.6
2019,8,21,23:50,UTC,0,1020.6,88,0,-1,14.3,12.3,42730,273,3.4,2.2
2019,8,22,00:00,UTC,0,1020.7,86,0,-1,14.5,12.2,47670,263,3.9,2.4
2019,8,22,00:10,UTC,0,1020.8,87,0,-1,14.4,12.3,38290,261,4.2,3.2
2019,8,22,00:20,UTC,0,1020.8,87,0,-1,14.4,12.3,40110,269,4.2,2.4
2019,8,22,00:30,UTC,0,1020.8,88,0,-1,14.4,12.4,39840,271,2.8,1.7
2019,8,22,00:40,UTC,0,1020.9,89,0,-1,14.2,12.4,44030,280,3.6,2.1
2019,8,22,00:50,UTC,0,1020.9,89,0,-1,14.3,12.4,39960,278,3.6,2.3
2019,8,22,01:00,UTC,0,1020.9,89,0,-1,14,12.2,37410,272,3.3,1.9
2019,8,22,01:10,UTC,1,1020.9,91,0,-1,14.1,12.6,36490,270,3.2,1.8
2019,8,22,01:20,UTC,1,1020.9,89,0,-1,14.4,12.5,41420,258,3.7,2.4
2019,8,22,01:30,UTC,1,1020.9,89,0,-1,14.4,12.6,41380,255,4,2.8
2019,8,22,01:40,UTC,0,1020.9,90,0,-1,14.2,12.6,35910,250,3.8,2.7
2019,8,22,01:50,UTC,1,1020.9,90,0,-1,14.2,12.6,35120,256,4.7,3.1
2019,8,22,02:00,UTC,0,1021,91,0,-1,14.1,12.6,31070,257,4.2,3
2019,8,22,02:10,UTC,0,1021,91,0,-1,14.4,13,34330,263,4.7,2.9
2019,8,22,02:20,UTC,0,1021,92,0,-1,14.3,13,34290,260,4.1,2.4
2019,8,22,02:30,UTC,0,1021,92,0,-1,14.3,13,34620,259,3.7,2.5
2019,8,22,02:40,UTC,0,1021,92,0,-1,14.3,12.9,34480,255,3.9,2.9
2019,8,22,02:50,UTC,0,1021,93,0,-1,14.1,12.9,29020,258,4,2.9
2019,8,22,03:00,UTC,0,1021.1,92,0,-1,14.4,13.1,29690,258,3.7,2.7
2019,8,22,03:10,UTC,0,1021.1,92,0,-1,14.4,13.2,29100,260,4.5,3.3
2019,8,22,03:20,UTC,0,1021.1,92,0,-1,14.5,13.2,28480,264,4.9,3
2019,8,22,03:30,UTC,0,1021.2,92,0,-1,14.6,13.3,27190,263,3.7,2.8
2019,8,22,03:40,UTC,0,1021.3,92,0,-1,14.7,13.3,24790,258,4.2,2.9
2019,8,22,03:50,UTC,0,1021.2,92,0,-1,14.7,13.4,29650,263,4,3
2019,8,22,04:00,UTC,0,1021.3,91,0,-1,14.8,13.4,31330,262,4.4,3.2
2019,8,22,04:10,UTC,0,1021.4,91,0,-1,14.9,13.4,33920,260,4.8,3.1
2019,8,22,04:20,UTC,0,1021.4,91,0,-1,15,13.5,25750,258,4.8,3.5
2019,8,22,04:30,UTC,0,1021.4,90,0,-1,15.2,13.6,30160,259,5.2,3.7
2019,8,22,04:40,UTC,0,1021.5,90,0,-1,15.4,13.7,31410,258,5.3,3.7
2019,8,22,04:50,UTC,0,1021.5,88,0,-1,15.6,13.7,32050,260,4.6,3.3
2019,8,22,05:00,UTC,0,1021.5,88,0,-1,15.8,13.8,33890,263,4.6,3
2019,8,22,05:10,UTC,0,1021.4,87,0,-1,15.9,13.7,33850,264,4.4,3.1
2019,8,22,05:20,UTC,0,1021.5,85,0,-1,16.3,13.8,36920,275,4.6,2.9
2019,8,22,05:30,UTC,0,1021.5,82,0,-1,16.6,13.5,34680,268,4.7,3.3
2019,8,22,05:40,UTC,0,1021.6,82,0,-1,16.5,13.4,35070,260,4.6,3.2
2019,8,22,05:50,UTC,0,1021.7,79,0,-1,16.7,13.1,40370,259,4.5,3.1
2019,8,22,06:00,UTC,0,1021.7,78,0,-1,16.9,13,39580,262,6.9,4.4
2019,8,22,06:10,UTC,0,1021.8,76,0,-1,17.2,12.9,38930,265,6,4.4
2019,8,22,06:20,UTC,0,1021.8,74,0,-1,17.3,12.7,39390,272,5.9,3.8
2019,8,22,06:30,UTC,0,1021.8,72,0,-1,17.7,12.7,36070,267,6.4,3.9
2019,8,22,06:40,UTC,0,1021.8,71,0,-1,17.7,12.3,41550,266,6.4,3.6
2019,8,22,06:50,UTC,0,1021.8,68,0,-1,18,12,36550,265,6.3,4.2
2019,8,22,07:00,UTC,0,1021.7,68,0,-1,18.3,12.4,45160,260,7.5,5
2019,8,22,07:10,UTC,0,1021.8,69,0,-1,18.3,12.5,42030,266,6.6,4.3
2019,8,22,07:20,UTC,1,1021.9,67,0,-1,19,12.8,42090,264,7.2,4.9
2019,8,22,07:30,UTC,0,1021.9,65,0,-1,18.6,11.8,42810,265,7.8,4.4
2019,8,22,07:40,UTC,0,1021.9,64,0,-1,18.8,11.8,35710,260,7.7,5.2
2019,8,22,07:50,UTC,1,1021.9,62,0,-1,19,11.5,42450,261,8.5,4.9
2019,8,22,08:00,UTC,1,1022,61,0,-1,19.2,11.4,36570,264,7.1,5
2019,8,22,08:10,UTC,1,1022,59,0,-1,19.4,11.2,37710,263,7.4,4.8
2019,8,22,08:20,UTC,3,1022.1,60,0,-1,19.3,11.3,34660,267,7.4,4.8
2019,8,22,08:30,UTC,1,1022.1,56,0,-1,19.4,10.5,49820,274,8.2,4.6
2019,8,22,08:40,UTC,3,1022.3,55,0,-1,19.7,10.4,45280,264,8,5.9
2019,8,22,08:50,UTC,3,1022.3,51,0,-1,20,9.6,38950,257,9.1,6.2
2019,8,22,09:00,UTC,5,1022.3,51,0,-1,20.3,9.9,35290,261,7.7,4.9
2019,8,22,09:10,UTC,5,1022.3,51,0,-1,20.7,10.1,42510,261,8.9,5.9
2019,8,22,09:20,UTC,5,1022.3,50,0,-1,20.5,9.8,33640,262,7.5,5
2019,8,22,09:30,UTC,5,1022.3,60,0,-1,20.3,12.3,43370,254,9,5
2019,8,22,09:40,UTC,7,1022.3,65,0,-1,20.1,13.2,39150,224,7.4,5
2019,8,22,09:50,UTC,5,1022.3,58,0,-1,20.1,11.5,38800,261,7.3,4.4
2019,8,22,10:00,UTC,3,1022.3,52,0,-1,21,10.8,34060,261,9.8,6
2019,8,22,10:10,UTC,1,1022.3,60,0,-1,21.1,13.1,39000,258,9.4,6.2
2019,8,22,10:20,UTC,3,1022.3,61,0,-1,21.1,13.3,43420,245,8.8,5.5
2019,8,22,10:30,UTC,5,1022.4,59,0,-1,20.7,12.4,43460,253,7.6,5.1
2019,8,22,10:40,UTC,3,1022.5,57,0,-1,20.4,11.5,36110,264,8.7,5.2
2019,8,22,10:50,UTC,1,1022.5,59,0,-1,20.7,12.5,29850,271,8.3,5.6
2019,8,22,11:00,UTC,1,1022.5,66,0,-1,19.8,13.2,30770,241,6.3,4
2019,8,22,11:10,UTC,3,1022.5,67,0,-1,19.9,13.4,38400,226,10.6,6.5
2019,8,22,11:20,UTC,1,1022.6,65,0,-1,20.1,13.3,28510,227,8.7,5.1
2019,8,22,11:30,UTC,3,1022.6,65,0,-1,20.1,13.3,37230,220,10.7,5.9
2019,8,22,11:40,UTC,3,1022.6,66,0,-1,19.8,13.2,35880,224,10.1,6.4
2019,8,22,11:50,UTC,3,1022.8,68,0,-1,19.4,13.4,30430,225,10.6,6
2019,8,22,12:00,UTC,5,1022.8,67,0,-1,19.8,13.4,36660,240,9.5,6.1
2019,8,22,12:10,UTC,3,1022.8,67,0,-1,19.3,13.1,38950,232,8.6,4.9
2019,8,22,12:20,UTC,5,1022.8,67,0,-1,20.1,13.7,31600,219,10.4,6.3
2019,8,22,12:30,UTC,5,1022.9,68,0,-1,19.7,13.6,35600,222,10.3,6.3
2019,8,22,12:40,UTC,7,1022.8,67,0,-1,19.9,13.6,33960,227,9.2,5.6
2019,8,22,12:50,UTC,5,1023,66,0,-1,20.1,13.5,41910,228,12.6,6
2019,8,22,13:00,UTC,3,1023,67,0,-1,20,13.5,49640,226,10.6,6.2
2019,8,22,13:10,UTC,1,1023,68,0,-1,19.6,13.4,41440,224,9.7,5.9
2019,8,22,13:20,UTC,1,1023,67,0,-1,19.7,13.5,40100,227,10.1,6
2019,8,22,13:30,UTC,1,1023.1,69,0,-1,19.4,13.5,50000,221,10.6,5.7
2019,8,22,13:40,UTC,1,1023.1,69,0,-1,19.2,13.4,44630,218,8.8,5.7
2019,8,22,13:50,UTC,1,1023.1,69,0,-1,19.6,13.7,48600,225,10,5.7
2019,8,22,14:00,UTC,1,1023.2,68,0,-1,19.4,13.5,43290,230,10.2,5.7
2019,8,22,14:10,UTC,1,1023.2,70,0,-1,19.1,13.5,43090,220,8.8,5.6
2019,8,22,14:20,UTC,0,1023.2,70,0,-1,19.2,13.5,36890,224,8.6,5.4
2019,8,22,14:30,UTC,1,1023.3,71,0,-1,19,13.7,39150,218,8.7,5.9
2019,8,22,14:40,UTC,1,1023.2,71,0,-1,19.1,13.7,40090,217,8.8,5.7
2019,8,22,14:50,UTC,1,1023.2,69,0,-1,19.2,13.5,50000,226,8.6,5.4
2019,8,22,15:00,UTC,1,1023.2,70,0,-1,19.2,13.7,48550,231,8.9,5.2
2019,8,22,15:10,UTC,1,1023.2,71,0,-1,19,13.6,39880,229,8.5,5.2
2019,8,22,15:20,UTC,0,1023.2,72,0,-1,18.8,13.8,44410,217,7.6,4.7
2019,8,22,15:30,UTC,0,1023.2,70,0,-1,19,13.5,50000,230,7.6,4.3
2019,8,22,15:40,UTC,0,1023.2,71,0,-1,18.8,13.5,49780,229,8.4,5.1
2019,8,22,15:50,UTC,0,1023.3,72,0,-1,18.6,13.6,50000,228,8.2,5.6
2019,8,22,16:00,UTC,,,,,,,,,231,8.1,4.8
2019,8,22,16:10,UTC,0,1023.4,71,0,-1,18.6,13.3,50000,233,7,4
2019,8,22,16:20,UTC,0,1023.4,72,0,-1,18.6,13.4,48750,239,7.1,3.6
2019,8,22,16:30,UTC,0,1023.4,72,0,-1,18.6,13.4,50000,239,7.9,4.4
2019,8,22,16:40,UTC,0,1023.5,73,0,-1,18.3,13.4,48020,236,7.6,4
2019,8,22,16:50,UTC,0,1023.5,74,0,-1,18.2,13.5,48780,235,8.3,4
2019,8,22,17:00,UTC,0,1023.5,74,0,-1,18,13.4,50000,238,7.6,4.4
2019,8,22,17:10,UTC,0,1023.6,75,0,-1,17.9,13.3,47170,243,7.5,4.5
2019,8,22,17:20,UTC,0,1023.7,74,0,-1,17.7,13,44910,241,7.8,4.8
2019,8,22,17:30,UTC,0,1023.8,74,0,-1,17.5,12.8,45400,240,6.8,4.1
2019,8,22,17:40,UTC,0,1023.9,74,0,-1,17.3,12.7,48350,241,7.9,4.4
2019,8,22,17:50,UTC,0,1024,74,0,-1,17.1,12.4,43400,240,6.7,4.1
2019,8,22,18:00,UTC,0,1024,74,0,-1,16.9,12.2,47490,237,7.6,4.2
2019,8,22,18:10,UTC,0,1024.1,74,0,-1,16.7,12,45060,242,7.9,5
2019,8,22,18:20,UTC,0,1024.1,73,0,-1,16.6,11.8,43860,238,7.4,4.4
2019,8,22,18:30,UTC,0,1024.2,72,0,-1,16.5,11.3,48370,243,8.4,4.9
2019,8,22,18:40,UTC,0,1024.2,73,0,-1,16.4,11.6,42770,245,7.5,4.4
2019,8,22,18:50,UTC,0,1024.2,75,0,-1,16.3,11.8,45360,241,7.8,4.4
2019,8,22,19:00,UTC,0,1024.2,76,0,-1,16.3,12,41230,245,7.7,5.2
2019,8,22,19:10,UTC,0,1024.3,77,0,-1,16.2,12.1,44090,245,7.9,4.7
2019,8,22,19:20,UTC,0,1024.4,77,0,-1,16.1,12,35180,245,6.6,3.9
2019,8,22,19:30,UTC,0,1024.5,76,0,-1,16.1,11.9,35970,246,6.6,3.7
2019,8,22,19:40,UTC,0,1024.5,76,0,-1,16,11.8,38640,248,6.3,3.6
2019,8,22,19:50,UTC,0,1024.5,77,0,-1,16,11.8,39910,245,6.3,3.7
2019,8,22,20:00,UTC,1,1024.5,77,0,-1,16,11.9,38840,248,6,3.4
2019,8,22,20:10,UTC,1,1024.6,77,0,-1,15.9,11.8,41750,243,6.1,3.8
2019,8,22,20:20,UTC,3,1024.6,78,0,-1,15.9,11.9,35420,244,6.2,3.6
2019,8,22,20:30,UTC,5,1024.6,78,0,-1,15.9,12,43840,244,5.3,3.4
2019,8,22,20:40,UTC,7,1024.5,78,0,-1,15.8,12,42750,243,5.9,3.9
2019,8,22,20:50,UTC,5,1024.5,79,0,-1,15.9,12.1,45760,242,5.9,3.2
2019,8,22,21:00,UTC,5,1024.5,79,0,-1,15.8,12.2,43750,242,5.4,3
2019,8,22,21:10,UTC,5,1024.5,79,0,-1,15.8,12.2,40000,244,5.4,3.2
2019,8,22,21:20,UTC,5,1024.5,79,0,-1,15.8,12.3,40800,247,5.1,2.9
2019,8,22,21:30,UTC,7,1024.4,79,0,-1,15.9,12.3,39190,246,5.5,3.2
2019,8,22,21:40,UTC,7,1024.4,80,0,-1,15.8,12.4,34800,249,6.2,3.5
2019,8,22,21:50,UTC,7,1024.4,80,0,-1,15.9,12.4,38330,245,4.5,2.5
2019,8,22,22:00,UTC,7,1024.3,80,0,-1,15.9,12.6,46600,239,6,3.4
2019,8,22,22:10,UTC,7,1024.3,81,0,-1,16,12.8,32570,240,4.8,2.7
2019,8,22,22:20,UTC,7,1024.3,82,0,-1,16,12.9,41260,244,4.9,2.9
2019,8,22,22:30,UTC,7,1024.2,83,0,-1,15.9,13,40620,230,4.6,2.6
2019,8,22,22:40,UTC,7,1024.1,82,0,-1,16.1,13,40680,234,5.2,2.5
2019,8,22,22:50,UTC,7,1024,82,0,-1,16.1,13.1,44540,237,4.2,2.4
2019,8,22,23:00,UTC,7,1024,83,0,-1,16.1,13.2,41080,235,5.4,2.8
2019,8,22,23:10,UTC,7,1024,84,0,-1,16.1,13.3,40090,226,4.5,2.6
2019,8,22,23:20,UTC,7,1024,84,0,-1,16.1,13.5,42180,223,4.7,2.9
2019,8,22,23:30,UTC,7,1024,86,0,-1,16.1,13.7,42150,218,4.8,3.2
2019,8,22,23:40,UTC,7,1023.9,86,0,-1,16.1,13.8,35390,216,4.8,3
2019,8,22,23:50,UTC,7,1023.9,87,0,-1,16.1,13.9,34890,219,5.2,3.4
2019,8,23,00:00,UTC,7,1023.8,87,0,-1,16.2,14,41480,220,5.4,3.4
2019,8,23,00:10,UTC,7,1023.8,86,0,-1,16.3,14,30870,230,5,2.9
2019,8,23,00:20,UTC,7,1023.8,85,0,-1,16.4,13.9,46620,235,6.1,2.8
2019,8,23,00:30,UTC,7,1023.8,86,0,-1,16.3,13.9,38420,218,5.8,3.9
2019,8,23,00:40,UTC,7,1023.7,87,0,-1,16.4,14.2,35920,217,7,3.8
2019,8,23,00:50,UTC,7,1023.7,88,0,-1,16.5,14.5,32480,224,6.1,3.4
2019,8,23,01:00,UTC,8,1023.7,89,0,-1,16.3,14.5,25950,221,6.9,3.9
2019,8,23,01:10,UTC,7,1023.7,90,0,-1,16.3,14.7,21650,216,7,4.6
2019,8,23,01:20,UTC,7,1023.6,90,0,-1,16.2,14.6,21100,217,5.8,3.8
2019,8,23,01:30,UTC,7,1023.5,91,0,-1,16.2,14.7,23010,216,5.7,3.5
2019,8,23,01:40,UTC,7,1023.5,91,0,-1,16.2,14.7,19030,214,5.7,4
2019,8,23,01:50,UTC,7,1023.3,92,0,-1,16.1,14.9,17940,218,6.5,4
2019,8,23,02:00,UTC,7,1023.3,93,0,-1,16.2,15,16180,207,7,3.6
2019,8,23,02:10,UTC,7,1023.1,92,0.3,-1,16.2,14.9,18660,213,6.6,4
2019,8,23,02:20,UTC,7,1023.1,92,0,-1,16.3,14.9,20750,210,8.4,5
2019,8,23,02:30,UTC,7,1023.2,92,0,-1,16.3,14.9,16040,209,8.3,4.8
2019,8,23,02:40,UTC,7,1023.4,94,7,-1,15.9,15,2260,215,8.5,5.1
2019,8,23,02:50,UTC,7,1023.6,91,1.3,-1,14.1,12.6,5040,294,8.7,4.9
2019,8,23,03:00,UTC,7,1023.5,94,17.2,-1,13.4,12.5,960,301,6.7,3.1
2019,8,23,03:10,UTC,7,1023.4,96,14.7,-1,13.2,12.6,1000,212,1.9,1
2019,8,23,03:20,UTC,7,1023.7,96,35.8,-1,13,12.4,350,295,5.5,2.1
2019,8,23,03:30,UTC,7,1023.9,97,18.4,-1,13.1,12.7,710,227,5,2.3
2019,8,23,03:40,UTC,7,1023.8,97,16.6,-1,13.1,12.7,1020,282,4.1,2.4
2019,8,23,03:50,UTC,7,1023.6,98,5.7,-1,13.1,12.7,3700,197,2.5,1.5
2019,8,23,04:00,UTC,7,1023.5,98,5.5,-1,13.1,12.8,1760,197,1.6,0.7
2019,8,23,04:10,UTC,7,1023.2,98,9.2,-1,13.2,12.9,1970,134,1.2,0.6
2019,8,23,04:20,UTC,7,1023.1,98,7.1,-1,13.3,13,2770,49,2.2,1.3
2019,8,23,04:30,UTC,7,1023.2,98,12.4,-1,13.3,13,1150,338,4.2,2.5
2019,8,23,04:40,UTC,9,1023.2,98,21.5,-1,13.4,13.1,700,345,5.3,3.4
2019,8,23,04:50,UTC,7,1023,98,9.1,-1,13.4,13.1,1800,109,2.2,1.1
2019,8,23,05:00,UTC,7,1023.1,98,15.8,-1,13.4,13.1,1110,145,2.4,1.7
2019,8,23,05:10,UTC,7,1023.1,98,9.4,-1,13.4,13.2,2190,111,1.6,1
2019,8,23,05:20,UTC,7,1022.9,98,4.7,-1,13.5,13.2,3480,88,2.9,1.5
2019,8,23,05:30,UTC,7,1023,98,11.4,-1,13.4,13.2,1310,78,2.7,2.1
2019,8,23,05:40,UTC,7,1023.2,98,30.5,-1,13.5,13.2,390,74,3.1,1.8
2019,8,23,05:50,UTC,7,1022.9,98,28.1,-1,13.4,13.1,600,135,3.3,1.9
2019,8,23,06:00,UTC,7,1022.5,98,19.6,-1,13.5,13.2,810,107,2.8,1.8
2019,8,23,06:10,UTC,7,1022.4,99,11,-1,13.6,13.4,1860,93,3.5,2.6
2019,8,23,06:20,UTC,7,1022.4,98,9.6,-1,13.7,13.5,1220,78,3.3,1.9
2019,8,23,06:30,UTC,7,1022.3,98,13.7,-1,13.8,13.5,1060,107,3,2
2019,8,23,06:40,UTC,7,1022.3,99,0.3,-1,13.9,13.7,18080,124,3.2,2
2019,8,23,06:50,UTC,7,1022.2,99,0,-1,14.7,14.4,17680,170,7,2.7
2019,8,23,07:00,UTC,7,1022.1,97,0.5,-1,15.5,15.1,13110,199,9.5,4.6
2019,8,23,07:10,UTC,5,1022.1,95,0,-1,16.4,15.6,18280,212,9.3,5.2
2019,8,23,07:20,UTC,5,1022,91,0,-1,16.7,15.3,24490,220,11.1,6.5
2019,8,23,07:30,UTC,5,1022,90,0,-1,16.8,15.2,26390,216,10.5,5.8
2019,8,23,07:40,UTC,5,1021.8,86,0,-1,17.4,15,23110,214,10.9,6.5
2019,8,23,07:50,UTC,5,1021.7,86,0,-1,17.5,15.1,28330,212,11.6,6.7
2019,8,23,08:00,UTC,5,1021.7,85,0,-1,17.5,15,30580,215,10.2,5.9
2019,8,23,08:10,UTC,5,1021.7,84,0,-1,17.7,15,26430,218,9.7,4.8
2019,8,23,08:20,UTC,5,1021.6,83,0,-1,18,15.1,30520,217,11,5.6
2019,8,23,08:30,UTC,5,1021.6,81,0,-1,18,14.8,27280,217,11.9,6.5
2019,8,23,08:40,UTC,3,1021.5,83,0,-1,17.8,15,26400,217,11.4,6.3
2019,8,23,08:50,UTC,3,1021.4,82,0,-1,17.8,14.8,30320,223,10.1,5.9
2019,8,23,09:00,UTC,3,1021.4,82,0,-1,18,14.9,30150,223,10.7,6.4
2019,8,23,09:10,UTC,3,1021.4,82,0,-1,18,14.9,32700,214,10.8,6.6
2019,8,23,09:20,UTC,5,1021.4,83,0,-1,17.5,14.5,30080,207,12.2,7
2019,8,23,09:30,UTC,7,1021.4,83,0,-1,17.9,14.9,26130,214,10.8,6.4
2019,8,23,09:40,UTC,7,1021.3,81,0,-1,18.1,14.8,28090,220,9.9,5.8
2019,8,23,09:50,UTC,7,1021.3,82,0,-1,17.8,14.7,29180,220,13.2,6.8
2019,8,23,10:00,UTC,5,1021.3,83,0,-1,17.8,14.8,31080,226,10.4,6.2
2019,8,23,10:10,UTC,7,1021.3,83,0,-1,17.6,14.7,26630,229,10.2,5.5
2019,8,23,10:20,UTC,5,1021.2,82,0,-1,17.9,14.8,26020,219,9.7,5.5
2019,8,23,10:30,UTC,7,1021.1,82,0,-1,17.9,14.8,30520,221,11.8,7.3
2019,8,23,10:40,UTC,7,1021.1,78,0,-1,19,15.1,34130,219,12.1,7.5
2019,8,23,10:50,UTC,7,1021.2,79,0,-1,19,15.3,29060,220,12.4,8.4
2019,8,23,11:00,UTC,5,1021.1,78,0,-1,19,15.1,29410,218,12.2,7.8
2019,8,23,11:10,UTC,5,1021,82,0,-1,18.4,15.3,30470,220,9.6,6.3
2019,8,23,11:20,UTC,3,1021,81,0,-1,18.4,15.1,26910,232,9.5,4.8
2019,8,23,11:30,UTC,3,1020.8,77,0,-1,18.9,14.8,28170,231,8.7,4.7
2019,8,23,11:40,UTC,3,1020.9,78,0,-1,18.7,14.8,26410,219,10.9,6.6
2019,8,23,11:50,UTC,5,1020.9,78,0,-1,18.7,14.8,25330,221,8,5.1
2019,8,23,12:00,UTC,3,1020.7,77,0,-1,19.2,15,25120,220,11.1,5.4
2019,8,23,12:10,UTC,3,1020.5,77,0,-1,19.3,15.3,29240,221,11.2,6.4
2019,8,23,12:20,UTC,1,1020.5,79,0,-1,18.9,15.1,27110,217,11.5,6.6
2019,8,23,12:30,UTC,1,1020.5,80,0,-1,18.3,14.9,26920,225,11.3,5.6
2019,8,23,12:40,UTC,3,1020.3,80,0,-1,18.2,14.7,22490,220,11.2,6.3
2019,8,23,12:50,UTC,5,1020.2,80,0,-1,18.4,15,27370,225,12.3,6
2019,8,23,13:00,UTC,5,1020.1,80,0,-1,18.1,14.6,26890,218,9.3,6.6
2019,8,23,13:10,UTC,7,1019.9,81,0,-1,18.1,14.7,26700,225,11.6,6.4
2019,8,23,13:20,UTC,7,1019.6,81,0,-1,17.9,14.7,27690,229,7.2,3.8
2019,8,23,13:30,UTC,7,1019.4,85,0.6,-1,17.4,14.9,10430,227,9.8,4.8
2019,8,23,13:40,UTC,7,1019.3,87,0.2,-1,17.2,15,10180,215,8.6,4.9
2019,8,23,13:50,UTC,7,1019.2,90,1.8,-1,16.9,15.2,1500,215,7.9,4.5
2019,8,23,14:00,UTC,7,1019.4,93,7.3,-1,16.5,15.3,1880,210,8.4,5.6
2019,8,23,14:10,UTC,7,1019.4,93,5.9,-1,16.2,15.1,2860,233,11.6,5
2019,8,23,14:20,UTC,7,1019.2,94,2.8,-1,16.2,15.3,6870,242,9.5,5.4
2019,8,23,14:30,UTC,7,1018.9,94,1.2,-1,16.2,15.3,5230,240,7.5,3.9
2019,8,23,14:40,UTC,5,1018.7,93,1.3,-1,16.1,15,7310,234,7.3,3.8
2019,8,23,14:50,UTC,5,1018.7,92,1,-1,16.1,14.9,6500,245,8,4.7
2019,8,23,15:00,UTC,7,1018.5,93,0.2,-1,16,14.8,11200,249,7.9,5.2
2019,8,23,15:10,UTC,8,1018.4,92,0,-1,15.9,14.6,11200,244,7.4,4.4
2019,8,23,15:20,UTC,8,1018.3,93,0.3,-1,15.9,14.8,9100,231,6.6,4.2
2019,8,23,15:30,UTC,8,1018.3,92,0.4,-1,15.9,14.5,10550,223,6.9,4
2019,8,23,15:40,UTC,7,1018,91,0.4,-1,15.8,14.4,11540,221,6,4
2019,8,23,15:50,UTC,7,1018,92,0,-1,15.7,14.3,10780,221,5.6,3.7
2019,8,23,16:00,UTC,5,1017.6,91,1.5,-1,15.7,14.3,5960,229,6.7,3.6
2019,8,23,16:10,UTC,7,1017.5,93,1.2,-1,15.6,14.4,6920,231,6.7,3.9
2019,8,23,16:20,UTC,7,1017.5,93,0.7,-1,15.6,14.4,6310,228,7.2,4.5
2019,8,23,16:30,UTC,7,1017.1,94,2.5,-1,15.5,14.6,3630,227,6.8,3.6
2019,8,23,16:40,UTC,5,1016.7,95,3.2,-1,15.5,14.7,3350,218,5.6,3.5
2019,8,23,16:50,UTC,5,1016.8,95,2.5,-1,15.5,14.8,5300,221,6.2,3.5
2019,8,23,17:00,UTC,7,1016.9,96,0,-1,15.6,14.9,6210,216,5.7,3.7
2019,8,23,17:10,UTC,7,1016.7,96,0,-1,15.6,14.9,6850,222,6.9,3.9
2019,8,23,17:20,UTC,7,1016.6,96,0.4,-1,15.6,15,6020,226,7.5,3.8
2019,8,23,17:30,UTC,8,1016.5,96,0.4,-1,15.8,15.1,8480,238,6.4,3.7
2019,8,23,17:40,UTC,7,1016.5,95,0,-1,15.9,15.1,11470,247,5.7,3.6
2019,8,23,17:50,UTC,7,1016.6,94,0,-1,16,15.1,12400,248,6.4,3.8
2019,8,23,18:00,UTC,8,1016.5,95,0,-1,16,15.1,9550,243,7.1,3.8
2019,8,23,18:10,UTC,7,1016.5,95,0.9,-1,16,15.1,7080,241,8.1,4.2
2019,8,23,18:20,UTC,7,1016.4,95,0.6,-1,16,15.2,7220,241,6.6,4.2
2019,8,23,18:30,UTC,7,1016.4,95,1,-1,16,15.2,11410,245,7.6,4.2
2019,8,23,18:40,UTC,7,1016.4,95,0,-1,16,15.3,12020,246,6.7,3.9
2019,8,23,18:50,UTC,7,1016.4,95,0,-1,16.1,15.3,16690,242,6,3.7
2019,8,23,19:00,UTC,8,1016.3,95,0,-1,16.2,15.4,11410,241,5.8,3.5
2019,8,23,19:10,UTC,7,1016.3,95,0,-1,16.2,15.3,15880,242,6.9,3.3
2019,8,23,19:20,UTC,7,1016.3,94,0,-1,16.3,15.4,18280,245,7.1,3.9
2019,8,23,19:30,UTC,8,1016.4,94,0,-1,16.3,15.4,14220,243,6.4,3.5
2019,8,23,19:40,UTC,7,1016.4,95,0,-1,16.3,15.4,16490,243,6,3.3
2019,8,23,19:50,UTC,7,1016.4,94,0,-1,16.4,15.5,17990,242,5.7,3.3
2019,8,23,20:00,UTC,7,1016.4,94,0,-1,16.5,15.6,15180,247,5.7,3.1
2019,8,23,20:10,UTC,7,1016.4,94,0,-1,16.6,15.6,22400,260,6.4,3.9
2019,8,23,20:20,UTC,7,1016.3,93,0,-1,16.6,15.5,22270,258,7,3.9
2019,8,23,20:30,UTC,7,1016.4,92,0,-1,16.7,15.4,33690,262,6.9,4.3
2019,8,23,20:40,UTC,3,1016.3,93,0,-1,16.5,15.3,32010,274,7.4,4.5
2019,8,23,20:50,UTC,5,1016.4,93,0,-1,16.5,15.3,30730,283,6.7,4
2019,8,23,21:00,UTC,5,1016.4,93,0,-1,16.4,15.3,32660,290,5.3,3.6
2019,8,23,21:10,UTC,5,1016.4,93,0,-1,16.3,15.2,32150,288,5.2,3.2
2019,8,23,21:20,UTC,3,1016.5,93,0,-1,16.3,15.2,30000,290,6.2,3.5
2019,8,23,21:30,UTC,1,1016.4,93,0,-1,16.3,15.1,32040,281,5.4,3.3
2019,8,23,21:40,UTC,1,1016.6,93,0,-1,16.2,15.1,30890,282,5.5,3.7
2019,8,23,21:50,UTC,1,1016.6,94,0,-1,16.1,15.1,35450,289,5.7,3.4
2019,8,23,22:00,UTC,1,1016.7,93,0,-1,16.2,15,33880,284,5.4,3.5
2019,8,23,22:10,UTC,1,1016.8,93,0,-1,16.1,15,36980,288,5.3,3.6
2019,8,23,22:20,UTC,0,1016.8,93,0,-1,16,14.9,32150,287,5.6,3.3
2019,8,23,22:30,UTC,1,1016.9,93,0,-1,15.9,14.9,29970,286,4.5,3.2
2019,8,23,22:40,UTC,5,1017,94,0,-1,15.9,14.9,32740,288,4.5,2.9
2019,8,23,22:50,UTC,7,1017,94,0,-1,15.9,14.9,31460,285,3.6,2.2
2019,8,23,23:00,UTC,7,1017,94,0,-1,15.8,14.8,32580,281,4.6,2.9
2019,8,23,23:10,UTC,5,1017.1,94,0,-1,15.7,14.7,31340,279,4.5,3
2019,8,23,23:20,UTC,3,1017,94,0,-1,15.7,14.7,36920,282,4.9,3.2
2019,8,23,23:30,UTC,1,1017.2,94,0,-1,15.6,14.7,33300,276,4.6,2.9
2019,8,23,23:40,UTC,3,1017.2,94,0,-1,15.5,14.6,32200,278,5.5,3.7
2019,8,23,23:50,UTC,5,1017.2,94,0,-1,15.5,14.6,30770,285,5,3
2019,8,24,00:00,UTC,7,1017.3,94,0,-1,15.4,14.5,27570,277,4.6,3.2
2019,8,24,00:10,UTC,7,1017.4,94,0,-1,15.4,14.5,32210,277,5.6,3.3
2019,8,24,00:20,UTC,7,1017.4,94,0,-1,15.3,14.4,32320,286,4.9,2.9
2019,8,24,00:30,UTC,7,1017.5,94,0,-1,15.3,14.4,36750,288,4.5,2.9
2019,8,24,00:40,UTC,5,1017.5,94,0,-1,15.2,14.2,36280,286,4.8,3.4
2019,8,24,00:50,UTC,7,1017.6,93,0,-1,15.2,14.1,38680,284,5.9,3.5
2019,8,24,01:00,UTC,7,1017.8,93,0,-1,15.2,14,38210,284,4.8,3.5
2019,8,24,01:10,UTC,7,1017.8,93,0,-1,15.1,13.9,34970,295,5.8,3.4
2019,8,24,01:20,UTC,7,1017.9,93,0,-1,15,13.9,38260,303,5.9,3.6
2019,8,24,01:30,UTC,7,1018,93,0,-1,14.9,13.8,41550,301,5.8,3.7
2019,8,24,01:40,UTC,5,1018.1,93,0,-1,14.8,13.7,36370,300,5.7,3.5
2019,8,24,01:50,UTC,1,1018.2,94,0,-1,14.7,13.8,37380,292,4.9,3.3
2019,8,24,02:00,UTC,1,1018.2,94,0,-1,14.7,13.7,39540,291,4.8,2.9
2019,8,24,02:10,UTC,0,1018.4,94,0,-1,14.7,13.7,39740,290,4.7,2.7
2019,8,24,02:20,UTC,0,1018.4,94,0,-1,14.5,13.6,33760,286,3.7,2.6
2019,8,24,02:30,UTC,0,1018.5,95,0,-1,14.5,13.7,35830,287,4.3,3.2
2019,8,24,02:40,UTC,0,1018.5,94,0,-1,14.6,13.6,36890,288,5.3,3.4
2019,8,24,02:50,UTC,0,1018.6,94,0,-1,14.5,13.5,41700,288,5.2,3
2019,8,24,03:00,UTC,0,1018.7,94,0,-1,14.6,13.5,39560,289,5.1,2.8
2019,8,24,03:10,UTC,0,1018.8,94,0,-1,14.4,13.5,36410,295,5.1,3.1
2019,8,24,03:20,UTC,0,1019,94,0,-1,14.5,13.6,36540,287,5,3.4
2019,8,24,03:30,UTC,1,1019.1,94,0,-1,14.5,13.6,35700,281,5.5,3.5
2019,8,24,03:40,UTC,3,1019.2,94,0,-1,14.5,13.6,36010,294,5.7,3.4
2019,8,24,03:50,UTC,3,1019.3,93,0,-1,14.5,13.4,38210,301,6.9,3.9
2019,8,24,04:00,UTC,1,1019.2,93,0,-1,14.6,13.4,41520,286,5.9,3.8
2019,8,24,04:10,UTC,1,1019.3,92,0,-1,14.7,13.4,44310,285,6,3.7
2019,8,24,04:20,UTC,0,1019.4,91,0,-1,14.8,13.4,46530,301,5.2,3.2
2019,8,24,04:30,UTC,0,1019.4,90,0,-1,15.1,13.4,39370,293,5.4,3.5
2019,8,24,04:40,UTC,0,1019.5,88,0,-1,15.3,13.4,50000,288,6,3.8
2019,8,24,04:50,UTC,0,1019.6,88,0,-1,15.5,13.6,40040,276,6.4,4.6
2019,8,24,05:00,UTC,0,1019.7,87,0,-1,15.7,13.6,44310,280,7.2,4.7
2019,8,24,05:10,UTC,1,1019.7,87,0,-1,15.7,13.5,45940,279,7.3,4.2
2019,8,24,05:20,UTC,1,1019.8,86,0,-1,15.9,13.6,47560,279,7,4.2
2019,8,24,05:30,UTC,1,1019.8,85,0,-1,15.9,13.4,49390,278,7.9,4.4
2019,8,24,05:40,UTC,1,1019.9,85,0,-1,16.1,13.5,48590,280,6.8,4.5
2019,8,24,05:50,UTC,1,1020,84,0,-1,16.2,13.5,50000,284,6.1,4.5
2019,8,24,06:00,UTC,0,1020.1,82,0,-1,16.6,13.5,38220,285,7,4.7
2019,8,24,06:10,UTC,0,1020.2,81,0,-1,16.6,13.4,47580,277,6.4,4.5
2019,8,24,06:20,UTC,0,1020.3,79,0,-1,16.8,13,46360,274,7,4.7
2019,8,24,06:30,UTC,0,1020.4,77,0,-1,17.3,13.1,38460,281,9,5.1
2019,8,24,06:40,UTC,0,1020.4,74,0,-1,17.4,12.7,41710,285,6.8,4.4
2019,8,24,06:50,UTC,0,1020.5,73,0,-1,17.7,12.7,45560,289,7.5,4.4
2019,8,24,07:00,UTC,1,1020.6,70,0,-1,17.8,12.3,47930,288,8.4,4.9
2019,8,24,07:10,UTC,1,1020.7,68,0,-1,18.2,12.3,23530,294,7,4
2019,8,24,07:20,UTC,1,1020.8,65,0,-1,18.2,11.5,40560,291,8.6,4.5
2019,8,24,07:30,UTC,0,1020.9,66,0,-1,18.2,11.7,50000,295,9.1,5.1
2019,8,24,07:40,UTC,0,1021.1,64,0,-1,18.4,11.5,45690,302,9.5,6.2
2019,8,24,07:50,UTC,0,1021.2,62,0,-1,18.2,10.9,41470,301,11.4,6.9
2019,8,24,08:00,UTC,0,1021.3,63,0,-1,18.4,11.3,49010,302,11,7.3
2019,8,24,08:10,UTC,0,1021.4,61,0,-1,18.5,10.9,47190,310,10.4,7.2
2019,8,24,08:20,UTC,0,1021.5,63,0,-1,18.7,11.5,46560,296,11.8,6.7
2019,8,24,08:30,UTC,0,1021.5,61,0,-1,18.9,11.3,44880,303,9.6,5.9
2019,8,24,08:40,UTC,0,1021.7,58,0,-1,19,10.6,44230,301,11.6,6.6
2019,8,24,08:50,UTC,0,1021.8,58,0,-1,19,10.6,48090,305,11.8,7.9
2019,8,24,09:00,UTC,0,1021.9,60,0,-1,19.2,11.2,48580,319,11,7.8
2019,8,24,09:10,UTC,1,1022,58,0,-1,19.3,10.8,48490,310,10.4,6.5
2019,8,24,09:20,UTC,1,1022.1,58,0,-1,19.5,11,47050,301,10.8,6.3
2019,8,24,09:30,UTC,1,1022.1,56,0,-1,19.9,10.9,41600,310,11.5,8.3
2019,8,24,09:40,UTC,1,1022.2,53,0,-1,20.1,10.3,44530,321,11.6,7.3
2019,8,24,09:50,UTC,1,1022.2,55,0,-1,19.8,10.4,50000,314,9.5,5.2
2019,8,24,10:00,UTC,1,1022.3,52,0,-1,19.9,9.8,50000,307,10.5,6.2
2019,8,24,10:10,UTC,1,1022.4,53,0,-1,20,10.3,47630,306,11.7,7.2
2019,8,24,10:20,UTC,1,1022.4,52,0,-1,20,9.8,40170,312,9.9,5.9
2019,8,24,10:30,UTC,1,1022.4,52,0,-1,20.6,10.3,50000,303,10.7,6.7
2019,8,24,10:40,UTC,1,1022.6,48,0,-1,20.4,9.1,42080,321,10.7,6.5
2019,8,24,10:50,UTC,1,1022.7,49,0,-1,20.4,9.4,45660,313,11.3,6.9
2019,8,24,11:00,UTC,1,1022.7,49,0,-1,20.6,9.6,37360,300,10.9,6.6
2019,8,24,11:10,UTC,3,1022.8,50,0,-1,20.6,9.7,39740,306,9,6
2019,8,24,11:20,UTC,1,1022.9,51,0,-1,20.9,10.5,38140,308,10.1,5.7
2019,8,24,11:30,UTC,1,1023,48,0,-1,20.8,9.4,41670,317,9.8,6.6
2019,8,24,11:40,UTC,1,1023.2,48,0,-1,20.9,9.6,42990,319,9.4,6.3
2019,8,24,11:50,UTC,1,1023.2,47,0,-1,21.4,9.6,40920,309,8.7,5.6
2019,8,24,12:00,UTC,1,1023.2,46,0,-1,20.8,8.9,41080,309,9.3,6
2019,8,24,12:10,UTC,1,1023.3,46,0,-1,21,8.7,44620,308,10,5.6
2019,8,24,12:20,UTC,1,1023.3,47,0,-1,21.1,9.2,42160,303,10.7,6.8
2019,8,24,12:30,UTC,1,1023.5,46,0,-1,20.9,8.8,41530,304,9.8,6.6
2019,8,24,12:40,UTC,1,1023.6,46,0,-1,20.9,8.9,45550,302,11.2,6.3
2019,8,24,12:50,UTC,1,1023.7,45,0,-1,21,8.6,48110,314,8.4,4.7
2019,8,24,13:00,UTC,1,1023.8,46,0,-1,21,8.9,50000,314,9.3,5.4
2019,8,24,13:10,UTC,1,1023.9,47,0,-1,20.7,9.1,50000,326,8.1,5.5
2019,8,24,13:20,UTC,1,1024,46,0,-1,20.7,8.7,50000,319,10.6,7.3
2019,8,24,13:30,UTC,1,1024.1,45,0,-1,21.4,8.8,50000,326,8.5,4.7
2019,8,24,13:40,UTC,0,1024.1,45,0,-1,21.2,8.8,44410,304,9,5.7
2019,8,24,13:50,UTC,0,1024.1,44,0,-1,21.2,8.4,38870,302,9.3,5
2019,8,24,14:00,UTC,0,1024.2,45,0,-1,21.1,8.8,50000,311,8.3,4.3
2019,8,24,14:10,UTC,0,1024.2,47,0,-1,20.8,9.1,45040,326,8.7,5.3
2019,8,24,14:20,UTC,0,1024.3,48,0,-1,20.7,9.3,48700,330,8.4,5.1
2019,8,24,14:30,UTC,0,1024.3,50,0,-1,20.4,9.5,50000,316,7.5,4.6
2019,8,24,14:40,UTC,0,1024.3,48,0,-1,20.4,8.9,46380,317,6.3,3.8
2019,8,24,14:50,UTC,0,1024.3,50,0,-1,20.5,9.7,50000,327,5.9,4.1
2019,8,24,15:00,UTC,0,1024.3,48,0,-1,20.4,9.1,50000,332,6.5,4.4
2019,8,24,15:10,UTC,0,1024.4,52,0,-1,20.1,9.8,48990,334,5.6,3.8
2019,8,24,15:20,UTC,0,1024.4,51,0,-1,20,9.6,50000,332,5.4,3.9
2019,8,24,15:30,UTC,0,1024.6,50,0,-1,20.3,9.4,50000,330,5.3,3.8
2019,8,24,15:40,UTC,0,1024.6,50,0,-1,20.1,9.4,50000,340,6,3.7
2019,8,24,15:50,UTC,0,1024.6,50,0,-1,20,9.2,50000,327,5,3.2
2019,8,24,16:00,UTC,0,1024.7,51,0,-1,20.1,9.7,50000,334,6.1,3.5
2019,8,24,16:10,UTC,0,1024.8,48,0,-1,20,8.5,50000,318,5.9,4
2019,8,24,16:20,UTC,1,1024.9,50,0,-1,19.9,9.1,50000,313,5.2,3.3
2019,8,24,16:30,UTC,1,1024.9,52,0,-1,19.5,9.4,50000,316,5.5,3.5
2019,8,24,16:40,UTC,1,1024.9,53,0,-1,19.4,9.5,50000,316,5.1,3
2019,8,24,16:50,UTC,1,1025,55,0,-1,19.1,9.8,50000,322,4.1,2.7
2019,8,24,17:00,UTC,3,1025.1,54,0,-1,18.8,9.4,50000,335,5.2,3.5
2019,8,24,17:10,UTC,3,1025.2,56,0,-1,18.6,9.6,50000,335,4.5,3.1
2019,8,24,17:20,UTC,1,1025.3,58,0,-1,18.1,9.6,47190,328,5.3,3.5
2019,8,24,17:30,UTC,1,1025.3,58,0,-1,17.6,9.3,50000,334,3.7,2.9
2019,8,24,17:40,UTC,1,1025.4,62,0,-1,17.2,9.7,50000,335,3.6,2.7
2019,8,24,17:50,UTC,1,1025.4,63,0,-1,16.9,9.7,50000,334,3.5,2.6
2019,8,24,18:00,UTC,1,1025.6,63,0,-1,16.6,9.4,50000,330,3,2.4
2019,8,24,18:10,UTC,0,1025.6,65,0,-1,16.1,9.6,50000,325,2.7,2.2
2019,8,24,18:20,UTC,0,1025.7,69,0,-1,15.8,10.1,50000,326,2.4,2
2019,8,24,18:30,UTC,0,1025.7,68,0,-1,15.5,9.7,50000,329,2.2,1.7
2019,8,24,18:40,UTC,0,1025.8,69,0,-1,15.2,9.6,50000,331,2.4,1.9
2019,8,24,18:50,UTC,0,1025.8,71,0,-1,14.9,9.7,50000,332,2.4,2.1
2019,8,24,19:00,UTC,0,1025.9,71,0,-1,14.8,9.5,50000,333,2.6,2.3
2019,8,24,19:10,UTC,0,1025.9,71,0,-1,14.7,9.6,50000,331,2.6,2.2
2019,8,24,19:20,UTC,0,1026,73,0,-1,14.5,9.8,50000,332,2.7,2.2
2019,8,24,19:30,UTC,0,1026.1,73,0,-1,14.5,9.7,50000,329,2.4,2
2019,8,24,19:40,UTC,0,1026.1,73,0,-1,14.5,9.6,50000,330,2.2,1.8
2019,8,24,19:50,UTC,0,1026.2,74,0,-1,14.4,9.8,50000,327,2.4,1.9
2019,8,24,20:00,UTC,0,1026.3,74,0,-1,14.1,9.6,47500,327,2.3,1.9
2019,8,24,20:10,UTC,0,1026.3,75,0,-1,14.2,9.9,50000,328,2.2,1.6
2019,8,24,20:20,UTC,1,1026.3,75,0,-1,14.2,9.8,50000,339,1.7,1.1
2019,8,24,20:30,UTC,3,1026.3,76,0,-1,14.2,10.1,50000,335,2.5,1.6
2019,8,24,20:40,UTC,5,1026.3,76,0,-1,14.2,10.2,47420,331,4.4,2.9
2019,8,24,20:50,UTC,7,1026.4,78,0,-1,14.3,10.5,50000,328,4.2,2.9
2019,8,24,21:00,UTC,3,1026.4,77,0,-1,14.5,10.5,47940,331,4.6,3
2019,8,24,21:10,UTC,1,1026.5,78,0,-1,14.4,10.6,47450,330,4.7,3.4
2019,8,24,21:20,UTC,1,1026.5,78,0,-1,14.3,10.5,50000,327,4.1,3.3
2019,8,24,21:30,UTC,0,1026.6,79,0,-1,14.1,10.5,50000,327,3.9,3
2019,8,24,21:40,UTC,0,1026.7,81,0,-1,13.8,10.6,50000,321,3.6,2.7
2019,8,24,21:50,UTC,0,1026.8,81,0,-1,13.7,10.4,49940,324,3.2,2.4
2019,8,24,22:00,UTC,0,1026.8,82,0,-1,13.5,10.5,50000,343,3.4,2.2
2019,8,24,22:10,UTC,0,1026.9,82,0,-1,13.6,10.6,46580,353,4,2.2
2019,8,24,22:20,UTC,0,1026.9,81,0,-1,13.8,10.6,48650,353,3.1,1.9
2019,8,24,22:30,UTC,0,1027,80,0,-1,13.9,10.6,48100,357,3,1.6
2019,8,24,22:40,UTC,0,1027.1,81,0,-1,14,10.7,45070,359,3.3,1.8
2019,8,24,22:50,UTC,0,1027.2,82,0,-1,13.7,10.6,43870,348,2.7,1.8
2019,8,24,23:00,UTC,0,1027.2,83,0,-1,13.5,10.7,48580,338,2.7,1.7
2019,8,24,23:10,UTC,0,1027.2,84,0,-1,13.3,10.7,45170,335,2.5,1.7
2019,8,24,23:20,UTC,0,1027.3,86,0,-1,12.9,10.6,47650,340,2.6,1.9
2019,8,24,23:30,UTC,0,1027.3,88,0,-1,12.6,10.6,44400,342,2.4,2
2019,8,24,23:40,UTC,0,1027.4,89,0,-1,12.5,10.7,41670,348,3.2,2.2
2019,8,24,23:50,UTC,0,1027.4,90,0,-1,12.4,10.7,38890,340,2.9,2.2
2019,8,25,00:00,UTC,0,1027.6,90,0,-1,12.3,10.7,37270,332,2.8,1.8
2019,8,25,00:10,UTC,0,1027.5,90,0,-1,12.3,10.6,50000,320,2,1.2
2019,8,25,00:20,UTC,0,1027.6,89,0,-1,12.1,10.5,48030,345,1.9,0.9
2019,8,25,00:30,UTC,0,1027.6,90,0,-1,12.2,10.6,50000,342,2.3,1.1
2019,8,25,00:40,UTC,0,1027.7,90,0,-1,11.9,10.4,49890,342,2.3,1.4
2019,8,25,00:50,UTC,0,1027.7,92,0,-1,11.8,10.4,47150,345,1.5,1
2019,8,25,01:00,UTC,0,1027.8,92,0,-1,11.5,10.3,38620,17,1.5,0.9
2019,8,25,01:10,UTC,0,1027.8,93,0,-1,11.5,10.4,42370,359,1.9,0.6
2019,8,25,01:20,UTC,0,1027.8,94,0,-1,11.4,10.4,36430,26,1.8,1.2
2019,8,25,01:30,UTC,0,1027.8,94,0,-1,11.2,10.2,35360,29,1.4,1
2019,8,25,01:40,UTC,0,1027.9,95,0,-1,11.2,10.4,31670,35,1.1,0.6
2019,8,25,01:50,UTC,0,1028,95,0,-1,11.1,10.3,32690,348,1.1,0.5
2019,8,25,02:00,UTC,0,1028,95,0,-1,11,10.3,25180,348,1.3,0.8
2019,8,25,02:10,UTC,0,1028.1,96,0,-1,10.9,10.2,24740,334,1.1,0.8
2019,8,25,02:20,UTC,0,1028.1,96,0,-1,10.9,10.3,24700,357,1.1,0.8
2019,8,25,02:30,UTC,0,1028.2,96,0,-1,10.8,10.3,22020,24,1.1,0.7
2019,8,25,02:40,UTC,0,1028.2,96,0,-1,10.7,10.1,18270,34,1,0.6
2019,8,25,02:50,UTC,0,1028.2,97,0,-1,10.7,10.2,19610,0,0,0
2019,8,25,03:00,UTC,0,1028.2,97,0,-1,10.6,10.2,18930,0,0,0
2019,8,25,03:10,UTC,0,1028.2,97,0,-1,10.4,10,16680,0,0,0
2019,8,25,03:20,UTC,0,1028.3,97,0,-1,10.6,10.2,16060,0,0,0
2019,8,25,03:30,UTC,0,1028.3,97,0,-1,10.6,10.2,15510,0,0,0
2019,8,25,03:40,UTC,0,1028.2,97,0,-1,10.6,10.3,14990,0,0,0
2019,8,25,03:50,UTC,0,1028.3,98,0,-1,10.8,10.4,16570,0,0,0
2019,8,25,04:00,UTC,0,1028.4,98,0,-1,10.8,10.4,15910,0,0,0
2019,8,25,04:10,UTC,0,1028.4,98,0,-1,10.9,10.6,17210,0,0,0
2019,8,25,04:20,UTC,0,1028.5,98,0,-1,11.1,10.8,18400,0,0,0
2019,8,25,04:30,UTC,0,1028.5,98,0,-1,11.5,11.2,23720,0,0,0
2019,8,25,04:40,UTC,0,1028.6,98,0,-1,12,11.6,31650,0,0,0
2019,8,25,04:50,UTC,0,1028.6,97,0,-1,13.4,13,41480,0,0,0
2019,8,25,05:00,UTC,0,1028.5,89,0,-1,14.4,12.5,39750,0,0,0
2019,8,25,05:10,UTC,0,1028.5,84,0,-1,15.1,12.4,42590,112,1.8,1
2019,8,25,05:20,UTC,0,1028.6,81,0,-1,14.8,11.7,45390,104,1.8,1.1
2019,8,25,05:30,UTC,0,1028.6,82,0,-1,15.4,12.2,44880,109,1.6,1.1
2019,8,25,05:40,UTC,0,1028.6,80,0,-1,15.9,12.4,45360,122,1.7,1.3
2019,8,25,05:50,UTC,0,1028.7,78,0,-1,16.7,12.9,50000,117,1.8,1.4
2019,8,25,06:00,UTC,0,1028.7,80,0,-1,17.3,13.8,50000,108,2,1.4
2019,8,25,06:10,UTC,0,1028.6,82,0,-1,17.7,14.6,43860,142,2.7,1.7
2019,8,25,06:20,UTC,0,1028.7,79,0,-1,17.7,14,41710,144,2.8,1.9
2019,8,25,06:30,UTC,0,1028.7,73,0,-1,18.2,13.3,47260,153,2.5,1.5
2019,8,25,06:40,UTC,0,1028.9,72,0,-1,18,12.9,31350,228,2.7,1.5
2019,8,25,06:50,UTC,0,1028.7,68,0,-1,17.8,11.8,25760,273,2.8,1.3
2019,8,25,07:00,UTC,0,1028.6,66,0,-1,18.2,11.7,48300,267,2.7,1.2
2019,8,25,07:10,UTC,0,1028.7,69,0,-1,18.5,12.7,42450,262,2.7,1.5
2019,8,25,07:20,UTC,0,1028.8,69,0,-1,18.3,12.5,43400,295,2.5,1.4
2019,8,25,07:30,UTC,0,1028.9,67,0,-1,18.2,12.1,38910,260,2.9,1.4
2019,8,25,07:40,UTC,0,1028.8,68,0,-1,18.3,12.2,32440,274,3.5,2.3
2019,8,25,07:50,UTC,0,1028.7,64,0,-1,18.7,11.8,40850,250,3,1.8
2019,8,25,08:00,UTC,0,1028.7,62,0,-1,19.1,11.7,40790,252,2.6,1.6
2019,8,25,08:10,UTC,0,1028.6,60,0,-1,19.2,11.1,42850,265,3,1.8
2019,8,25,08:20,UTC,0,1028.6,61,0,-1,19.1,11.5,45730,253,3.5,1.9
2019,8,25,08:30,UTC,0,1028.5,60,0,-1,19.5,11.5,47750,245,3.7,2.1
2019,8,25,08:40,UTC,0,1028.5,56,0,-1,19.6,10.7,43470,240,3.8,2
2019,8,25,08:50,UTC,0,1028.5,60,0,-1,19.4,11.4,40870,229,4.8,2.9
2019,8,25,09:00,UTC,0,1028.5,61,0,-1,19.7,11.9,43700,208,4.2,2.7
2019,8,25,09:10,UTC,0,1028.5,59,0,-1,19.4,11,41230,215,4.7,2.9
2019,8,25,09:20,UTC,1,1028.6,61,0,-1,20.2,12.5,43430,199,4.6,3
2019,8,25,09:30,UTC,0,1028.7,65,0,-1,19.1,12.4,45680,209,4.5,3
2019,8,25,09:40,UTC,0,1028.8,68,0,-1,18.7,12.7,31650,198,4.8,3.3
2019,8,25,09:50,UTC,0,1028.7,70,0,-1,18.7,13.2,41100,206,4.8,3.7
2019,8,25,10:00,UTC,1,1028.8,68,0,-1,18.1,12,36160,201,4.3,3.1
2019,8,25,10:10,UTC,1,1028.6,69,0,-1,18.8,12.9,41220,201,5.5,3.3
2019,8,25,10:20,UTC,1,1028.5,67,0,-1,19.1,12.9,32370,198,4.3,3.1
2019,8,25,10:30,UTC,1,1028.5,69,0,-1,18.7,13,45740,203,4.8,3.4
2019,8,25,10:40,UTC,1,1028.5,68,0,-1,18.6,12.5,38610,202,4.2,3.3
2019,8,25,10:50,UTC,1,1028.5,69,0,-1,18.9,13.2,34940,202,4.8,3.6
2019,8,25,11:00,UTC,1,1028.5,67,0,-1,18.9,12.8,39110,195,5,3.3
2019,8,25,11:10,UTC,1,1028.5,72,0,-1,18.7,13.7,37500,202,5.1,3.4
2019,8,25,11:20,UTC,1,1028.4,68,0,-1,18.9,13,41850,200,4.9,3.2
2019,8,25,11:30,UTC,1,1028.4,69,0,-1,18.6,12.8,43770,200,5.9,3.7
2019,8,25,11:40,UTC,1,1028.3,68,0,-1,19.1,13.1,33020,207,5.6,3.9
2019,8,25,11:50,UTC,0,1028.2,64,0,-1,19.1,12.1,39350,204,6.2,4.2
2019,8,25,12:00,UTC,0,1028.1,60,0,-1,19.4,11.5,38200,203,6.3,4.2
2019,8,25,12:10,UTC,1,1028.1,62,0,-1,19.5,12,47910,205,5.8,4
2019,8,25,12:20,UTC,0,1028,66,0,-1,19.2,12.6,50000,225,6.3,4.4
2019,8,25,12:30,UTC,0,1027.9,67,0,-1,19.5,13.2,42510,223,6.3,4.7
2019,8,25,12:40,UTC,0,1027.8,68,0,-1,19,12.9,47870,207,5.8,4.1
2019,8,25,12:50,UTC,0,1027.7,61,0,-1,19.1,11.5,45480,209,5.9,4.4
2019,8,25,13:00,UTC,0,1027.7,61,0,-1,19,11.2,48420,207,6.5,4
2019,8,25,13:10,UTC,0,1027.6,59,0,-1,18.9,10.6,47030,206,7,5.3
2019,8,25,13:20,UTC,0,1027.6,62,0,-1,18.6,11.1,42410,208,6.9,4.4
2019,8,25,13:30,UTC,0,1027.6,63,0,-1,18.8,11.6,49020,226,7.8,5.1
2019,8,25,13:40,UTC,0,1027.5,64,0,-1,19.1,12.1,50000,218,7.3,5.3
2019,8,25,13:50,UTC,0,1027.6,66,0,-1,18.8,12.3,46000,218,7.8,6
2019,8,25,14:00,UTC,0,1027.4,66,0,-1,19.3,12.7,48900,216,7.4,5.5
2019,8,25,14:10,UTC,0,1027.3,65,0,-1,19.3,12.6,46070,221,8.1,5.4
2019,8,25,14:20,UTC,0,1027.2,63,0,-1,19.1,11.9,47690,217,7.6,6
2019,8,25,14:30,UTC,0,1027.1,62,0,-1,19,11.5,47540,220,7.9,6.1
2019,8,25,14:40,UTC,0,1027.1,63,0,-1,19.1,11.8,50000,218,7.4,5.4
2019,8,25,14:50,UTC,0,1027,62,0,-1,19.2,11.7,50000,213,7.2,5.8
2019,8,25,15:00,UTC,0,1026.9,63,0,-1,18.9,11.8,47620,214,7.9,5.7
2019,8,25,15:10,UTC,0,1026.9,66,0,-1,18.6,12.2,50000,216,7.6,5.3
2019,8,25,15:20,UTC,0,1026.8,66,0,-1,18.3,11.9,50000,215,5.9,4.1
2019,8,25,15:30,UTC,1,1026.7,66,0,-1,18.1,11.8,50000,218,5.6,4.1
2019,8,25,15:40,UTC,0,1026.6,66,0,-1,18.2,11.8,50000,226,5.3,3.3
2019,8,25,15:50,UTC,1,1026.5,68,0,-1,18.1,12,50000,218,5.2,3.2
2019,8,25,16:00,UTC,0,1026.5,67,0,-1,18.1,11.9,50000,219,5.1,3.6
2019,8,25,16:10,UTC,1,1026.5,69,0,-1,18.1,12.3,50000,221,4.8,3.3
2019,8,25,16:20,UTC,1,1026.4,69,0,-1,17.9,12.2,48390,220,5.1,3.3
2019,8,25,16:30,UTC,1,1026.3,69,0,-1,17.8,12,50000,220,5.1,3.2
2019,8,25,16:40,UTC,0,1026.3,67,0,-1,17.9,11.8,45280,220,4.5,2.7
2019,8,25,16:50,UTC,0,1026.2,69,0,-1,17.7,12.1,50000,216,4.9,3.2
2019,8,25,17:00,UTC,1,1026.1,71,0,-1,17.6,12.4,50000,218,4.9,3.3
2019,8,25,17:10,UTC,5,1026.1,73,0,-1,17.4,12.5,50000,215,4.3,3.3
2019,8,25,17:20,UTC,5,1026,70,0,-1,17.5,11.9,50000,216,4.1,2.9
2019,8,25,17:30,UTC,3,1026,69,0,-1,17.4,11.6,50000,221,4.7,2.6
2019,8,25,17:40,UTC,1,1026,69,0,-1,17.2,11.6,50000,219,4.2,2.5
2019,8,25,17:50,UTC,0,1026,72,0,-1,16.9,11.9,50000,212,4.4,3
2019,8,25,18:00,UTC,0,1025.9,73,0,-1,17.1,12.2,50000,211,4.7,3.1
2019,8,25,18:10,UTC,0,1025.8,76,0,-1,16.9,12.7,50000,213,5.1,3.4
2019,8,25,18:20,UTC,0,1025.8,78,0,-1,16.7,12.9,50000,217,5.1,3.6
2019,8,25,18:30,UTC,0,1025.8,79,0,-1,16.7,13.1,50000,217,5.1,3.2
2019,8,25,18:40,UTC,0,1025.8,80,0,-1,16.6,13.2,48470,220,5.5,3.4
2019,8,25,18:50,UTC,0,1025.9,81,0,-1,16.8,13.5,50000,220,4.6,2.7
2019,8,25,19:00,UTC,0,1025.7,82,0,-1,16.8,13.7,49700,230,5,2.6
2019,8,25,19:10,UTC,1,1025.6,83,0,-1,16.7,13.8,50000,225,5,2.5
2019,8,25,19:20,UTC,1,1025.5,82,0,-1,16.7,13.6,50000,221,4.7,2.7
2019,8,25,19:30,UTC,3,1025.4,82,0,-1,16.6,13.4,50000,214,5.4,3.5
2019,8,25,19:40,UTC,1,1025.6,83,0,-1,16.6,13.7,50000,229,4.9,3
2019,8,25,19:50,UTC,1,1025.2,83,0,-1,16.6,13.7,50000,228,5.9,2.7
2019,8,25,20:00,UTC,1,1025,83,0,-1,16.5,13.7,50000,210,6.5,4.3
2019,8,25,20:10,UTC,1,1025.2,83,0,-1,16.6,13.7,50000,212,5.7,3.6
2019,8,25,20:20,UTC,1,1025.3,83,0,-1,16.6,13.8,50000,225,5.4,3
2019,8,25,20:30,UTC,1,1025.3,84,0,-1,16.7,13.9,49220,220,5.3,3.5
2019,8,25,20:40,UTC,1,1025.3,83,0,-1,16.6,13.8,50000,228,4.3,2.6
2019,8,25,20:50,UTC,3,1025.2,84,0,-1,16.7,13.9,50000,226,4.6,2.9
2019,8,25,21:00,UTC,1,1025.3,83,0,-1,16.6,13.7,48480,227,4.4,2.6
2019,8,25,21:10,UTC,5,1025.2,82,0,-1,16.7,13.5,50000,231,4.1,2.5
2019,8,25,21:20,UTC,1,1025.3,82,0,-1,16.7,13.7,50000,235,4.7,2
2019,8,25,21:30,UTC,1,1025.2,83,0,-1,16.7,13.8,50000,237,4.5,2.5
2019,8,25,21:40,UTC,0,1025.3,84,0,-1,16.6,14,50000,229,4.6,2.9
2019,8,25,21:50,UTC,0,1025.2,85,0,-1,16.6,14,50000,233,5.6,2.7
2019,8,25,22:00,UTC,0,1025.3,86,0,-1,16.4,14,50000,234,4.2,2.7
2019,8,25,22:10,UTC,0,1025.2,84,0,-1,16.6,14,50000,249,5.6,2.9
2019,8,25,22:20,UTC,0,1025.2,84,0,-1,16.6,14,50000,242,4.9,2.7
2019,8,25,22:30,UTC,0,1025.2,84,0,-1,16.7,14,50000,246,5.1,3
2019,8,25,22:40,UTC,0,1025.1,85,0,-1,16.7,14.1,50000,245,4.2,2.5
2019,8,25,22:50,UTC,0,1025.2,85,0,-1,16.6,14.1,50000,249,4.4,2.6
2019,8,25,23:00,UTC,0,1025.1,86,0,-1,16.6,14.1,50000,255,5,2.8
2019,8,25,23:10,UTC,0,1025,86,0,-1,16.5,14.1,50000,250,4.7,2.9
2019,8,25,23:20,UTC,0,1024.9,86,0,-1,16.5,14.2,50000,244,4.8,2.8
2019,8,25,23:30,UTC,0,1024.7,86,0,-1,16.6,14.2,50000,233,5.8,3.3
2019,8,25,23:40,UTC,0,1024.6,85,0,-1,16.7,14.2,50000,238,6.5,3.4
2019,8,25,23:50,UTC,0,1024.5,86,0,-1,16.6,14.3,50000,244,5.9,3.2
2019,8,26,00:00,UTC,0,1024.4,86,0,-1,16.6,14.3,50000,243,4.7,2.7
2019,8,26,00:10,UTC,0,1024.4,86,0,-1,16.6,14.3,50000,239,5.5,3
2019,8,26,00:20,UTC,0,1024.4,86,0,-1,16.7,14.4,50000,247,5.3,2.8
2019,8,26,00:30,UTC,0,1024.4,87,0,-1,16.6,14.4,50000,247,5.9,3.3
2019,8,26,00:40,UTC,0,1024.3,87,0,-1,16.6,14.3,50000,243,6.5,3.5
2019,8,26,00:50,UTC,0,1024.3,87,0,-1,16.5,14.3,50000,244,5.1,3.1
2019,8,26,01:00,UTC,0,1024.2,86,0,-1,16.5,14.2,47520,244,4.9,3
2019,8,26,01:10,UTC,0,1024.2,85,0,-1,16.5,14,50000,242,5.3,2.7
2019,8,26,01:20,UTC,0,1024.2,85,0,-1,16.5,14,50000,249,4.1,2.5
2019,8,26,01:30,UTC,0,1024.3,85,0,-1,16.5,13.9,50000,245,4.2,2.7
2019,8,26,01:40,UTC,0,1024.2,85,0,-1,16.4,13.9,49550,246,4.6,3
2019,8,26,01:50,UTC,0,1024.1,84,0,-1,16.5,13.8,50000,244,4.3,2.6
2019,8,26,02:00,UTC,0,1024.2,85,0,-1,16.4,13.8,50000,249,4.6,2.6
2019,8,26,02:10,UTC,0,1024.2,86,0,-1,16.1,13.8,50000,260,4.2,2.2
2019,8,26,02:20,UTC,0,1024.2,86,0,-1,16.2,13.8,50000,251,3.7,2
2019,8,26,02:30,UTC,0,1024.2,87,0,-1,15.9,13.8,50000,252,3.8,2.4
2019,8,26,02:40,UTC,0,1024.1,90,0,-1,15.4,13.8,50000,254,3.8,2.2
2019,8,26,02:50,UTC,0,1024,91,0,-1,15.3,13.8,45080,254,3.3,2.2
2019,8,26,03:00,UTC,0,1023.9,88,0,-1,16.1,14.1,50000,249,3.7,2.5
2019,8,26,03:10,UTC,0,1023.7,88,0,-1,16.1,14,49560,245,3.7,2.4
2019,8,26,03:20,UTC,0,1023.6,88,0,-1,16,14.1,50000,233,4,2.7
2019,8,26,03:30,UTC,0,1023.5,89,0,-1,16,14.1,50000,234,3.2,2.3
2019,8,26,03:40,UTC,0,1023.5,89,0,-1,16,14.2,50000,228,4.3,2.5
2019,8,26,03:50,UTC,0,1023.5,89,0,-1,16,14.2,49840,231,3.6,2.6
2019,8,26,04:00,UTC,0,1023.4,90,0,-1,15.9,14.3,46080,237,3.8,2.2
2019,8,26,04:10,UTC,0,1023.5,90,0,-1,16.1,14.4,50000,243,4.4,2.7
2019,8,26,04:20,UTC,0,1023.4,89,0,-1,16.2,14.5,50000,249,3.7,2.3
2019,8,26,04:30,UTC,0,1023.4,88,0,-1,16.5,14.6,49210,246,3.8,2.6
2019,8,26,04:40,UTC,0,1023.4,88,0,-1,16.7,14.7,50000,249,4.2,2.6
2019,8,26,04:50,UTC,0,1023.4,87,0,-1,17,14.8,49880,257,4.7,2.8
2019,8,26,05:00,UTC,0,1023.3,87,0,-1,16.8,14.7,43140,258,4.9,3
2019,8,26,05:10,UTC,0,1023.3,87,0,-1,16.9,14.8,39740,261,4.4,2.9
2019,8,26,05:20,UTC,0,1023.4,87,0,-1,17,14.9,34860,259,4.1,2.5
2019,8,26,05:30,UTC,1,1023.2,87,0,-1,17.1,15,42550,257,4,2.8
2019,8,26,05:40,UTC,1,1023.2,87,0,-1,17.3,15.1,38390,253,4.3,2.7
2019,8,26,05:50,UTC,1,1023.2,87,0,-1,17.4,15.1,35480,254,4,2.7
2019,8,26,06:00,UTC,1,1023.3,87,0,-1,17.5,15.2,47640,261,4.7,3.3
2019,8,26,06:10,UTC,1,1023.1,86,0,-1,17.7,15.4,35980,260,4.4,3.3
2019,8,26,06:20,UTC,0,1023,86,0,-1,17.7,15.4,33090,256,3.9,2.6
2019,8,26,06:30,UTC,1,1023.1,86,0,-1,17.8,15.5,37140,266,4.3,3
2019,8,26,06:40,UTC,1,1023.1,86,0,-1,18,15.6,41980,262,4.2,3
2019,8,26,06:50,UTC,3,1023.1,85,0,-1,18.2,15.7,35000,288,5.1,3
2019,8,26,07:00,UTC,1,1023.1,85,0,-1,18.2,15.8,31130,283,4.7,3.1
2019,8,26,07:10,UTC,1,1023,84,0,-1,18.4,15.7,31800,272,4.7,2.8
2019,8,26,07:20,UTC,1,1023,85,0,-1,18.5,15.8,35550,263,4.4,3.2
2019,8,26,07:30,UTC,1,1023.1,84,0,-1,18.4,15.6,33880,274,5.2,3.7
2019,8,26,07:40,UTC,1,1023.1,84,0,-1,18.4,15.7,43720,257,5.8,4.1
2019,8,26,07:50,UTC,1,1023.1,82,0,-1,18.7,15.7,36110,259,5.3,4.1
2019,8,26,08:00,UTC,1,1023.2,82,0,-1,18.9,15.8,29200,257,5.5,3.8
2019,8,26,08:10,UTC,1,1023.2,81,0,-1,19,15.7,37410,258,4.7,3.6
2019,8,26,08:20,UTC,1,1023.3,80,0,-1,19.2,15.7,34380,274,5.3,3.3
2019,8,26,08:30,UTC,1,1023.2,79,0,-1,19.6,15.8,38010,262,5.3,4
2019,8,26,08:40,UTC,1,1023.1,79,0,-1,19.7,15.9,36980,261,5.1,3.3
2019,8,26,08:50,UTC,1,1023.1,80,0,-1,19.7,16.1,32510,242,4.7,3
2019,8,26,09:00,UTC,1,1023.1,80,0,-1,19.8,16.2,34190,229,4.9,3.4
2019,8,26,09:10,UTC,1,1023.1,81,0,-1,19.5,16.2,25350,216,5,3.7
2019,8,26,09:20,UTC,0,1023.1,80,0,-1,19.6,16.2,38230,230,4.7,2.8
2019,8,26,09:30,UTC,0,1023.1,81,0,-1,19.9,16.4,29720,232,5.6,3.9
2019,8,26,09:40,UTC,1,1023,81,0,-1,19.8,16.3,36130,229,4.5,2.7
2019,8,26,09:50,UTC,1,1023,81,0,-1,19.7,16.3,33110,215,6.1,3.9
2019,8,26,10:00,UTC,1,1022.9,81,0,-1,19.9,16.4,38760,217,5.4,3.9
2019,8,26,10:10,UTC,1,1022.8,81,0,-1,19.7,16.4,31560,220,5.8,3.6
2019,8,26,10:20,UTC,1,1022.8,79,0,-1,20.2,16.4,28730,216,6.2,4.6
2019,8,26,10:30,UTC,0,1022.9,80,0,-1,20.2,16.7,33830,213,5.8,4.1
2019,8,26,10:40,UTC,0,1022.9,81,0,-1,19.9,16.5,29810,216,5.5,4.1
2019,8,26,10:50,UTC,1,1022.9,79,0,-1,20.1,16.3,29700,225,4.5,2.8
2019,8,26,11:00,UTC,1,1022.9,80,0,-1,20.2,16.5,29070,218,5,3.5
2019,8,26,11:10,UTC,1,1022.9,79,0,-1,20.3,16.5,32030,214,5.2,3.8
2019,8,26,11:20,UTC,1,1022.9,79,0,-1,20.6,16.7,34390,212,5.3,3.8
2019,8,26,11:30,UTC,1,1022.8,78,0,-1,20.6,16.6,33140,211,5.3,3.4
2019,8,26,11:40,UTC,1,1022.9,78,0,-1,20.9,17,32560,225,5.7,3.2
2019,8,26,11:50,UTC,1,1022.8,76,0,-1,21.1,16.6,31600,234,5.2,3.2
2019,8,26,12:00,UTC,1,1022.7,77,0,-1,21.2,17,28250,248,6.5,4.1
2019,8,26,12:10,UTC,1,1022.7,78,0,-1,20.9,16.8,34040,234,5,2.9
2019,8,26,12:20,UTC,1,1022.8,77,0,-1,20.8,16.6,29410,236,5.4,3.1
2019,8,26,12:30,UTC,1,1022.7,76,0,-1,20.9,16.6,32460,239,6.8,3.7
2019,8,26,12:40,UTC,1,1022.7,77,0,-1,21.1,17.1,35820,232,7.1,4.5
2019,8,26,12:50,UTC,1,1022.6,77,0,-1,20.7,16.5,27760,233,7.7,4
2019,8,26,13:00,UTC,1,1022.5,76,0,-1,20.9,16.5,32060,238,5.7,3.4
2019,8,26,13:10,UTC,1,1022.6,77,0,-1,20.9,16.7,33560,230,4.7,2.8
2019,8,26,13:20,UTC,1,1022.5,75,0,-1,21.1,16.4,30040,231,4.1,2.6
2019,8,26,13:30,UTC,1,1022.5,75,0,-1,20.9,16.4,31060,218,4.2,2.7
2019,8,26,13:40,UTC,3,1022.5,74,0,-1,21.2,16.5,36480,216,4.5,3.6
2019,8,26,13:50,UTC,1,1022.4,75,0,-1,21.2,16.5,32550,220,3.5,2.5
2019,8,26,14:00,UTC,1,1022.4,74,0,-1,21.6,16.7,34070,211,3.7,2.6
2019,8,26,14:10,UTC,1,1022.4,72,0,-1,21.6,16.4,27720,219,4.2,3
2019,8,26,14:20,UTC,1,1022.4,72,0,-1,21.7,16.5,36720,233,3,2.1
2019,8,26,14:30,UTC,1,1022.4,71,0,-1,22,16.5,36870,226,3.1,1.8
2019,8,26,14:40,UTC,1,1022.5,69,0,-1,22.1,16.3,31940,223,2.3,1.3
2019,8,26,14:50,UTC,1,1022.4,68,0,-1,22.3,16.1,34450,218,2.8,1.7
2019,8,26,15:00,UTC,1,1022.5,67,0,-1,22.6,16.2,38720,228,1.9,1.1
2019,8,26,15:10,UTC,3,1022.4,68,0,-1,22.5,16.4,38170,212,2.8,2
2019,8,26,15:20,UTC,3,1022.4,69,0,-1,22.2,16.2,35030,211,3.7,2.6
2019,8,26,15:30,UTC,3,1022.3,69,0,-1,22.1,16.2,36330,219,4,2.9
2019,8,26,15:40,UTC,1,1022.4,68,0,-1,22,15.9,39510,219,4.1,2.9
2019,8,26,15:50,UTC,1,1022.3,69,0,-1,21.8,15.9,43570,231,3.1,1.7
2019,8,26,16:00,UTC,1,1022.4,70,0,-1,21.8,16,43130,239,3.6,1.8
2019,8,26,16:10,UTC,1,1022.4,70,0,-1,21.7,16.1,39690,232,3.1,2.1
2019,8,26,16:20,UTC,1,1022.3,71,0,-1,21.6,16.2,38300,229,2.3,1.5
2019,8,26,16:30,UTC,1,1022.3,72,0,-1,21.5,16.2,42890,213,2.8,2
2019,8,26,16:40,UTC,1,1022.3,72,0,-1,21.5,16.2,42660,239,3.2,1.8
2019,8,26,16:50,UTC,0,1022.3,72,0,-1,21.4,16.2,39300,245,4,2.4
2019,8,26,17:00,UTC,0,1022.3,74,0,-1,21.2,16.3,41030,242,4.2,2.7
2019,8,26,17:10,UTC,0,1022.4,76,0,-1,20.7,16.4,38070,245,4.5,2.5
2019,8,26,17:20,UTC,0,1022.4,76,0,-1,20.6,16.3,42880,251,3.7,2.6
2019,8,26,17:30,UTC,0,1022.5,79,0,-1,20.1,16.3,45160,250,4.2,2.6
2019,8,26,17:40,UTC,0,1022.5,81,0,-1,19.6,16.2,40600,254,3,2.2
2019,8,26,17:50,UTC,0,1022.6,83,0,-1,19.2,16.2,36820,250,3.9,2.3
2019,8,26,18:00,UTC,0,1022.5,79,0,-1,20.1,16.3,38580,246,4,2.7
2019,8,26,18:10,UTC,0,1022.6,82,0,-1,19.4,16.2,42060,254,4,2.8
2019,8,26,18:20,UTC,0,1022.6,78,0,-1,20.3,16.3,43560,258,3.9,2.9
2019,8,26,18:30,UTC,0,1022.7,76,0,-1,20.6,16.2,43370,257,4.1,3
2019,8,26,18:40,UTC,0,1022.8,76,0,-1,20.5,16.2,43320,256,4.6,3.1
2019,8,26,18:50,UTC,0,1022.7,77,0,-1,20.3,16.2,49130,260,4.6,2.9
2019,8,26,19:00,UTC,0,1022.7,78,0,-1,20.2,16.2,39290,258,4.8,3.4
2019,8,26,19:10,UTC,0,1022.8,79,0,-1,20,16.3,42410,258,4.8,3.5
2019,8,26,19:20,UTC,0,1022.8,80,0,-1,20,16.3,45830,261,3.9,3.1
2019,8,26,19:30,UTC,0,1022.9,81,0,-1,19.5,16.3,39730,259,3.6,2.7
2019,8,26,19:40,UTC,0,1022.9,84,0,-1,18.8,16,36960,265,3.2,2.5
2019,8,26,19:50,UTC,0,1023,87,0,-1,18.4,16.1,34010,275,3.1,2.2
2019,8,26,20:00,UTC,0,1022.9,88,0,-1,18,16.1,30240,277,4.4,3.2
2019,8,26,20:10,UTC,0,1023,86,0,-1,18.5,16.1,43510,278,5,3.4
2019,8,26,20:20,UTC,0,1023,86,0,-1,18.4,16,35180,279,4.6,3.2
2019,8,26,20:30,UTC,0,1023.1,86,0,-1,18.2,15.9,39560,289,3.7,2.7
2019,8,26,20:40,UTC,0,1023.1,86,0,-1,18.3,15.9,34430,290,4.3,2.7
2019,8,26,20:50,UTC,0,1023.2,86,0,-1,18,15.7,36240,295,4.7,2.8
2019,8,26,21:00,UTC,0,1023.3,88,0,-1,17.9,15.8,39070,298,3.9,2.5
2019,8,26,21:10,UTC,0,1023.4,87,0,-1,17.9,15.7,41100,292,4,2.6
2019,8,26,21:20,UTC,0,1023.5,87,0,-1,17.7,15.6,38020,294,3.9,2.6
2019,8,26,21:30,UTC,0,1023.6,89,0,-1,17.4,15.5,33360,300,3.5,1.9
2019,8,26,21:40,UTC,0,1023.5,89,0,-1,17.2,15.4,35090,298,3.1,1.9
2019,8,26,21:50,UTC,0,1023.6,90,0,-1,17.1,15.4,33300,311,3.7,1.9
2019,8,26,22:00,UTC,0,1023.7,91,0,-1,16.9,15.4,32910,301,2.6,1.4
2019,8,26,22:10,UTC,0,1023.8,91,0,-1,16.9,15.4,39610,317,1.8,1.3
2019,8,26,22:20,UTC,0,1023.9,92,0,-1,16.7,15.3,31480,304,1.9,1.3
2019,8,26,22:30,UTC,0,1023.9,92,0,-1,16.4,15.1,25660,292,1.6,0.8
2019,8,26,22:40,UTC,0,1023.9,93,0,-1,16.2,15.1,26830,278,1.5,1.1
2019,8,26,22:50,UTC,0,1023.9,94,0,-1,16.3,15.3,25520,272,2.1,1.6
2019,8,26,23:00,UTC,0,1023.9,94,0,-1,16.3,15.4,23580,274,2.2,1.4
2019,8,26,23:10,UTC,0,1024,95,0,-1,16.3,15.5,23160,317,1.8,1
2019,8,26,23:20,UTC,0,1024.1,95,0,-1,16,15.2,17520,328,1.7,1.3
2019,8,26,23:30,UTC,0,1024.1,95,0,-1,15.8,15,16510,307,1.7,1.4
2019,8,26,23:40,UTC,0,1024.2,96,0,-1,15.6,14.9,15500,292,2.3,1.5
2019,8,26,23:50,UTC,0,1024.2,96,0,-1,15.4,14.8,13000,285,2.6,1.9
2019,8,27,00:00,UTC,0,1024.2,97,0,-1,15.6,15.1,14260,291,3.2,2
2019,8,27,00:10,UTC,0,1024.2,97,0,-1,15.7,15.1,15880,303,2.7,1.8
2019,8,27,00:20,UTC,0,1024.3,96,0,-1,15.6,15,16430,323,2.5,1.5
2019,8,27,00:30,UTC,0,1024.3,96,0,-1,15.3,14.7,15110,322,2.8,2
2019,8,27,00:40,UTC,0,1024.4,96,0,-1,15.2,14.6,18140,329,2.6,1.8
2019,8,27,00:50,UTC,0,1024.4,96,0,-1,15.1,14.5,16260,331,2.7,1.9
2019,8,27,01:00,UTC,0,1024.5,96,0,-1,15,14.5,17280,326,3.6,2.7
2019,8,27,01:10,UTC,0,1024.6,96,0,-1,15,14.4,24930,312,3.5,2.6
2019,8,27,01:20,UTC,0,1024.7,96,0,-1,15,14.3,25170,315,3.7,2.8
2019,8,27,01:30,UTC,0,1024.7,95,0,-1,15.2,14.4,25390,326,4,3.1
2019,8,27,01:40,UTC,0,1024.8,94,0,-1,15,14.1,25320,326,3.9,3.1
2019,8,27,01:50,UTC,0,1024.9,95,0,-1,14.9,14,28540,323,4,3.2
2019,8,27,02:00,UTC,0,1024.9,95,0,-1,14.8,14,26810,317,3.8,2.8
2019,8,27,02:10,UTC,0,1025,94,0,-1,14.9,13.9,29050,320,3.7,2.8
2019,8,27,02:20,UTC,0,1024.9,94,0,-1,14.8,13.9,28740,323,2.8,1.9
2019,8,27,02:30,UTC,0,1025,94,0,-1,14.6,13.7,23160,315,2.7,1.8
2019,8,27,02:40,UTC,0,1025,95,0,-1,14.5,13.8,24080,310,3.3,2.2
2019,8,27,02:50,UTC,0,1025.1,95,0,-1,14.6,13.8,24140,314,3.3,2.2
2019,8,27,03:00,UTC,0,1025.2,95,0,-1,14.6,13.8,25280,324,2.7,1.9
2019,8,27,03:10,UTC,0,1025.3,95,0,-1,14.4,13.6,21740,322,2.2,1.6
2019,8,27,03:20,UTC,0,1025.3,95,0,-1,14.3,13.6,17650,321,2,1.1
2019,8,27,03:30,UTC,0,1025.3,96,0,-1,14.2,13.5,16040,296,1.3,0.9
2019,8,27,03:40,UTC,0,1025.4,96,0,-1,14.2,13.6,16240,316,1.9,1.2
2019,8,27,03:50,UTC,0,1025.4,96,0,-1,14.2,13.6,14880,309,2.1,1.5
2019,8,27,04:00,UTC,0,1025.4,97,0,-1,14.4,13.8,16000,313,1.9,1.4
2019,8,27,04:10,UTC,0,1025.4,97,0,-1,14.5,14,17420,318,2.1,1.6
2019,8,27,04:20,UTC,0,1025.5,97,0,-1,14.6,14.1,18270,323,1.7,1.1
2019,8,27,04:30,UTC,0,1025.5,97,0,-1,14.9,14.3,19380,323,1.6,1
2019,8,27,04:40,UTC,0,1025.6,96,0,-1,15.3,14.7,21090,333,1.4,1
2019,8,27,04:50,UTC,0,1025.7,94,0,-1,16.1,15.2,26830,348,2.2,0.9
2019,8,27,05:00,UTC,0,1025.7,91,0,-1,17.2,15.6,26550,13,2.1,1.2
2019,8,27,05:10,UTC,0,1025.7,84,0,-1,17.5,14.8,29360,17,1.8,1.3
2019,8,27,05:20,UTC,0,1025.7,82,0,-1,18.4,15.2,32310,38,2.4,1
2019,8,27,05:30,UTC,0,1025.7,80,0,-1,18.5,15,37080,57,2.1,1.2
2019,8,27,05:40,UTC,0,1025.8,79,0,-1,18.7,14.9,23320,67,2.1,1.3
2019,8,27,05:50,UTC,0,1025.8,79,0,-1,18.7,15.1,27840,74,2.5,1.6
2019,8,27,06:00,UTC,0,1025.8,78,0,-1,19,15,27490,99,2.3,1.3
2019,8,27,06:10,UTC,0,1025.9,77,0,-1,19.2,15.1,30780,91,2.9,1.8
2019,8,27,06:20,UTC,0,1026.1,79,0,-1,18.8,15.1,31540,117,2.7,1.8
2019,8,27,06:30,UTC,0,1026.1,78,0,-1,19.1,15.2,28670,111,2.5,1.5
2019,8,27,06:40,UTC,0,1026,78,0,-1,19.8,15.9,28310,112,2,1.3
2019,8,27,06:50,UTC,0,1026.1,77,0,-1,20.1,15.8,29960,112,2.7,1.7
2019,8,27,07:00,UTC,0,1026.2,76,0,-1,20.5,16.2,36330,104,3.2,2
2019,8,27,07:10,UTC,0,1026.1,75,0,-1,20.4,15.9,35510,99,3.2,1.9
2019,8,27,07:20,UTC,0,1026.2,77,0,-1,20,15.9,34460,114,3.6,2.6
2019,8,27,07:30,UTC,0,1026.2,76,0,-1,20.2,15.7,33540,121,4.5,3
2019,8,27,07:40,UTC,0,1026.3,62,0,-1,20.5,13,45490,107,4.5,3.3
2019,8,27,07:50,UTC,0,1026.4,57,0,-1,20.3,11.5,46090,113,5.8,3.8
2019,8,27,08:00,UTC,0,1026.5,57,0,-1,20.4,11.6,41550,111,5.4,4.2
2019,8,27,08:10,UTC,0,1026.5,59,0,-1,20.4,12,49950,112,4.9,3.9
2019,8,27,08:20,UTC,0,1026.5,56,0,-1,20.3,11.2,42160,110,5.1,3.7
2019,8,27,08:30,UTC,0,1026.6,56,0,-1,20.9,11.9,42890,112,4.8,3.4
2019,8,27,08:40,UTC,0,1026.6,60,0,-1,20.7,12.6,48490,115,4.9,3.5
2019,8,27,08:50,UTC,0,1026.7,59,0,-1,21,12.7,42780,117,4.3,2.8
2019,8,27,09:00,UTC,0,1026.9,57,0,-1,21.1,12.3,45980,131,3.7,2.1
2019,8,27,09:10,UTC,0,1026.9,54,0,-1,20.7,11,43960,155,4.5,2.9
2019,8,27,09:20,UTC,0,1026.9,62,0,-1,20.8,13.3,39330,147,4.2,3.1
2019,8,27,09:30,UTC,0,1027,64,0,-1,20.6,13.6,40100,137,4.5,3
2019,8,27,09:40,UTC,0,1027.1,66,0,-1,20.7,14.1,34380,136,4.5,3
2019,8,27,09:50,UTC,0,1027.1,68,0,-1,20.6,14.4,40110,139,5,2.7
2019,8,27,10:00,UTC,0,1027.1,70,0,-1,20.4,14.8,39250,137,4.3,3.1
2019,8,27,10:10,UTC,0,1027.2,71,0,-1,20.3,15,28730,133,4.6,2.8
2019,8,27,10:20,UTC,0,1027.1,72,0,-1,20.4,15.2,28770,150,3.5,2.3
2019,8,27,10:30,UTC,0,1027.1,74,0,-1,20.1,15.3,28830,166,4,2.4
2019,8,27,10:40,UTC,0,1027.1,75,0,-1,20,15.4,30390,163,4,2
2019,8,27,10:50,UTC,0,1027,74,0,-1,20.3,15.4,34440,161,4.1,2.4
2019,8,27,11:00,UTC,0,1027.1,73,0,-1,20.6,15.6,38040,169,4.4,2.6
2019,8,27,11:10,UTC,0,1027,75,0,-1,20.4,15.8,30020,182,3.7,2.4
2019,8,27,11:20,UTC,0,1027,73,0,-1,21,16,27600,188,3.5,2.3
2019,8,27,11:30,UTC,1,1027,75,0,-1,20.2,15.6,28340,199,3.9,2.4
2019,8,27,11:40,UTC,0,1026.9,76,0,-1,20.7,16.3,25780,203,4.2,2.9
2019,8,27,11:50,UTC,0,1026.9,75,0,-1,20.4,15.8,33560,197,3.9,2.6
2019,8,27,12:00,UTC,0,1026.9,78,0,-1,20.1,16.1,26990,194,3.8,2.5
2019,8,27,12:10,UTC,0,1027,77,0,-1,20,15.9,31860,165,4,2.8
2019,8,27,12:20,UTC,0,1027,76,0,-1,20.1,15.7,27700,189,4,2.7
2019,8,27,12:30,UTC,0,1026.9,75,0,-1,20.6,16,30660,211,4.3,3.2
2019,8,27,12:40,UTC,0,1026.8,74,0,-1,20.3,15.6,28470,214,3.7,2.5
2019,8,27,12:50,UTC,0,1026.8,74,0,-1,20.5,15.8,31770,217,4.3,2.7
2019,8,27,13:00,UTC,1,1026.7,73,0,-1,20.7,15.7,29340,211,4.5,3
2019,8,27,13:10,UTC,0,1026.7,75,0,-1,21,16.5,32160,215,3.6,2.6
2019,8,27,13:20,UTC,0,1026.6,73,0,-1,20.9,15.9,30020,216,3.5,2.4
2019,8,27,13:30,UTC,0,1026.5,72,0,-1,20.6,15.4,28270,206,3.7,2.5
2019,8,27,13:40,UTC,0,1026.5,71,0,-1,20.7,15.3,32470,210,3.6,2.2
2019,8,27,13:50,UTC,0,1026.5,73,0,-1,20.7,15.6,32770,210,3.9,2.7
2019,8,27,14:00,UTC,1,1026.4,70,0,-1,20.7,15,45410,197,4,2.5
2019,8,27,14:10,UTC,0,1026.4,69,0,-1,20.7,14.8,36340,192,4.4,2.7
2019,8,27,14:20,UTC,0,1026.4,71,0,-1,20.5,15,36360,194,4,2.9
2019,8,27,14:30,UTC,0,1026.4,74,0,-1,20.2,15.4,41020,196,3.9,2.4
2019,8,27,14:40,UTC,0,1026.4,73,0,-1,20,15.1,36670,195,3.2,2.2
2019,8,27,14:50,UTC,1,1026.3,75,0,-1,20,15.4,45350,170,3.7,2.1
2019,8,27,15:00,UTC,1,1026.3,73,0,-1,20,15.1,42460,192,3,2
2019,8,27,15:10,UTC,1,1026.3,77,0,-1,20,15.7,38400,201,3,2.3
2019,8,27,15:20,UTC,1,1026.2,77,0,-1,19.8,15.7,32690,201,3.5,2.3
2019,8,27,15:30,UTC,1,1026.2,78,0,-1,19.6,15.7,31200,213,3.6,2.7
2019,8,27,15:40,UTC,1,1026.2,78,0,-1,19.6,15.7,29980,207,3.6,2.6
2019,8,27,15:50,UTC,1,1026.2,81,0,-1,19.3,15.9,26800,206,4.1,2.6
2019,8,27,16:00,UTC,1,1026.2,79,0,-1,19.5,15.9,25800,192,2.9,2.1
2019,8,27,16:10,UTC,0,1026.2,82,0,-1,19.3,16.1,28710,197,2.9,1.7
2019,8,27,16:20,UTC,0,1026.1,81,0,-1,19.4,16.1,27640,198,3,1.9
2019,8,27,16:30,UTC,0,1026.1,84,0,-1,19,16.2,24160,183,2.6,1.9
2019,8,27,16:40,UTC,1,1026,86,0,-1,18.7,16.4,21660,185,3.4,2.1
2019,8,27,16:50,UTC,1,1026,87,0,-1,18.5,16.3,20640,189,3.1,2
2019,8,27,17:00,UTC,1,1025.9,88,0,-1,18.5,16.5,15700,184,3.3,1.9
2019,8,27,17:10,UTC,0,1025.9,89,0,-1,18.2,16.4,15430,193,2.8,1.6
2019,8,27,17:20,UTC,0,1025.9,91,0,-1,17.9,16.4,13160,203,2.4,1.7
2019,8,27,17:30,UTC,0,1025.9,92,0,-1,17.7,16.5,11740,201,2.7,1.7
2019,8,27,17:40,UTC,0,1025.9,93,0,-1,17.6,16.5,10390,195,2.8,1.7
2019,8,27,17:50,UTC,0,1025.8,94,0,-1,17.5,16.4,9570,207,2.1,1.5
2019,8,27,18:00,UTC,0,1025.8,94,0,-1,17.3,16.4,8200,207,3.1,1.9
2019,8,27,18:10,UTC,0,1025.8,95,0,-1,17.2,16.4,6890,209,2.8,2
2019,8,27,18:20,UTC,0,1025.8,96,0,-1,17.1,16.4,5540,207,2.3,1.8
2019,8,27,18:30,UTC,0,1025.8,96,0,-1,17.1,16.5,5410,222,2.2,0.9
2019,8,27,18:40,UTC,0,1025.8,96,0,-1,17,16.3,4760,222,2.5,1.5
2019,8,27,18:50,UTC,0,1025.9,96,0,-1,16.8,16.2,3960,226,2.2,1.3
2019,8,27,19:00,UTC,0,1025.9,96,0,-1,17.4,16.8,5150,225,2.5,1.6
2019,8,27,19:10,UTC,0,1025.9,96,0,-1,16.9,16.3,3340,234,3,1.8
2019,8,27,19:20,UTC,0,1025.9,96,0,-1,16.6,16,2380,238,2.8,1.6
2019,8,27,19:30,UTC,0,1025.8,96,0,-1,16.3,15.8,2020,226,3.4,2.2
2019,8,27,19:40,UTC,0,1025.9,97,0,-1,16.2,15.7,1920,224,2.6,1.7
2019,8,27,19:50,UTC,0,1026,97,0,-1,16.2,15.7,1570,245,2.3,1.1
2019,8,27,20:00,UTC,0,1026,97,0,-1,15.9,15.5,1290,246,1.8,1.4
2019,8,27,20:10,UTC,0,1026.1,97,0,-1,15.8,15.4,1080,249,2.4,1.5
2019,8,27,20:20,UTC,0,1026.1,98,0,-1,15.8,15.4,1080,249,2.1,1.3
2019,8,27,20:30,UTC,0,1026.2,98,0,-1,15.6,15.2,1280,262,1.5,1
2019,8,27,20:40,UTC,0,1026.2,98,0,-1,15.6,15.2,1150,236,1,0.7
2019,8,27,20:50,UTC,0,1026.3,98,0,-1,15.5,15.2,1090,246,1.4,0.9
2019,8,27,21:00,UTC,0,1026.4,98,0,-1,15.5,15.2,1220,234,2.5,1.4
2019,8,27,21:10,UTC,0,1026.4,98,0,-1,15.6,15.4,930,223,2.5,1.7
2019,8,27,21:20,UTC,0,1026.4,98,0,-1,15.6,15.3,1130,230,3,1.6
2019,8,27,21:30,UTC,0,1026.4,98,0,-1,15.5,15.3,990,216,2.7,1.6
2019,8,27,21:40,UTC,1,1026.5,98,0,-1,15.4,15.2,1310,220,2,1.4
2019,8,27,21:50,UTC,3,1026.5,98,0,-1,15.2,14.9,1270,228,1.6,1.2
2019,8,27,22:00,UTC,1,1026.5,98,0,-1,15.2,14.9,1000,230,1.1,0.7
2019,8,27,22:10,UTC,1,1026.5,98,0,-1,15.1,14.9,910,0,0,0
2019,8,27,22:20,UTC,0,1026.5,98,0,-1,15,14.7,990,0,0,0
2019,8,27,22:30,UTC,0,1026.5,98,0,-1,15,14.7,1000,320,0.8,0.5
2019,8,27,22:40,UTC,9,1026.5,99,0,-1,14.9,14.7,670,315,0.8,0.5
2019,8,27,22:50,UTC,9,1026.5,98,0,-1,15,14.7,170,0,0,0
2019,8,27,23:00,UTC,9,1026.6,98,0,-1,14.8,14.6,100,0,0,0
2019,8,27,23:10,UTC,9,1026.5,99,0,-1,14.8,14.6,90,0,0,0
2019,8,27,23:20,UTC,5,1026.5,99,0,-1,14.6,14.3,140,83,1.1,0.7
2019,8,27,23:30,UTC,1,1026.6,98,0,-1,14.3,14.1,490,93,1,0.7
2019,8,27,23:40,UTC,1,1026.6,99,0,-1,14.3,14,1470,84,1.1,0.8
2019,8,27,23:50,UTC,0,1026.6,99,0,-1,14.3,14.1,1240,93,0.9,0.6
2019,8,28,00:00,UTC,0,1026.7,99,0,-1,14.3,14,1000,104,0.9,0.6
2019,8,28,00:10,UTC,0,1026.7,99,0,-1,14.4,14.2,1150,102,1.2,0.8
2019,8,28,00:20,UTC,0,1026.7,99,0,-1,14.4,14.2,1000,107,1.4,1.1
2019,8,28,00:30,UTC,0,1026.7,99,0,-1,14.5,14.3,760,108,1.6,1.1
2019,8,28,00:40,UTC,0,1026.7,99,0,-1,14.3,14.1,580,104,1.5,1.1
2019,8,28,00:50,UTC,0,1026.7,99,0,-1,14.5,14.3,700,88,1.1,0.8
2019,8,28,01:00,UTC,0,1026.7,99,0,-1,14.4,14.2,770,94,0.7,0.6
2019,8,28,01:10,UTC,0,1026.8,99,0,-1,14.2,14.1,540,106,0.8,0.6
2019,8,28,01:20,UTC,0,1026.8,99,0,-1,14.2,14,590,93,0.9,0.6
2019,8,28,01:30,UTC,0,1026.8,99,0,-1,14.2,14,630,93,1.5,1
2019,8,28,01:40,UTC,0,1026.8,99,0,-1,14.2,14,490,104,1.7,1.4
2019,8,28,01:50,UTC,0,1026.8,99,0,-1,14.4,14.2,520,104,1.9,1.3
2019,8,28,02:00,UTC,0,1026.9,99,0,-1,14.4,14.2,560,105,2.3,1.4
2019,8,28,02:10,UTC,1,1026.8,99,0,-1,14.6,14.4,730,0,0,0
2019,8,28,02:20,UTC,1,1026.8,99,0,-1,14.4,14.2,490,91,1.4,0.7
2019,8,28,02:30,UTC,1,1026.8,99,0,-1,14.2,14.1,210,103,1.4,0.9
2019,8,28,02:40,UTC,0,1026.8,99,0,-1,14.2,14.1,410,108,1.4,0.9
2019,8,28,02:50,UTC,0,1026.8,99,0,-1,14.2,14,840,111,1.4,1
2019,8,28,03:00,UTC,0,1026.7,99,0,-1,14.1,13.9,870,92,1.4,1
2019,8,28,03:10,UTC,0,1026.7,99,0,-1,14.3,14.1,1100,87,1.3,0.9
2019,8,28,03:20,UTC,0,1026.7,99,0,-1,14.1,14,870,86,1.6,1
2019,8,28,03:30,UTC,0,1026.6,99,0,-1,14.1,13.9,1510,108,2.4,1.7
2019,8,28,03:40,UTC,0,1026.6,99,0,-1,14.2,14.1,1410,107,2.1,1.7
2019,8,28,03:50,UTC,0,1026.6,99,0,-1,14.4,14.3,1310,98,1.9,1.2
2019,8,28,04:00,UTC,0,1026.5,99,0,-1,14.3,14.1,1620,99,1.7,1.2
2019,8,28,04:10,UTC,0,1026.5,99,0,-1,14.7,14.6,1750,107,1.7,1.1
2019,8,28,04:20,UTC,0,1026.5,99,0,-1,15.1,14.9,2700,98,1.7,1
2019,8,28,04:30,UTC,0,1026.5,99,0,-1,15.5,15.3,4910,115,2.3,1.6
2019,8,28,04:40,UTC,0,1026.5,99,0,-1,15.6,15.4,4220,102,1.8,1.3
2019,8,28,04:50,UTC,0,1026.5,99,0,-1,16.2,16.1,7090,102,2,1.2
2019,8,28,05:00,UTC,0,1026.5,99,0,-1,16.6,16.4,15520,111,2.7,1.9
2019,8,28,05:10,UTC,0,1026.5,99,0,-1,17.1,16.9,19490,114,2.5,1.6
2019,8,28,05:20,UTC,0,1026.4,99,0,-1,17.8,17.6,22280,117,2.3,1.6
2019,8,28,05:30,UTC,0,1026.5,98,0,-1,18.3,17.9,24550,120,1.9,1.3
2019,8,28,05:40,UTC,0,1026.5,95,0,-1,18.3,17.4,21310,117,2.7,1.4
2019,8,28,05:50,UTC,0,1026.4,89,0,-1,18.8,16.9,32510,119,2.7,1.7
2019,8,28,06:00,UTC,0,1026.4,83,0,-1,19.2,16.3,31660,130,3.5,1.9
2019,8,28,06:10,UTC,0,1026.6,81,0,-1,19.5,16.1,39240,138,3.5,2.2
2019,8,28,06:20,UTC,0,1026.5,78,0,-1,19.5,15.5,36670,137,3.6,2.3
2019,8,28,06:30,UTC,0,1026.5,77,0,-1,19.7,15.6,38190,156,4.5,2.5
2019,8,28,06:40,UTC,0,1026.4,77,0,-1,19.8,15.6,36920,161,5.1,3.1
2019,8,28,06:50,UTC,0,1026.4,77,0,-1,19.7,15.6,39150,159,3.8,2.7
2019,8,28,07:00,UTC,0,1026.3,77,0,-1,19.6,15.4,29660,161,4,3
2019,8,28,07:10,UTC,0,1026.3,78,0,-1,19.3,15.4,34220,158,4.3,3.1
2019,8,28,07:20,UTC,0,1026.3,79,0,-1,19.4,15.7,41690,154,4.2,3
2019,8,28,07:30,UTC,0,1026.3,77,0,-1,19.6,15.5,35690,157,3.7,2.6
2019,8,28,07:40,UTC,0,1026.4,77,0,-1,19.9,15.8,38000,155,3.3,2.1
2019,8,28,07:50,UTC,0,1026.4,77,0,-1,19.9,15.8,40210,124,3.2,2.3
2019,8,28,08:00,UTC,0,1026.4,76,0,-1,20,15.7,29270,122,3.4,2.5
2019,8,28,08:10,UTC,0,1026.3,77,0,-1,19.7,15.5,34150,128,3.4,2.5
2019,8,28,08:20,UTC,0,1026.2,76,0,-1,20,15.7,33470,125,4,3
2019,8,28,08:30,UTC,0,1026.2,75,0,-1,20.3,15.7,34150,123,3.9,3.2
2019,8,28,08:40,UTC,0,1026.2,74,0,-1,20.5,15.7,35450,120,4.4,3.2
2019,8,28,08:50,UTC,0,1026.1,73,0,-1,20.5,15.6,29790,117,4.1,3.2
2019,8,28,09:00,UTC,0,1026.1,74,0,-1,20.2,15.4,28400,125,4.2,3.2
2019,8,28,09:10,UTC,0,1026.1,72,0,-1,20.9,15.6,31900,123,3.8,3.2
2019,8,28,09:20,UTC,0,1026,72,0,-1,21.1,15.8,31780,120,4.4,3.4
2019,8,28,09:30,UTC,0,1026,72,0,-1,20.7,15.4,34640,124,4.3,3.3
2019,8,28,09:40,UTC,0,1026,69,0,-1,21,15,34980,119,4,3
2019,8,28,09:50,UTC,0,1026,68,0,-1,21.6,15.3,33840,133,3.8,2.5
2019,8,28,10:00,UTC,0,1025.9,66,0,-1,21.8,15.1,31790,137,3.7,2.3
2019,8,28,10:10,UTC,0,1025.8,66,0,-1,21.8,15.2,34240,122,4.2,3
2019,8,28,10:20,UTC,0,1025.7,66,0,-1,22.1,15.6,35940,122,4.1,2.8
2019,8,28,10:30,UTC,0,1025.6,64,0,-1,22.2,15,31560,134,3.4,2.6
2019,8,28,10:40,UTC,0,1025.6,66,0,-1,22,15.2,28830,126,4,3
2019,8,28,10:50,UTC,0,1025.6,64,0,-1,22.2,15,33380,125,4.3,3
2019,8,28,11:00,UTC,0,1025.7,62,0,-1,22.4,14.7,31610,135,3.9,3
2019,8,28,11:10,UTC,0,1025.7,65,0,-1,22.7,15.8,31040,123,4.2,3
2019,8,28,11:20,UTC,0,1025.6,65,0,-1,22.7,15.7,33470,120,3.9,2.8
2019,8,28,11:30,UTC,0,1025.5,65,0,-1,22.9,15.9,31710,138,4.2,2.7
2019,8,28,11:40,UTC,0,1025.4,65,0,-1,22.9,15.8,33050,143,4.6,2.6
2019,8,28,11:50,UTC,0,1025.4,65,0,-1,22.8,15.9,35740,137,4,2.5
2019,8,28,12:00,UTC,0,1025.3,64,0,-1,22.8,15.7,29320,130,4.3,2.9
2019,8,28,12:10,UTC,0,1025.2,64,0,-1,23,15.8,40390,142,5.1,2.6
2019,8,28,12:20,UTC,0,1025.2,64,0,-1,23.1,15.8,36330,138,4.1,2.8
2019,8,28,12:30,UTC,0,1025.2,65,0,-1,22.7,15.7,40250,135,3.9,2.3
2019,8,28,12:40,UTC,0,1025.1,65,0,-1,22.5,15.7,44130,141,4.1,2.8
2019,8,28,12:50,UTC,0,1025.1,65,0,-1,22.7,15.8,37150,150,3.8,2.3
2019,8,28,13:00,UTC,0,1025,66,0,-1,22.8,16.1,37770,138,4.3,3
2019,8,28,13:10,UTC,0,1024.9,65,0,-1,23,16,42180,142,4.7,2.7
2019,8,28,13:20,UTC,0,1024.8,65,0,-1,22.9,15.9,42550,141,4.1,2.5
2019,8,28,13:30,UTC,0,1024.8,66,0,-1,22.8,16.1,36910,140,3.7,2.1
2019,8,28,13:40,UTC,0,1024.6,67,0,-1,22.7,16.2,38590,123,4.3,3.1
2019,8,28,13:50,UTC,0,1024.7,68,0,-1,22.4,16.2,45940,115,4.8,3.8
2019,8,28,14:00,UTC,0,1024.7,68,0,-1,22.2,15.9,47070,116,4.6,3.6
2019,8,28,14:10,UTC,0,1024.6,68,0,-1,21.9,15.8,46850,117,4.3,3.4
2019,8,28,14:20,UTC,0,1024.6,68,0,-1,21.7,15.7,44570,115,4.3,3.4
2019,8,28,14:30,UTC,0,1024.5,71,0,-1,21.7,16.1,46960,113,4.3,3
2019,8,28,14:40,UTC,0,1024.5,71,0,-1,21.6,16.2,47640,116,4.7,3.4
2019,8,28,14:50,UTC,0,1024.4,71,0,-1,21.4,16,47420,121,4.9,3.9
2019,8,28,15:00,UTC,0,1024.3,70,0,-1,21.5,15.8,46590,122,4.9,3.8
2019,8,28,15:10,UTC,0,1024.2,68,0,-1,21.6,15.6,44320,116,5.1,3.7
2019,8,28,15:20,UTC,0,1024.2,69,0,-1,21.6,15.6,47550,123,5.1,3.6
2019,8,28,15:30,UTC,0,1024.1,67,0,-1,21.6,15.2,47870,124,5.8,4
2019,8,28,15:40,UTC,0,1024,68,0,-1,21.4,15.3,47180,122,5.8,4.3
2019,8,28,15:50,UTC,0,1023.9,68,0,-1,21.4,15.3,50000,119,6,4.3
2019,8,28,16:00,UTC,0,1023.8,68,0,-1,21.4,15.3,46070,121,4.8,3.7
2019,8,28,16:10,UTC,0,1023.7,71,0,-1,21.3,16,50000,112,4,2.8
2019,8,28,16:20,UTC,0,1023.7,72,0,-1,21.2,15.9,47330,109,3.8,2.7
2019,8,28,16:30,UTC,0,1023.6,71,0,-1,21.2,15.8,50000,105,3.3,2.6
2019,8,28,16:40,UTC,0,1023.5,71,0,-1,21,15.5,44810,105,4.2,2.8
2019,8,28,16:50,UTC,0,1023.5,72,0,-1,20.7,15.5,47490,106,3.8,2.7
2019,8,28,17:00,UTC,0,1023.5,74,0,-1,20.5,15.6,50000,104,3.9,2.7
2019,8,28,17:10,UTC,0,1023.4,76,0,-1,20.2,15.8,47410,99,3.5,2.6
2019,8,28,17:20,UTC,0,1023.4,77,0,-1,19.9,15.8,45960,103,3.5,2.4
2019,8,28,17:30,UTC,0,1023.4,77,0,-1,19.8,15.8,48250,102,4.1,2.7
2019,8,28,17:40,UTC,0,1023.3,79,0,-1,19.5,15.8,43840,101,3.6,2.7
2019,8,28,17:50,UTC,0,1023.3,81,0,-1,19.2,15.8,48860,101,3.3,2.3
2019,8,28,18:00,UTC,0,1023.2,83,0,-1,19,15.9,48700,102,3.8,2.5
2019,8,28,18:10,UTC,0,1023.2,83,0,-1,19,16,50000,99,3.9,2.4
2019,8,28,18:20,UTC,0,1023.2,84,0,-1,18.8,16,46000,103,3.2,2.3
2019,8,28,18:30,UTC,0,1023.1,84,0,-1,18.9,16.1,48310,103,3.4,2.2
2019,8,28,18:40,UTC,0,1023.1,85,0,-1,18.3,15.8,43420,102,3.5,2.2
2019,8,28,18:50,UTC,0,1023.1,88,0,-1,18,15.9,43630,102,3.6,2
2019,8,28,19:00,UTC,0,1023,88,0,-1,18,16.1,46700,105,3.3,2.2
2019,8,28,19:10,UTC,0,1022.9,87,0,-1,18.5,16.3,44680,105,3.8,2.7
2019,8,28,19:20,UTC,0,1022.9,88,0,-1,18.1,16.2,44300,104,4,2.5
2019,8,28,19:30,UTC,0,1022.8,88,0,-1,18.4,16.4,37160,98,3,2.1
2019,8,28,19:40,UTC,0,1022.8,89,0,-1,18.4,16.5,35600,94,3.1,2.1
2019,8,28,19:50,UTC,0,1022.8,89,0,-1,18.3,16.5,39830,91,3.3,2.4
2019,8,28,20:00,UTC,0,1022.8,88,0,-1,18.3,16.3,43080,104,2.7,1.7
2019,8,28,20:10,UTC,0,1022.9,90,0,-1,18.2,16.5,41220,110,3.3,1.9
2019,8,28,20:20,UTC,0,1022.9,89,0,-1,18.1,16.3,37170,101,2.8,1.8
2019,8,28,20:30,UTC,0,1022.9,91,0,-1,17.6,16.1,41290,110,3.3,2.3
2019,8,28,20:40,UTC,0,1022.9,90,0,-1,18.2,16.5,41250,119,4.2,2.8
2019,8,28,20:50,UTC,0,1023,85,0,-1,18.9,16.3,46350,146,6.1,3.3
2019,8,28,21:00,UTC,0,1023,83,0,-1,19.2,16.2,45530,156,6,3.5
2019,8,28,21:10,UTC,0,1023,80,0,-1,19.6,16,30690,167,6.2,3.5
2019,8,28,21:20,UTC,0,1023,79,0,-1,19.7,15.9,45630,170,8,4.4
2019,8,28,21:30,UTC,0,1023.1,78,0,-1,19.7,15.8,41570,173,7.6,4.6
2019,8,28,21:40,UTC,0,1023.2,81,0,-1,19.3,15.9,45340,170,7.7,4.6
2019,8,28,21:50,UTC,0,1023.2,82,0,-1,19.3,16,44210,168,7.1,4.1
2019,8,28,22:00,UTC,0,1023.1,82,0,-1,19,15.9,45930,172,6.7,4
2019,8,28,22:10,UTC,0,1023.1,81,0,-1,19.2,15.8,41700,174,7.4,4.3
2019,8,28,22:20,UTC,0,1023.2,81,0,-1,19.1,15.7,45740,180,7,4.5
2019,8,28,22:30,UTC,0,1023.1,82,0,-1,18.8,15.6,47120,181,6.3,3.9
2019,8,28,22:40,UTC,0,1023.1,82,0,-1,18.8,15.6,41430,178,7.3,4.1
2019,8,28,22:50,UTC,0,1023.1,82,0,-1,18.8,15.6,47980,179,7,3.4
2019,8,28,23:00,UTC,0,1023,82,0,-1,18.7,15.5,47530,181,6,3.8
2019,8,28,23:10,UTC,0,1023,82,0,-1,18.6,15.4,42350,180,6.4,3.7
2019,8,28,23:20,UTC,0,1023.1,82,0,-1,18.5,15.3,45370,181,7.8,3.6
2019,8,28,23:30,UTC,0,1023,82,0,-1,18.4,15.4,42720,182,7,3.9
2019,8,28,23:40,UTC,0,1022.9,83,0,-1,18.3,15.3,48110,177,6.2,3.8
2019,8,28,23:50,UTC,0,1022.8,84,0,-1,18.2,15.4,44000,176,6,3.6
2019,8,29,00:00,UTC,0,1022.8,83,0,-1,18.2,15.3,45220,174,6.8,3.9
2019,8,29,00:10,UTC,0,1022.7,84,0,-1,18.1,15.3,43790,172,5.8,3.8
2019,8,29,00:20,UTC,0,1022.7,83,0,-1,18.1,15.2,41340,172,6.4,3.7
2019,8,29,00:30,UTC,0,1022.6,84,0,-1,17.9,15.1,47990,173,5.8,3.6
2019,8,29,00:40,UTC,0,1022.6,85,0,-1,17.7,15.1,44640,167,5.8,3.2
2019,8,29,00:50,UTC,0,1022.6,85,0,-1,17.7,15.2,48710,164,5.1,2.6
2019,8,29,01:00,UTC,0,1022.6,86,0,-1,17.6,15.3,48480,162,4.7,2.5
2019,8,29,01:10,UTC,0,1022.4,86,0,-1,17.6,15.3,44970,156,4,2.6
2019,8,29,01:20,UTC,0,1022.5,87,0,-1,17.5,15.3,45410,149,3.6,2.4
2019,8,29,01:30,UTC,0,1022.5,88,0,-1,17.3,15.3,47740,147,3.9,2.4
2019,8,29,01:40,UTC,0,1022.4,88,0,-1,17.2,15.2,42610,141,3.6,2.3
2019,8,29,01:50,UTC,0,1022.4,88,0,-1,17.1,15.1,46870,151,4.1,2.8
2019,8,29,02:00,UTC,0,1022.3,88,0,-1,17.2,15.1,49390,155,3.5,2.3
2019,8,29,02:10,UTC,0,1022.3,87,0,-1,17.1,14.9,46950,150,4.1,2.5
2019,8,29,02:20,UTC,0,1022.2,86,0,-1,17.1,14.9,50000,162,4.6,2.9
2019,8,29,02:30,UTC,0,1022.2,87,0,-1,17.1,14.9,48900,152,3.8,2.5
2019,8,29,02:40,UTC,0,1022.1,87,0,-1,17.1,15,50000,131,3.1,2.1
2019,8,29,02:50,UTC,0,1022.1,88,0,-1,16.9,15,43090,134,4.1,2.6
2019,8,29,03:00,UTC,0,1022.1,88,0,-1,16.9,14.9,45670,156,4.2,2.2
2019,8,29,03:10,UTC,0,1022,87,0,-1,17,14.8,50000,155,3.9,2.5
2019,8,29,03:20,UTC,0,1021.9,87,0,-1,16.9,14.7,50000,150,3.2,1.8
2019,8,29,03:30,UTC,0,1021.9,87,0,-1,17,14.9,50000,139,4.3,2.5
2019,8,29,03:40,UTC,0,1021.9,88,0,-1,17,15,44780,140,3.1,2
2019,8,29,03:50,UTC,0,1021.9,87,0,-1,17.1,14.9,46680,134,3.2,2
2019,8,29,04:00,UTC,0,1021.9,85,0,-1,17.3,14.8,48570,132,4.7,3.2
2019,8,29,04:10,UTC,0,1021.9,84,0,-1,17.3,14.6,50000,132,5.1,2.9
2019,8,29,04:20,UTC,0,1021.8,84,0,-1,17.3,14.5,46000,133,5,2.9
2019,8,29,04:30,UTC,0,1021.8,83,0,-1,17.4,14.5,46580,133,4.9,3
2019,8,29,04:40,UTC,0,1021.8,82,0,-1,17.7,14.5,42070,123,4,2.4
2019,8,29,04:50,UTC,0,1021.7,79,0,-1,18.4,14.7,44940,122,3.9,2.6
2019,8,29,05:00,UTC,0,1021.7,77,0,-1,18.5,14.5,45240,116,4,2.7
2019,8,29,05:10,UTC,0,1021.7,77,0,-1,18.8,14.6,47210,132,4.8,2.7
2019,8,29,05:20,UTC,0,1021.5,77,0,-1,18.9,14.7,46170,133,4.8,3.3
2019,8,29,05:30,UTC,0,1021.4,77,0,-1,18.9,14.7,49800,129,5.6,3.3
2019,8,29,05:40,UTC,0,1021.4,75,0,-1,19,14.5,50000,143,6.2,3.2
2019,8,29,05:50,UTC,0,1021.4,75,0,-1,19.3,14.8,50000,143,5.1,3.3
2019,8,29,06:00,UTC,0,1021.3,74,0,-1,19.5,14.7,47380,128,4.5,2.8
2019,8,29,06:10,UTC,0,1021.3,73,0,-1,19.4,14.4,45830,131,5.1,2.5
2019,8,29,06:20,UTC,0,1021.2,74,0,-1,19.2,14.4,50000,135,5.6,3.1
2019,8,29,06:30,UTC,0,1021.2,73,0,-1,19.4,14.4,45250,142,5.2,3.5
2019,8,29,06:40,UTC,0,1021.2,75,0,-1,19.2,14.6,40280,143,5.7,4
2019,8,29,06:50,UTC,0,1021.1,74,0,-1,19.3,14.6,43640,151,6.3,3.7
2019,8,29,07:00,UTC,0,1021.1,74,0,-1,19,14.4,50000,149,5.9,4.2
2019,8,29,07:10,UTC,0,1021,75,0,-1,19.1,14.5,43160,148,6.1,4
2019,8,29,07:20,UTC,0,1020.8,74,0,-1,19.4,14.7,39900,147,6.6,4.3
2019,8,29,07:30,UTC,0,1020.8,73,0,-1,19.4,14.4,40030,123,5.9,4
2019,8,29,07:40,UTC,0,1020.8,73,0,-1,19.6,14.7,48140,119,5.8,4
2019,8,29,07:50,UTC,0,1020.7,72,0,-1,19.7,14.4,38100,117,5,3.5
2019,8,29,08:00,UTC,0,1020.5,72,0,-1,20,14.7,39180,124,6,4.1
2019,8,29,08:10,UTC,0,1020.5,73,0,-1,19.7,14.7,40060,120,6.6,4.4
2019,8,29,08:20,UTC,0,1020.4,71,0,-1,20.1,14.6,42000,120,6.3,4.2
2019,8,29,08:30,UTC,0,1020.4,68,0,-1,20.7,14.6,44990,104,5.2,3.9
2019,8,29,08:40,UTC,0,1020.4,69,0,-1,20.3,14.5,48080,103,6,3.9
2019,8,29,08:50,UTC,0,1020.3,69,0,-1,20.2,14.4,37270,110,7.1,5.5
2019,8,29,09:00,UTC,0,1020.3,71,0,-1,20.5,15,37340,112,7,4.4
2019,8,29,09:10,UTC,0,1020.3,68,0,-1,20.5,14.4,48430,113,7.2,5.2
2019,8,29,09:20,UTC,0,1020.4,67,0,-1,20.8,14.5,41920,111,7.2,5.3
2019,8,29,09:30,UTC,0,1020.3,68,0,-1,20.8,14.8,44700,109,7.5,5.9
2019,8,29,09:40,UTC,0,1020.3,71,0,-1,20.9,15.5,47660,113,7.5,5.4
2019,8,29,09:50,UTC,0,1020.3,70,0,-1,20.9,15.3,41410,113,7.3,5.6
2019,8,29,10:00,UTC,0,1020.3,68,0,-1,21,15,41010,108,6.5,5.2
2019,8,29,10:10,UTC,0,1020.3,70,0,-1,20.9,15.2,41360,112,7.3,5.3
2019,8,29,10:20,UTC,0,1020.3,71,0,-1,21,15.4,36940,113,7.2,5.3
2019,8,29,10:30,UTC,0,1020.2,69,0,-1,21.4,15.5,46650,113,7.8,5.8
2019,8,29,10:40,UTC,0,1020,68,0,-1,21.5,15.4,42130,110,7.7,6
2019,8,29,10:50,UTC,0,1020,66,0,-1,21.9,15.4,36750,113,7.1,5.4
2019,8,29,11:00,UTC,0,1020,66,0,-1,21.8,15.1,46150,111,7.5,5.5
2019,8,29,11:10,UTC,0,1020,65,0,-1,21.9,15,39080,109,7.1,5.1
2019,8,29,11:20,UTC,0,1019.8,66,0,-1,22.2,15.4,34120,112,7.4,5.9
2019,8,29,11:30,UTC,0,1019.7,67,0,-1,22,15.4,38140,112,7.6,5.4
2019,8,29,11:40,UTC,0,1019.7,68,0,-1,21.9,15.8,36050,113,7.7,5.4
2019,8,29,11:50,UTC,0,1019.6,68,0,-1,22,15.9,33160,114,7.3,5.5
2019,8,29,12:00,UTC,0,1019.6,68,0,-1,22,15.9,30830,114,7.5,6
2019,8,29,12:10,UTC,0,1019.5,68,0,-1,21.9,15.8,40840,114,7.9,5.7
2019,8,29,12:20,UTC,0,1019.4,68,0,-1,21.9,15.8,34910,115,7.4,5.6
2019,8,29,12:30,UTC,0,1019.3,70,0,-1,21.8,15.9,36230,113,7.7,5.9
2019,8,29,12:40,UTC,0,1019.3,70,0,-1,21.6,16,48330,114,7.3,6
2019,8,29,12:50,UTC,0,1019.2,71,0,-1,21.7,16.3,43310,116,7.1,5.7
2019,8,29,13:00,UTC,0,1019.2,70,0,-1,21.7,16,41740,116,7.3,5.5
2019,8,29,13:10,UTC,0,1019.2,69,0,-1,21.7,15.9,41240,117,6.8,5.1
2019,8,29,13:20,UTC,0,1019.1,68,0,-1,21.9,15.8,44660,118,6.7,5
2019,8,29,13:30,UTC,0,1019,68,0,-1,21.9,15.8,43300,118,6.8,5.1
2019,8,29,13:40,UTC,0,1018.8,69,0,-1,21.8,15.9,46830,121,6.2,4.6
2019,8,29,13:50,UTC,0,1018.7,68,0,-1,21.9,15.8,44260,120,6.9,4.8
2019,8,29,14:00,UTC,0,1018.6,68,0,-1,21.9,15.8,46940,117,6.3,4
2019,8,29,14:10,UTC,0,1018.5,67,0,-1,21.9,15.6,50000,119,5.9,4.4
2019,8,29,14:20,UTC,0,1018.4,68,0,-1,21.8,15.7,47080,118,6.9,5.3
2019,8,29,14:30,UTC,0,1018.4,68,0,-1,22,15.8,46050,116,6.9,5.5
2019,8,29,14:40,UTC,0,1018.2,68,0,-1,21.8,15.6,44030,116,6.8,4.9
2019,8,29,14:50,UTC,0,1018.1,68,0,-1,21.9,15.8,46480,115,6.3,4.5
2019,8,29,15:00,UTC,0,1018.1,69,0,-1,21.8,15.9,41010,116,6,3.9
2019,8,29,15:10,UTC,0,1018,70,0,-1,21.7,16.1,44870,115,5.7,4.2
2019,8,29,15:20,UTC,0,1018,71,0,-1,21.5,16,49000,113,5.8,4.3
2019,8,29,15:30,UTC,1,1018,72,0,-1,21.5,16.2,47910,111,5.6,4.2
2019,8,29,15:40,UTC,3,1017.9,72,0,-1,21.3,16,45390,111,5.1,3.8
2019,8,29,15:50,UTC,5,1018,74,0,-1,21,16.3,47990,111,4.6,3.5
2019,8,29,16:00,UTC,7,1018,75,0,-1,20.9,16.3,43070,112,4.6,3.3
2019,8,29,16:10,UTC,7,1017.9,76,0,-1,20.6,16.2,50000,114,4.7,3.7
2019,8,29,16:20,UTC,5,1017.8,77,0,-1,20.3,16.2,49020,108,5.4,3.8
2019,8,29,16:30,UTC,3,1017.7,80,0,-1,20.1,16.5,40140,111,4.5,3.3
2019,8,29,16:40,UTC,3,1017.6,80,0,-1,20,16.5,49660,112,5.4,3.6
2019,8,29,16:50,UTC,1,1017.5,81,0,-1,20,16.5,47150,115,4.4,3.5
2019,8,29,17:00,UTC,1,1017.4,80,0,-1,20,16.4,47630,113,4.6,3.8
2019,8,29,17:10,UTC,0,1017.4,81,0,-1,19.9,16.4,44500,116,4.4,3.4
2019,8,29,17:20,UTC,0,1017.3,82,0,-1,19.6,16.4,48690,116,4,3.2
2019,8,29,17:30,UTC,0,1017.3,82,0,-1,19.5,16.4,43850,116,4.1,3.3
2019,8,29,17:40,UTC,0,1017.2,83,0,-1,19.5,16.5,39030,115,4.7,3.7
2019,8,29,17:50,UTC,3,1017.3,82,0,-1,19.6,16.4,41630,117,4.5,3.5
2019,8,29,18:00,UTC,3,1017.3,81,0,-1,19.6,16.4,47980,118,5.1,3.6
2019,8,29,18:10,UTC,1,1017.2,82,0,-1,19.6,16.4,46090,114,5.8,4
2019,8,29,18:20,UTC,1,1017.1,81,0,-1,19.6,16.3,49080,114,5.1,3.5
2019,8,29,18:30,UTC,0,1017.1,80,0,-1,19.7,16.1,43100,116,4,2.6
2019,8,29,18:40,UTC,0,1017,79,0,-1,19.8,16,50000,120,4.2,2.8
2019,8,29,18:50,UTC,0,1017,79,0,-1,19.8,16,50000,130,5,3.2
2019,8,29,19:00,UTC,0,1016.9,79,0,-1,19.7,15.9,50000,131,5,3.3
2019,8,29,19:10,UTC,0,1016.9,79,0,-1,19.8,16,43720,128,5.4,3.2
2019,8,29,19:20,UTC,0,1016.8,79,0,-1,19.8,16,40270,124,4.9,3.2
2019,8,29,19:30,UTC,0,1016.7,80,0,-1,19.7,16,47060,126,5.9,3.3
2019,8,29,19:40,UTC,1,1016.7,80,0,-1,19.6,16,47140,128,5.9,3.6
2019,8,29,19:50,UTC,1,1016.6,80,0,-1,19.6,16.1,46280,126,5.9,3.5
2019,8,29,20:00,UTC,1,1016.6,80,0,-1,19.5,16,45140,128,6.4,3.8
2019,8,29,20:10,UTC,1,1016.5,79,0,-1,19.6,15.8,44610,130,6.2,4.1
2019,8,29,20:20,UTC,1,1016.5,80,0,-1,19.5,15.8,49760,131,5.5,3.6
2019,8,29,20:30,UTC,0,1016.5,79,0,-1,19.6,15.8,50000,129,5.3,3.6
2019,8,29,20:40,UTC,1,1016.4,78,0,-1,19.7,15.8,49310,130,5.9,4
2019,8,29,20:50,UTC,1,1016.2,78,0,-1,19.6,15.7,48070,130,6.1,3.9
2019,8,29,21:00,UTC,5,1016.2,80,0,-1,19.5,15.9,44480,126,6.1,3.5
2019,8,29,21:10,UTC,5,1016.2,80,0,-1,19.4,15.9,39670,134,6.6,4
2019,8,29,21:20,UTC,7,1016.2,80,0,-1,19.4,15.9,41800,128,5.9,3.9
2019,8,29,21:30,UTC,8,1016.1,81,0,-1,19.2,15.8,49210,134,6.5,3.6
2019,8,29,21:40,UTC,8,1016,80,0,-1,19.2,15.7,42250,134,5.2,3.5
2019,8,29,21:50,UTC,7,1016,79,0,-1,19.3,15.6,47080,136,5.7,3.4
2019,8,29,22:00,UTC,7,1016,78,0,-1,19.3,15.5,45160,141,6.1,3.4
2019,8,29,22:10,UTC,8,1015.9,79,0,-1,19.4,15.6,41300,149,7.2,4.1
2019,8,29,22:20,UTC,7,1015.9,80,0,-1,19.2,15.6,48050,153,6.4,3.6
2019,8,29,22:30,UTC,7,1016,81,0,-1,19.2,15.8,45870,151,5.6,3.3
2019,8,29,22:40,UTC,7,1015.9,82,0,-1,19.2,15.9,47180,151,5.8,3.5
2019,8,29,22:50,UTC,7,1015.9,82,0,-1,19.1,16,43300,156,5.9,3.3
2019,8,29,23:00,UTC,7,1015.9,82,0,-1,19.1,16.1,43690,160,5.4,3.8
2019,8,29,23:10,UTC,7,1015.8,83,0,-1,19.1,16.1,41190,159,6.7,4.1
2019,8,29,23:20,UTC,7,1015.7,83,0,-1,19.1,16.1,44950,160,6.8,4.7
2019,8,29,23:30,UTC,7,1015.7,83,0,-1,19.1,16.1,43900,159,6.8,4.4
2019,8,29,23:40,UTC,8,1015.6,82,0,-1,19.1,16,42850,158,6.4,4.3
2019,8,29,23:50,UTC,7,1015.5,83,0,-1,19.1,16.1,47740,159,6,4.2
2019,8,30,00:00,UTC,7,1015.5,82,0,-1,19.1,16,45340,163,6.3,4.2
2019,8,30,00:10,UTC,7,1015.5,81,0,-1,19.3,16,45060,168,5.7,3.9
2019,8,30,00:20,UTC,7,1015.5,81,0,-1,19.3,15.9,41950,171,6.4,3.8
2019,8,30,00:30,UTC,7,1015.6,81,0,-1,19.2,15.9,43210,174,6.5,4
2019,8,30,00:40,UTC,8,1015.5,80,0,-1,19.3,15.8,40460,179,6.9,3.7
2019,8,30,00:50,UTC,7,1015.6,80,0,-1,19.3,15.8,49390,182,6.4,3.4
2019,8,30,01:00,UTC,7,1015.5,81,0,-1,19.3,16,49230,181,4.9,3.2
2019,8,30,01:10,UTC,7,1015.4,81,0,-1,19.2,15.9,42210,174,7.3,3.8
2019,8,30,01:20,UTC,7,1015.3,82,0,-1,19.1,15.9,43650,172,4.9,3.2
2019,8,30,01:30,UTC,7,1015.2,82,0,-1,19.1,15.9,38740,174,5.8,3.6
2019,8,30,01:40,UTC,7,1015.3,84,0,-1,19,16.2,25020,176,5.2,3.3
2019,8,30,01:50,UTC,7,1015.3,89,1,-1,18.5,16.6,8600,173,5.8,3.5
2019,8,30,02:00,UTC,7,1015.3,91,1,-1,18.2,16.7,12910,174,5.6,3.2
2019,8,30,02:10,UTC,7,1015.3,92,2.5,-1,18,16.8,3860,180,6.1,3.8
2019,8,30,02:20,UTC,7,1015.2,94,3.8,-1,17.9,16.8,3730,177,5.8,3.7
2019,8,30,02:30,UTC,7,1015.3,94,4.3,-1,17.8,16.9,3260,169,6.1,3.6
2019,8,30,02:40,UTC,7,1015.3,95,4.3,-1,17.7,17,5050,175,5.4,3.3
2019,8,30,02:50,UTC,7,1015.2,95,2.6,-1,17.7,17,7790,171,6.2,3.8
2019,8,30,03:00,UTC,7,1015.2,96,0.7,-1,17.7,17,9260,165,5.2,3.5
2019,8,30,03:10,UTC,7,1015.3,96,0.6,-1,17.7,17,11910,163,5.2,3.4
2019,8,30,03:20,UTC,7,1015.3,96,0,-1,17.7,17.1,15870,159,5.7,3.4
2019,8,30,03:30,UTC,7,1015.3,96,0,-1,17.8,17.1,15420,159,4.8,2.7
2019,8,30,03:40,UTC,7,1015.3,96,0,-1,17.8,17.1,15980,158,5,3.1
2019,8,30,03:50,UTC,7,1015.2,96,0,-1,17.8,17.1,17730,162,5,3.1
2019,8,30,04:00,UTC,7,1015.2,96,0,-1,17.8,17.1,16740,157,4.4,3
2019,8,30,04:10,UTC,8,1015.2,96,0,-1,17.8,17.1,15530,157,4.9,3.1
2019,8,30,04:20,UTC,8,1015.3,96,0,-1,17.8,17.1,14070,162,4.5,3.1
2019,8,30,04:30,UTC,8,1015.3,96,0,-1,17.9,17.2,14280,164,4.7,3
2019,8,30,04:40,UTC,8,1015.3,95,0,-1,18,17.2,17900,164,6.1,3.5
2019,8,30,04:50,UTC,8,1015.3,95,0,-1,17.9,17.1,14790,168,5.3,3
2019,8,30,05:00,UTC,7,1015.3,95,0,-1,18,17.2,17380,177,4.5,2.8
2019,8,30,05:10,UTC,8,1015.3,95,0,-1,18.1,17.2,16380,178,5,3.2
2019,8,30,05:20,UTC,7,1015.3,94,0,-1,18.1,17.2,15050,187,5.6,2.6
2019,8,30,05:30,UTC,7,1015.3,95,0,-1,18.1,17.3,16080,184,6.1,3.4
2019,8,30,05:40,UTC,8,1015.4,94,0,-1,18.3,17.2,17720,189,5.9,2.9
2019,8,30,05:50,UTC,8,1015.4,93,0,-1,18.4,17.3,16800,206,6.4,3.8
2019,8,30,06:00,UTC,7,1015.5,92,0,-1,18.6,17.3,15210,209,5,3.5
2019,8,30,06:10,UTC,8,1015.6,92,0,-1,18.6,17.3,17340,206,5.1,3.3
2019,8,30,06:20,UTC,8,1015.6,92,0,-1,18.6,17.3,16900,208,5.8,3.7
2019,8,30,06:30,UTC,8,1015.8,92,0,-1,18.8,17.5,16210,209,5.2,3.6
2019,8,30,06:40,UTC,8,1015.9,93,0,-1,18.7,17.5,10950,223,5.9,3.4
2019,8,30,06:50,UTC,7,1015.9,94,0,-1,18.6,17.7,6310,216,6.1,3.5
2019,8,30,07:00,UTC,7,1015.8,95,0,-1,18.7,17.9,7330,219,4.8,2.5
2019,8,30,07:10,UTC,8,1015.9,95,0,-1,18.8,17.9,8800,215,3.5,2
2019,8,30,07:20,UTC,8,1015.9,94,0,-1,18.8,17.9,9060,204,4.4,2.7
2019,8,30,07:30,UTC,8,1016.2,94,0,-1,18.8,17.8,9020,207,4.4,3
2019,8,30,07:40,UTC,7,1016.2,95,0,-1,18.8,17.9,7590,217,4.8,3
2019,8,30,07:50,UTC,8,1016.3,94,0,-1,18.8,17.9,6550,224,4.3,3
2019,8,30,08:00,UTC,7,1016.4,95,0,-1,18.8,18,5140,225,4,2.1
2019,8,30,08:10,UTC,7,1016.4,95,0,-1,19.1,18.3,6200,213,4,2.5
2019,8,30,08:20,UTC,7,1016.5,94,0,-1,19.2,18.2,6930,213,3.4,2.1
2019,8,30,08:30,UTC,7,1016.6,93,0,-1,19.4,18.3,7600,219,4.6,2.6
2019,8,30,08:40,UTC,7,1016.6,92,0,-1,19.4,18.1,7580,219,3.8,2.4
2019,8,30,08:50,UTC,7,1016.7,93,0,-1,19.3,18.1,7610,223,3.9,2.5
2019,8,30,09:00,UTC,7,1016.8,92,0,-1,19.4,18.1,8200,225,3.5,2.4
2019,8,30,09:10,UTC,7,1016.7,92,0,-1,19.6,18.2,8580,227,3.3,2.2
2019,8,30,09:20,UTC,7,1016.7,91,0,-1,19.8,18.3,8650,215,3.5,2.4
2019,8,30,09:30,UTC,7,1016.9,90,0,-1,20,18.3,9220,218,4.1,2.5
2019,8,30,09:40,UTC,7,1016.9,90,0,-1,19.9,18.2,8700,225,5.5,3.4
2019,8,30,09:50,UTC,7,1016.9,90,0,-1,19.9,18.2,9050,229,4,2.6
2019,8,30,10:00,UTC,7,1017,90,0,-1,19.7,18,8910,216,4.9,3.2
2019,8,30,10:10,UTC,7,1017,88,0,-1,20.1,18.1,9240,224,4.6,2.5
2019,8,30,10:20,UTC,7,1017,89,0,-1,20.2,18.2,9290,223,4.5,2.7
2019,8,30,10:30,UTC,7,1017.1,87,0,-1,20.3,18.1,9540,228,4,2.6
2019,8,30,10:40,UTC,7,1017.1,89,0,-1,20.1,18.2,8870,226,4.7,2.5
2019,8,30,10:50,UTC,7,1017.1,89,0,-1,19.9,18.1,8330,214,5.6,3.9
2019,8,30,11:00,UTC,7,1017.2,88,0,-1,20.1,18.1,9020,219,4.9,3.8
2019,8,30,11:10,UTC,8,1017.2,87,0,-1,20.2,18,9110,219,5,2.8
2019,8,30,11:20,UTC,8,1017.2,86,0,-1,20.6,18.2,10040,212,5.2,3.5
2019,8,30,11:30,UTC,7,1017.1,86,0,-1,21,18.7,10550,219,5.4,3.7
2019,8,30,11:40,UTC,7,1017.3,88,0,-1,20.6,18.5,9700,219,4.7,3.1
2019,8,30,11:50,UTC,8,1017.2,86,0,-1,20.8,18.3,11250,216,4.9,3.9
2019,8,30,12:00,UTC,7,1017.3,85,0,-1,20.8,18.3,12320,206,4.1,2.4
2019,8,30,12:10,UTC,5,1017.3,84,0,-1,20.9,18,17190,219,5.6,3.7
2019,8,30,12:20,UTC,5,1017.3,84,0,-1,20.9,18,16350,218,5.2,3.5
2019,8,30,12:30,UTC,5,1017.4,85,0,-1,20.8,18.3,16920,213,5.4,3.7
2019,8,30,12:40,UTC,5,1017.5,83,0,-1,20.6,17.5,19220,217,5.5,3.9
2019,8,30,12:50,UTC,7,1017.4,83,0,-1,20.8,17.8,16150,216,5.9,4
2019,8,30,13:00,UTC,3,1017.5,81,0,-1,20.9,17.5,16990,215,6.1,4.3
2019,8,30,13:10,UTC,5,1017.6,82,0,-1,20.5,17.3,20230,216,7.4,5.4
2019,8,30,13:20,UTC,5,1017.6,81,0,-1,20.4,17.1,19640,217,7.3,5.3
2019,8,30,13:30,UTC,5,1017.6,82,0,-1,20.4,17.1,20620,217,6.9,4.8
2019,8,30,13:40,UTC,7,1017.5,79,0,-1,20.8,17,20430,216,7.7,5.8
2019,8,30,13:50,UTC,5,1017.6,80,0,-1,20.3,16.8,32780,219,7.6,6
2019,8,30,14:00,UTC,1,1017.6,81,0,-1,19.8,16.6,27320,221,7.6,5.3
2019,8,30,14:10,UTC,1,1017.6,81,0,-1,20.1,16.8,29780,220,6.5,3.9
2019,8,30,14:20,UTC,0,1017.5,80,0,-1,20.1,16.6,32200,220,6.5,4.3
2019,8,30,14:30,UTC,0,1017.6,80,0,-1,19.9,16.4,32580,221,6.5,4.7
2019,8,30,14:40,UTC,0,1017.6,82,0,-1,19.6,16.4,33390,218,8,5.1
2019,8,30,14:50,UTC,0,1017.7,81,0,-1,19.8,16.3,34710,220,7.5,5.3
2019,8,30,15:00,UTC,0,1017.7,80,0,-1,19.7,16.1,37250,221,8.3,5.1
2019,8,30,15:10,UTC,0,1017.6,79,0,-1,19.8,16.1,37630,225,6.3,3.7
2019,8,30,15:20,UTC,0,1017.6,79,0,-1,19.6,15.8,39890,222,5.2,3.4
2019,8,30,15:30,UTC,0,1017.7,80,0,-1,19.5,15.9,39350,222,6.4,3.8
2019,8,30,15:40,UTC,0,1017.8,80,0,-1,19.2,15.7,42160,222,6.4,4.1
2019,8,30,15:50,UTC,0,1017.7,81,0,-1,19.1,15.8,39920,230,5.6,3.1
2019,8,30,16:00,UTC,0,1017.7,80,0,-1,19.2,15.6,37770,237,5.1,2.8
2019,8,30,16:10,UTC,0,1017.7,80,0,-1,19,15.5,42240,237,5.1,2.7
2019,8,30,16:20,UTC,0,1017.7,82,0,-1,18.9,15.8,38330,241,4.3,2.4
2019,8,30,16:30,UTC,0,1017.8,82,0,-1,18.7,15.6,38370,236,6.9,3.3
2019,8,30,16:40,UTC,1,1017.8,83,0,-1,18.5,15.6,43220,234,6.4,3.5
2019,8,30,16:50,UTC,0,1017.9,83,0,-1,18.4,15.5,43010,240,6.3,3.7
2019,8,30,17:00,UTC,0,1018,84,0,-1,18.3,15.5,41660,246,4.8,3.4
2019,8,30,17:10,UTC,0,1018.1,84,0,-1,18.3,15.6,37960,254,5.7,3.6
2019,8,30,17:20,UTC,0,1018.2,83,0,-1,18.3,15.4,40260,257,5.5,3.7
2019,8,30,17:30,UTC,0,1018.2,84,0,-1,18.2,15.5,40090,261,6.2,4.3
2019,8,30,17:40,UTC,0,1018.2,84,0,-1,18.2,15.5,38870,260,5.4,3.6
2019,8,30,17:50,UTC,0,1018.3,85,0,-1,18.1,15.5,39120,259,5.4,3.5
2019,8,30,18:00,UTC,0,1018.4,85,0,-1,18.1,15.5,39920,257,5.2,3.5
2019,8,30,18:10,UTC,0,1018.3,85,0,-1,18,15.5,38420,255,5,3.2
2019,8,30,18:20,UTC,0,1018.4,85,0,-1,18,15.5,41540,249,4.4,3.2
2019,8,30,18:30,UTC,0,1018.5,86,0,-1,17.8,15.5,37210,256,4.6,3.3
2019,8,30,18:40,UTC,0,1018.7,87,0,-1,17.7,15.5,36360,260,4.6,2.9
2019,8,30,18:50,UTC,0,1018.8,87,0,-1,17.6,15.5,35680,254,4.3,2.7
2019,8,30,19:00,UTC,1,1018.7,87,0,-1,17.6,15.5,38420,257,4.5,2.8
2019,8,30,19:10,UTC,5,1018.7,87,0,-1,17.6,15.5,37180,260,4.8,3.2
2019,8,30,19:20,UTC,5,1018.7,87,0,-1,17.5,15.4,42950,261,5.6,3.5
2019,8,30,19:30,UTC,7,1018.8,88,0,-1,17.5,15.4,39910,259,6.1,3.9
2019,8,30,19:40,UTC,5,1018.8,87,0,-1,17.4,15.2,39150,262,7,4.3
2019,8,30,19:50,UTC,7,1018.9,87,0,-1,17.3,15.2,30150,264,5.5,4
2019,8,30,20:00,UTC,3,1018.8,88,0,-1,17.2,15.1,37090,268,6.6,3.8
2019,8,30,20:10,UTC,1,1018.9,87,0,-1,17.2,15.1,35280,275,5.8,3.7
2019,8,30,20:20,UTC,1,1019,88,0,-1,17.1,15.1,35150,279,5.1,3.2
2019,8,30,20:30,UTC,3,1018.9,88,0,-1,17,15.1,36700,273,4.6,2.9
2019,8,30,20:40,UTC,1,1019,89,0,-1,16.9,15,36190,273,4.8,2.9
2019,8,30,20:50,UTC,5,1019.1,89,0,-1,16.8,15,34650,273,3.7,2.7
2019,8,30,21:00,UTC,5,1019.2,90,0,-1,16.7,15,35760,267,4.4,3.1
2019,8,30,21:10,UTC,7,1019.1,90,0,-1,16.5,14.9,34890,275,4.8,3.5
2019,8,30,21:20,UTC,7,1019.3,90,0,-1,16.6,15,28080,286,4.2,2.7
2019,8,30,21:30,UTC,7,1019.4,90,0,-1,16.6,15,32140,278,4,2.6
2019,8,30,21:40,UTC,7,1019.5,90,0,-1,16.5,14.9,33810,274,4.6,3.2
2019,8,30,21:50,UTC,5,1019.6,91,0,-1,16.4,14.9,33220,279,4.8,3.2
2019,8,30,22:00,UTC,5,1019.6,91,0,-1,16.3,14.9,27700,276,5.2,3.2
2019,8,30,22:10,UTC,3,1019.7,92,0,-1,15.9,14.6,24760,273,4.5,2.7
2019,8,30,22:20,UTC,1,1019.7,93,0,-1,15.9,14.7,27740,270,4.6,3
2019,8,30,22:30,UTC,1,1019.7,94,0,-1,15.4,14.4,19780,271,4,2.5
2019,8,30,22:40,UTC,1,1019.7,95,0,-1,15.3,14.4,19160,274,3.8,2.5
2019,8,30,22:50,UTC,3,1019.7,95,0,-1,15.4,14.6,22220,269,3.9,2.4
2019,8,30,23:00,UTC,5,1019.7,95,0,-1,15.6,14.7,25230,276,3.7,2.2
2019,8,30,23:10,UTC,7,1019.5,95,0,-1,15.4,14.6,22860,272,3,1.9
2019,8,30,23:20,UTC,7,1019.6,95,0,-1,15.5,14.7,23020,249,2.1,1.4
2019,8,30,23:30,UTC,7,1019.6,92,0,-1,16.1,14.7,34120,258,3.3,1.9
2019,8,30,23:40,UTC,7,1019.6,92,0,-1,15.9,14.5,28010,245,3.3,2.2
2019,8,30,23:50,UTC,5,1019.6,92,0,-1,15.9,14.6,28360,243,2.5,1.8
2019,8,31,00:00,UTC,5,1019.6,92,0,-1,15.6,14.3,24320,246,2.8,2
2019,8,31,00:10,UTC,3,1019.7,93,0,-1,15.9,14.7,29550,247,3.6,2.3
2019,8,31,00:20,UTC,5,1019.8,91,0,-1,16.1,14.7,31450,256,3.8,2.3
2019,8,31,00:30,UTC,7,1019.8,92,0,-1,16.1,14.7,32930,263,4.5,2.7
2019,8,31,00:40,UTC,7,1019.7,93,0,-1,16,14.8,30410,261,3.2,1.7
2019,8,31,00:50,UTC,7,1019.8,92,0,-1,15.9,14.6,29630,262,3.3,1.7
2019,8,31,01:00,UTC,7,1019.8,92,0,-1,16,14.8,34490,261,4.1,2.3
2019,8,31,01:10,UTC,3,1019.9,92,0,-1,16,14.7,28250,261,3.6,2.6
2019,8,31,01:20,UTC,1,1019.9,91,0,-1,16.1,14.7,31820,254,4.1,2.9
2019,8,31,01:30,UTC,1,1019.8,91,0,-1,16,14.6,38170,255,4.2,3
2019,8,31,01:40,UTC,0,1019.8,91,0,-1,16,14.5,32580,250,3.6,2.7
2019,8,31,01:50,UTC,0,1019.8,91,0,-1,15.9,14.5,32320,255,4.2,3.1
2019,8,31,02:00,UTC,0,1019.8,91,0,-1,15.8,14.4,34380,256,4,2.8
2019,8,31,02:10,UTC,0,1019.8,92,0,-1,15.6,14.3,35030,264,3.9,2.3
2019,8,31,02:20,UTC,0,1019.8,92,0,-1,15.7,14.3,29290,258,3.4,1.7
2019,8,31,02:30,UTC,0,1019.9,92,0,-1,15.4,14.1,38420,260,3.8,2
2019,8,31,02:40,UTC,0,1020,93,0,-1,15.1,14.1,27450,264,2.9,2
2019,8,31,02:50,UTC,0,1020,93,0,-1,15.2,14,29060,266,2.4,1.9
2019,8,31,03:00,UTC,0,1019.9,92,0,-1,15.4,14.1,31980,270,2.9,2.1
2019,8,31,03:10,UTC,0,1019.9,93,0,-1,14.6,13.6,26140,264,3,1.9
2019,8,31,03:20,UTC,0,1019.9,95,0,-1,14.3,13.4,20030,268,2.9,2.1
2019,8,31,03:30,UTC,0,1020,96,0,-1,14.2,13.6,20790,273,2.9,1.8
2019,8,31,03:40,UTC,0,1020.1,96,0,-1,14.2,13.6,20310,261,3,1.9
2019,8,31,03:50,UTC,0,1020.1,94,0,-1,15.2,14.3,26870,256,3.3,2.3
2019,8,31,04:00,UTC,0,1020.2,92,0,-1,15.3,14,38120,261,3.4,2.2
2019,8,31,04:10,UTC,0,1020.3,92,0,-1,15.1,13.9,37430,263,4.5,2.5
2019,8,31,04:20,UTC,0,1020.3,90,0,-1,15.6,14,41130,261,4,2.3
2019,8,31,04:30,UTC,0,1020.2,88,0,-1,15.9,13.9,46130,254,3.4,2.3
2019,8,31,04:40,UTC,0,1020.3,86,0,-1,16.4,14,41160,257,2.8,2
2019,8,31,04:50,UTC,0,1020.4,84,0,-1,16.7,14,48650,262,3.2,2.4
2019,8,31,05:00,UTC,0,1020.4,83,0,-1,17.1,14.2,50000,258,3,2.2
2019,8,31,05:10,UTC,0,1020.4,82,0,-1,17.2,14.2,46270,256,3.5,2.4
2019,8,31,05:20,UTC,0,1020.4,81,0,-1,17.6,14.4,45180,257,4,2.7
2019,8,31,05:30,UTC,0,1020.4,82,0,-1,17.4,14.2,46150,259,4.2,2.7
2019,8,31,05:40,UTC,0,1020.6,81,0,-1,17.7,14.4,41980,262,3.7,2.4
2019,8,31,05:50,UTC,0,1020.4,79,0,-1,18.3,14.5,37850,258,3.2,1.9
2019,8,31,06:00,UTC,1,1020.5,78,0,-1,18.5,14.6,39400,248,4.2,2.3
2019,8,31,06:10,UTC,1,1020.5,78,0,-1,18.6,14.7,44760,254,5.5,3.1
2019,8,31,06:20,UTC,1,1020.6,80,0,-1,18.2,14.6,50000,269,4.9,3.3
2019,8,31,06:30,UTC,1,1020.6,79,0,-1,18.2,14.4,45010,244,4.8,3.2
2019,8,31,06:40,UTC,0,1020.6,79,0,-1,18.4,14.7,34970,257,5,3
2019,8,31,06:50,UTC,1,1020.6,78,0,-1,18.4,14.6,44130,264,5.6,3.9
2019,8,31,07:00,UTC,0,1020.6,78,0,-1,18.5,14.6,39740,256,4.7,3.4
2019,8,31,07:10,UTC,1,1020.6,76,0,-1,18.5,14.2,48890,247,3.9,2.7
2019,8,31,07:20,UTC,1,1020.6,73,0,-1,18.6,13.8,41950,261,4.3,2.7
2019,8,31,07:30,UTC,1,1020.7,74,0,-1,18.8,14.1,45210,253,4.7,2.4
2019,8,31,07:40,UTC,1,1020.7,76,0,-1,19.2,14.9,43430,240,4.7,3
2019,8,31,07:50,UTC,0,1020.7,76,0,-1,19.1,14.7,43640,253,4.7,3.3
2019,8,31,08:00,UTC,1,1020.8,77,0,-1,19.2,15,43630,252,4.9,2.7
2019,8,31,08:10,UTC,1,1020.9,78,0,-1,18.9,15,41510,215,5.1,3.3
2019,8,31,08:20,UTC,1,1021,76,0,-1,19.3,15,40930,225,5.1,3.3
2019,8,31,08:30,UTC,0,1021,73,0,-1,19.2,14.3,50000,216,5.2,2.9
2019,8,31,08:40,UTC,1,1021,72,0,-1,19.4,14.2,36690,220,5.5,3.4
2019,8,31,08:50,UTC,1,1021,73,0,-1,19.4,14.4,41920,240,5.5,3.7
2019,8,31,09:00,UTC,1,1021.1,75,0,-1,19.2,14.6,43540,220,5.9,4.1
2019,8,31,09:10,UTC,0,1021.1,77,0,-1,19.6,15.5,41330,217,5.5,4
2019,8,31,09:20,UTC,0,1021.1,74,0,-1,19.6,14.7,47050,222,6.2,4.5
2019,8,31,09:30,UTC,0,1021.1,75,0,-1,19.5,14.9,45020,214,6.8,5.1
2019,8,31,09:40,UTC,0,1021.1,75,0,-1,19.7,15,38280,217,7.5,5
2019,8,31,09:50,UTC,0,1021.1,76,0,-1,19.9,15.7,40630,217,7.6,6.1
2019,8,31,10:00,UTC,0,1021.1,74,0,-1,19.8,15,35100,218,8.3,6.2
2019,8,31,10:10,UTC,0,1021.1,74,0,-1,20,15.2,43120,221,8.5,6
2019,8,31,10:20,UTC,0,1021,73,0,-1,20.5,15.5,35500,221,8.6,5.9
2019,8,31,10:30,UTC,0,1021.1,72,0,-1,19.8,14.7,37030,220,10.3,5.5
2019,8,31,10:40,UTC,0,1021.1,73,0,-1,19.6,14.6,41210,219,9.5,7
2019,8,31,10:50,UTC,1,1021.1,74,0,-1,20,15.2,43050,217,9.8,7.1
2019,8,31,11:00,UTC,0,1021,75,0,-1,19.9,15.3,36700,220,10.3,7
2019,8,31,11:10,UTC,0,1021,73,0,-1,20.1,15.1,31910,220,10.1,5.8
2019,8,31,11:20,UTC,1,1021,73,0,-1,19.7,14.7,34810,220,10.3,7.3
2019,8,31,11:30,UTC,0,1021,70,0,-1,20.3,14.5,35950,221,10,7.3
2019,8,31,11:40,UTC,0,1020.9,70,0,-1,20,14.4,42150,223,10.2,6.7
2019,8,31,11:50,UTC,0,1020.9,73,0,-1,20,15,43940,219,10.6,7.3
2019,8,31,12:00,UTC,1,1020.8,74,0,-1,19.7,15.1,42080,220,9,6.9
2019,8,31,12:10,UTC,1,1020.7,73,0,-1,19.7,14.8,44440,219,9.1,6.2
2019,8,31,12:20,UTC,1,1020.7,73,0,-1,19.9,14.8,47840,217,9.1,6.4
2019,8,31,12:30,UTC,1,1020.7,71,0,-1,19.9,14.5,40210,219,9.1,6.3
2019,8,31,12:40,UTC,1,1020.7,71,0,-1,19.9,14.4,42810,217,9.5,7.3
2019,8,31,12:50,UTC,1,1020.7,72,0,-1,19.8,14.7,44780,217,9.5,7
2019,8,31,13:00,UTC,1,1020.6,72,0,-1,19.9,14.8,50000,219,11.1,7.2
2019,8,31,13:10,UTC,0,1020.6,73,0,-1,20,14.9,45940,216,8.3,6.5
2019,8,31,13:20,UTC,1,1020.6,73,0,-1,20,15,45390,217,8.1,5.3
2019,8,31,13:30,UTC,1,1020.5,73,0,-1,20.1,15.2,41400,221,7.2,4.4
2019,8,31,13:40,UTC,1,1020.4,73,0,-1,20,15,45580,222,7.4,4.1
2019,8,31,13:50,UTC,0,1020.3,75,0,-1,20,15.4,50000,215,7.8,5.2
2019,8,31,14:00,UTC,0,1020.4,75,0,-1,19.9,15.3,49000,221,6.8,4.1
2019,8,31,14:10,UTC,0,1020.3,75,0,-1,19.8,15.3,46040,228,6.3,4
2019,8,31,14:20,UTC,0,1020.2,73,0,-1,20.4,15.4,49640,232,7.1,4.5
2019,8,31,14:30,UTC,0,1020.1,70,0,-1,20.4,14.7,42140,232,6.8,4.5
2019,8,31,14:40,UTC,0,1020.2,72,0,-1,20,14.7,43980,234,6.4,4
2019,8,31,14:50,UTC,0,1020.1,74,0,-1,19.9,15.1,47050,209,7,4.9
2019,8,31,15:00,UTC,0,1020,74,0,-1,20,15.2,46160,217,6.7,5.1
2019,8,31,15:10,UTC,0,1020,73,0,-1,19.9,14.9,44690,223,6.6,3.8
2019,8,31,15:20,UTC,0,1019.9,71,0,-1,19.9,14.5,47040,216,5.6,4.1
2019,8,31,15:30,UTC,0,1019.9,71,0,-1,20,14.5,48270,227,5.8,3.2
2019,8,31,15:40,UTC,0,1019.8,71,0,-1,19.8,14.4,50000,223,5.6,3.6
2019,8,31,15:50,UTC,0,1019.7,71,0,-1,19.9,14.4,50000,219,5.7,3.8
2019,8,31,16:00,UTC,0,1019.6,78,0,-1,19.2,15.2,45920,218,5.5,3.6
2019,8,31,16:10,UTC,0,1019.5,76,0,-1,19.2,14.8,43610,214,5.4,4.2
2019,8,31,16:20,UTC,0,1019.5,71,0,-1,19.2,13.8,48810,222,5.3,2.6
2019,8,31,16:30,UTC,0,1019.5,68,0,-1,19.2,13.3,48630,234,4.8,2.8
2019,8,31,16:40,UTC,0,1019.4,67,0,-1,19.2,13,46160,233,4.4,2.4
2019,8,31,16:50,UTC,0,1019.4,68,0,-1,19,13.1,48970,231,4.4,2.4
2019,8,31,17:00,UTC,1,1019.4,70,0,-1,18.9,13.3,50000,224,3.6,2.4
2019,8,31,17:10,UTC,1,1019.4,71,0,-1,18.7,13.4,50000,235,4.7,2.8
2019,8,31,17:20,UTC,1,1019.4,71,0,-1,18.6,13.2,50000,232,4.6,2.9
2019,8,31,17:30,UTC,0,1019.4,71,0,-1,18.6,13.3,45620,231,4.1,2.3
2019,8,31,17:40,UTC,0,1019.4,71,0,-1,18.6,13.3,46310,234,4.4,2.4
2019,8,31,17:50,UTC,0,1019.4,71,0,-1,18.6,13.2,49280,244,4.4,2.8
2019,8,31,18:00,UTC,1,1019.4,73,0,-1,18.5,13.4,48970,243,4.7,2.5
2019,8,31,18:10,UTC,1,1019.4,72,0,-1,18.3,13.3,47230,241,4.2,2.1
2019,8,31,18:20,UTC,1,1019.3,72,0,-1,18.3,13.1,49460,240,3.6,2.3
2019,8,31,18:30,UTC,1,1019.4,68,0,-1,18.4,12.3,50000,255,4.4,2.6
2019,8,31,18:40,UTC,1,1019.4,68,0,-1,18.3,12.2,50000,259,3.9,2.4
2019,8,31,18:50,UTC,1,1019.4,71,0,-1,17.7,12.5,50000,263,4.1,2.6
2019,8,31,19:00,UTC,1,1019.4,73,0,-1,17.4,12.4,50000,257,3.6,2.1
2019,8,31,19:10,UTC,0,1019.4,70,0,-1,17.6,12.1,48070,251,3.9,2
2019,8,31,19:20,UTC,0,1019.4,73,0,-1,17.1,12.3,50000,260,3.3,2.1
2019,8,31,19:30,UTC,0,1019.4,73,0,-1,16.8,11.9,47310,241,3.6,2.1
2019,8,31,19:40,UTC,0,1019.4,76,0,-1,16.5,12.2,46740,227,3.6,2.2
2019,8,31,19:50,UTC,0,1019.3,75,0,-1,17.6,13.2,48060,220,3.3,2.2
2019,8,31,20:00,UTC,0,1019.2,82,0,-1,17.1,13.9,46370,225,3.3,2.2
2019,8,31,20:10,UTC,0,1019.2,84,0,-1,16.8,14,50000,240,3.8,2.4
2019,8,31,20:20,UTC,0,1019.3,86,0,-1,16.1,13.9,41190,252,3.8,2.2
2019,8,31,20:30,UTC,0,1019.3,89,0,-1,15.8,14,43890,252,3.2,2
2019,8,31,20:40,UTC,0,1019.3,89,0,-1,16.6,14.8,40840,251,4.3,1.7
2019,8,31,20:50,UTC,0,1019.3,90,0,-1,15.9,14.2,38120,255,4,2
2019,8,31,21:00,UTC,0,1019.4,91,0,-1,15.7,14.3,33310,261,4.1,2
2019,8,31,21:10,UTC,0,1019.3,93,0,-1,15.7,14.6,28260,257,4.3,2.1
2019,8,31,21:20,UTC,0,1019.3,91,0,-1,16.5,15.1,32540,260,4,2.6
2019,8,31,21:30,UTC,0,1019.4,92,0,-1,16.7,15.4,38500,256,4.2,2.5
2019,8,31,21:40,UTC,0,1019.4,92,0,-1,16.2,14.9,23940,250,3.7,2.4
2019,8,31,21:50,UTC,0,1019.4,93,0,-1,16,15,21560,245,3.6,2.1
2019,8,31,22:00,UTC,0,1019.4,94,0,-1,15.7,14.8,15600,247,3.2,1.9
2019,8,31,22:10,UTC,0,1019.3,95,0,-1,15.5,14.8,13100,236,2.5,1.3
2019,8,31,22:20,UTC,0,1019.2,96,0,-1,15.7,15,13180,214,2.1,1.3
2019,8,31,22:30,UTC,0,1019.2,96,0,-1,15.6,15,9110,213,2.9,1.9
2019,8,31,22:40,UTC,0,1019.3,97,0,-1,15.6,15,8110,214,2.9,1.7
2019,8,31,22:50,UTC,0,1019.2,97,0,-1,15.5,15,7270,214,2.7,1.7
2019,8,31,23:00,UTC,0,1019.2,97,0,-1,15.5,15,6030,225,3.2,1.5
2019,8,31,23:10,UTC,0,1019.1,97,0,-1,15.4,15,5660,241,2.3,1.4
2019,8,31,23:20,UTC,0,1019.1,97,0,-1,15.4,15,5180,230,2.2,1.3
2019,8,31,23:30,UTC,0,1019.1,98,0,-1,15.6,15.2,5650,211,2.1,1.2
2019,8,31,23:40,UTC,0,1019.1,98,0,-1,15.5,15.1,5690,214,1.5,0.9
2019,8,31,23:50,UTC,0,1019,98,0,-1,15.7,15.4,5680,202,2.6,1.3
2019,9,1,00:00,UTC,0,1018.9,98,0,-1,15.6,15.3,5740,196,2.5,1.1
2019,9,1,00:10,UTC,0,1018.9,98,0,-1,15.7,15.4,5770,188,2.3,1.3
2019,9,1,00:20,UTC,0,1018.9,98,0,-1,15.7,15.4,6810,200,3,1.7
2019,9,1,00:30,UTC,0,1018.9,98,0,-1,15.9,15.6,7840,192,3.1,1.8
2019,9,1,00:40,UTC,0,1018.9,98,0,-1,16,15.7,8720,195,2.9,1.8
2019,9,1,00:50,UTC,0,1018.8,98,0,-1,15.9,15.6,8960,200,2.9,1.9
2019,9,1,01:00,UTC,0,1018.8,98,0,-1,16,15.7,10110,204,4,2.3
2019,9,1,01:10,UTC,0,1018.8,98,0,-1,16,15.7,9050,203,3,2
2019,9,1,01:20,UTC,0,1018.7,98,0,-1,16.1,15.8,10810,197,2.8,1.5
2019,9,1,01:30,UTC,0,1018.7,98,0,-1,16,15.7,9550,191,3.2,1.6
2019,9,1,01:40,UTC,0,1018.7,98,0,-1,15.8,15.5,9870,196,2,1.2
2019,9,1,01:50,UTC,0,1018.6,98,0,-1,16,15.7,13430,182,3.1,2
2019,9,1,02:00,UTC,0,1018.5,97,0,-1,16,15.6,16260,184,3.3,2.1
2019,9,1,02:10,UTC,0,1018.4,97,0,-1,15.8,15.3,17440,183,3.2,1.8
2019,9,1,02:20,UTC,0,1018.4,97,0,-1,15.9,15.4,16420,178,3.5,1.9
2019,9,1,02:30,UTC,0,1018.4,96,0,-1,15.7,15.1,14040,177,3.4,1.9
2019,9,1,02:40,UTC,0,1018.3,97,0,-1,15.7,15.2,12750,176,3.9,2
2019,9,1,02:50,UTC,0,1018.3,97,0,-1,15.9,15.4,13870,173,3.3,1.9
2019,9,1,03:00,UTC,0,1018.3,97,0,-1,15.7,15.2,12800,180,4,2.1
2019,9,1,03:10,UTC,0,1018.2,97,0,-1,15.8,15.3,15270,174,3.1,2.1
2019,9,1,03:20,UTC,0,1018.2,97,0,-1,15.7,15.1,12570,175,3.1,1.7
2019,9,1,03:30,UTC,0,1018.2,97,0,-1,15.7,15.3,9980,171,3.8,1.8
2019,9,1,03:40,UTC,0,1018.2,97,0,-1,15.7,15.2,9680,172,3.2,1.5
2019,9,1,03:50,UTC,0,1018.2,97,0,-1,15.9,15.5,8130,191,2.1,1
2019,9,1,04:00,UTC,0,1018.2,98,0,-1,16.3,16,8580,188,2.9,1.3
2019,9,1,04:10,UTC,0,1018.2,98,0,-1,16.4,16,8260,186,3.1,1.7
2019,9,1,04:20,UTC,0,1018.1,98,0,-1,16.4,16.1,7960,190,2.6,1.4
2019,9,1,04:30,UTC,0,1018.1,98,0,-1,16.6,16.2,9400,172,2.8,1.5
2019,9,1,04:40,UTC,1,1018.1,98,0,-1,16.7,16.3,9710,191,3.4,1.9
2019,9,1,04:50,UTC,1,1018.1,98,0,-1,16.7,16.3,8630,190,3.5,2.3
2019,9,1,05:00,UTC,1,1018,97,0,-1,16.9,16.4,11410,181,3.7,2.1
2019,9,1,05:10,UTC,1,1018,97,0,-1,17.2,16.7,12050,184,3.7,2
2019,9,1,05:20,UTC,1,1018,95,0,-1,17.4,16.5,15450,180,3.5,2.4
2019,9,1,05:30,UTC,0,1017.9,91,0,-1,17.6,16.1,22370,184,3.3,2.2
2019,9,1,05:40,UTC,0,1017.9,88,0,-1,17.8,15.8,29220,187,4.3,2.5
2019,9,1,05:50,UTC,0,1017.9,84,0,-1,18.1,15.3,32300,184,4.2,2.4
2019,9,1,06:00,UTC,0,1017.8,83,0,-1,18.4,15.5,33770,188,4.7,2.7
2019,9,1,06:10,UTC,0,1017.7,83,0,-1,18.9,15.9,34780,182,3.8,2.4
2019,9,1,06:20,UTC,0,1017.7,79,0,-1,18.8,15,36780,183,4.7,2.9
2019,9,1,06:30,UTC,0,1017.8,78,0,-1,19.2,15.3,36240,184,4.2,2.5
2019,9,1,06:40,UTC,0,1017.7,80,0,-1,19,15.4,35240,189,4.5,2.7
2019,9,1,06:50,UTC,0,1017.7,80,0,-1,18.8,15.3,33040,190,5.3,3.6
2019,9,1,07:00,UTC,0,1017.7,82,0,-1,19,15.8,38020,189,5.4,3.4
2019,9,1,07:10,UTC,0,1017.7,79,0,-1,18.8,15.1,41560,191,4.7,2.8
2019,9,1,07:20,UTC,0,1017.6,79,0,-1,19.1,15.4,35770,193,5.4,3.4
2019,9,1,07:30,UTC,0,1017.6,81,0,-1,18.9,15.6,34210,200,5.5,3.3
2019,9,1,07:40,UTC,0,1017.5,78,0,-1,18.9,15,34030,182,4.8,3.3
2019,9,1,07:50,UTC,0,1017.5,72,0,-1,19.2,14.1,43510,189,4.5,2.8
2019,9,1,08:00,UTC,0,1017.4,74,0,-1,19.3,14.6,38290,195,4.3,2.9
2019,9,1,08:10,UTC,0,1017.4,69,0,-1,19.3,13.5,44870,181,4.2,2.7
2019,9,1,08:20,UTC,0,1017.4,69,0,-1,19.7,13.8,46740,166,5.5,3.4
2019,9,1,08:30,UTC,0,1017.4,65,0,-1,19.9,13,45480,183,4.5,2.6
2019,9,1,08:40,UTC,0,1017.4,60,0,-1,20.3,12.3,42540,171,4.4,3.2
2019,9,1,08:50,UTC,0,1017.4,64,0,-1,20.2,13.1,43790,177,4,2.7
2019,9,1,09:00,UTC,0,1017.3,65,0,-1,20.1,13.3,44590,164,3.8,1.8
2019,9,1,09:10,UTC,0,1017.3,62,0,-1,20,12.5,43190,148,4.2,2.7
2019,9,1,09:20,UTC,0,1017.4,57,0,-1,20.1,11.2,44530,126,4.7,3.3
2019,9,1,09:30,UTC,0,1017.3,55,0,-1,20.3,11.1,45740,127,4.1,3.3
2019,9,1,09:40,UTC,0,1017.2,61,0,-1,20.7,13,48160,143,4.5,2.7
2019,9,1,09:50,UTC,0,1017.1,62,0,-1,20.7,13.2,44510,140,4,2.7
2019,9,1,10:00,UTC,0,1016.9,62,0,-1,20.7,13.2,46830,147,4.1,2.5
2019,9,1,10:10,UTC,0,1016.8,64,0,-1,21,13.9,48740,131,4.2,2.7
2019,9,1,10:20,UTC,0,1016.7,60,0,-1,21,12.9,46370,124,4.4,3
2019,9,1,10:30,UTC,0,1016.7,61,0,-1,21.3,13.4,43360,125,5.1,3.4
2019,9,1,10:40,UTC,0,1016.7,63,0,-1,21.1,13.8,49580,120,5.1,3.7
2019,9,1,10:50,UTC,0,1016.7,65,0,-1,20.7,13.9,39240,126,4.8,3.5
2019,9,1,11:00,UTC,0,1016.6,63,0,-1,21.2,14,39770,125,4.5,3.1
2019,9,1,11:10,UTC,0,1016.6,63,0,-1,21.2,13.9,36160,122,5.2,3.6
2019,9,1,11:20,UTC,0,1016.5,63,0,-1,21.3,13.9,37570,121,4.8,3.5
2019,9,1,11:30,UTC,0,1016.3,63,0,-1,21,13.7,38560,121,4.9,3.5
2019,9,1,11:40,UTC,0,1016.2,64,0,-1,20.5,13.4,38170,118,5.2,3.8
2019,9,1,11:50,UTC,0,1016.1,66,0,-1,20.5,13.9,44920,114,5.9,3.8
2019,9,1,12:00,UTC,0,1016.1,65,0,-1,20.6,13.9,48830,113,6.8,4.9
2019,9,1,12:10,UTC,0,1016,65,0,-1,20.8,14.1,48560,113,6.4,5
2019,9,1,12:20,UTC,0,1015.9,66,0,-1,20.3,13.7,34690,110,6.1,4.7
2019,9,1,12:30,UTC,0,1015.9,67,0,-1,20.3,13.9,50000,111,6.3,4.8
2019,9,1,12:40,UTC,0,1015.7,66,0,-1,20.4,13.9,50000,113,5.9,4.6
2019,9,1,12:50,UTC,0,1015.8,67,0,-1,20.4,14.1,45160,112,6.2,4.7
2019,9,1,13:00,UTC,0,1015.6,68,0,-1,20.1,13.9,45580,112,6.3,4.8
2019,9,1,13:10,UTC,0,1015.5,67,0,-1,20.1,13.8,50000,115,6.6,4.9
2019,9,1,13:20,UTC,0,1015.4,65,0,-1,20.3,13.6,50000,113,6.4,4.8
2019,9,1,13:30,UTC,0,1015.4,65,0,-1,20.4,13.6,42260,112,6.3,5.1
2019,9,1,13:40,UTC,0,1015.3,66,0,-1,20.3,13.7,50000,113,7.1,5.2
2019,9,1,13:50,UTC,0,1015.2,67,0,-1,20.1,13.7,50000,113,7,5.8
2019,9,1,14:00,UTC,0,1015.2,67,0,-1,20.1,13.8,50000,115,6.5,5.5
2019,9,1,14:10,UTC,0,1015,65,0,-1,20.1,13.3,50000,115,7,5.5
2019,9,1,14:20,UTC,0,1014.9,65,0,-1,20,13.2,50000,114,7.3,5.7
2019,9,1,14:30,UTC,0,1014.7,63,0,-1,19.9,12.7,50000,119,7.2,5.6
2019,9,1,14:40,UTC,0,1014.7,61,0,-1,19.7,12.1,50000,120,8,5.8
2019,9,1,14:50,UTC,0,1014.7,63,0,-1,19.6,12.3,50000,119,7.8,6
2019,9,1,15:00,UTC,0,1014.6,66,0,-1,19.4,12.8,50000,122,7,5.1
2019,9,1,15:10,UTC,0,1014.6,71,0,-1,19.2,13.8,50000,121,7.3,5.3
2019,9,1,15:20,UTC,0,1014.5,74,0,-1,19.1,14.3,48110,119,7.4,5.9
2019,9,1,15:30,UTC,0,1014.5,74,0,-1,19.1,14.3,50000,118,7.2,5.6
2019,9,1,15:40,UTC,0,1014.5,74,0,-1,19,14.4,46400,121,6.5,5
2019,9,1,15:50,UTC,0,1014.5,74,0,-1,19,14.3,50000,117,7.4,5
2019,9,1,16:00,UTC,0,1014.6,73,0,-1,19.1,14.2,50000,115,6.9,5.3
2019,9,1,16:10,UTC,0,1014.5,75,0,-1,19,14.4,42340,115,6.9,4.8
2019,9,1,16:20,UTC,0,1014.5,75,0,-1,19,14.5,50000,114,6.9,5.2
2019,9,1,16:30,UTC,0,1014.5,76,0,-1,18.9,14.6,45070,117,6.5,5.2
2019,9,1,16:40,UTC,0,1014.5,76,0,-1,18.8,14.6,48860,114,7.1,4.9
2019,9,1,16:50,UTC,0,1014.4,75,0,-1,18.9,14.3,47500,113,6.2,4.3
2019,9,1,17:00,UTC,0,1014.3,76,0,-1,18.6,14.4,50000,104,5.4,3.6
2019,9,1,17:10,UTC,0,1014.3,76,0,-1,18.7,14.5,44810,105,5.5,3.6
2019,9,1,17:20,UTC,0,1014.4,78,0,-1,18.5,14.5,47440,99,4.9,3.3
2019,9,1,17:30,UTC,0,1014.4,80,0,-1,18.3,14.7,48230,96,4.6,3.3
2019,9,1,17:40,UTC,0,1014.3,80,0,-1,18.3,14.8,48600,98,5,3.3
2019,9,1,17:50,UTC,0,1014.2,80,0,-1,18.2,14.8,40340,95,6.3,4.1
2019,9,1,18:00,UTC,0,1014.2,81,0,-1,18.1,14.8,42810,103,5,3.4
2019,9,1,18:10,UTC,0,1014.1,82,0,-1,18.1,15,41590,105,5.2,3.6
2019,9,1,18:20,UTC,0,1014.1,83,0,-1,18,15.1,44860,107,5.1,3.5
2019,9,1,18:30,UTC,0,1014,85,0,-1,17.9,15.3,48600,107,4.7,3.4
2019,9,1,18:40,UTC,0,1014,86,0,-1,17.8,15.5,44080,108,5,3.6
2019,9,1,18:50,UTC,0,1013.8,88,0,-1,17.6,15.6,39770,109,4.7,3.5
2019,9,1,19:00,UTC,0,1013.7,88,0,-1,17.8,15.8,43270,107,4.9,3.4
2019,9,1,19:10,UTC,0,1013.7,88,0,-1,17.7,15.8,44230,110,4.5,3.4
2019,9,1,19:20,UTC,0,1013.6,88,0,-1,17.8,15.9,45750,111,4.2,3
2019,9,1,19:30,UTC,0,1013.6,89,0,-1,17.8,16,45520,116,4.4,3.2
2019,9,1,19:40,UTC,0,1013.5,89,0,-1,17.6,15.9,38380,116,4.5,2.9
2019,9,1,19:50,UTC,0,1013.4,91,0,-1,17.4,15.8,37040,116,3.8,2.5
2019,9,1,20:00,UTC,0,1013.3,92,0,-1,17.1,15.7,36360,116,3,2.2
2019,9,1,20:10,UTC,0,1013.3,93,0,-1,16.9,15.6,32160,116,2.7,1.7
2019,9,1,20:20,UTC,0,1013.2,94,0,-1,16.9,16,35360,122,3.1,2.2
2019,9,1,20:30,UTC,0,1013.1,91,0,-1,17.5,16,46140,134,4.2,2.8
2019,9,1,20:40,UTC,0,1013.1,89,0,-1,17.9,16,44970,140,4.2,2.5
2019,9,1,20:50,UTC,0,1013,86,0,-1,18.1,15.8,33560,142,4.5,2.5
2019,9,1,21:00,UTC,0,1013,83,0,-1,18.5,15.6,33290,160,5.5,3.2
2019,9,1,21:10,UTC,0,1013,81,0,-1,18.6,15.3,26140,156,5.3,3.6
2019,9,1,21:20,UTC,0,1013,79,0,-1,18.8,15.2,47730,160,5.4,3.7
2019,9,1,21:30,UTC,0,1012.9,80,0,-1,18.7,15.2,48410,159,5.7,3.8
2019,9,1,21:40,UTC,0,1013,81,0,-1,18.7,15.3,50000,158,7.4,3.8
2019,9,1,21:50,UTC,0,1013,82,0,-1,18.6,15.4,48730,161,6.1,4.1
2019,9,1,22:00,UTC,0,1013,83,0,-1,18.5,15.5,49080,162,6.3,3.8
2019,9,1,22:10,UTC,0,1012.9,83,0,-1,18.5,15.6,50000,157,6.3,3.8
2019,9,1,22:20,UTC,0,1012.9,83,0,-1,18.5,15.6,50000,159,5.6,4
2019,9,1,22:30,UTC,0,1012.9,85,0,-1,18.3,15.7,45030,162,6.2,4.3
2019,9,1,22:40,UTC,0,1013,84,0,-1,18.4,15.6,45680,163,6.8,4
2019,9,1,22:50,UTC,0,1012.9,83,0,-1,18.4,15.4,47390,168,6.3,3.8
2019,9,1,23:00,UTC,0,1013,83,0,-1,18.2,15.4,48100,166,5.5,3.7
2019,9,1,23:10,UTC,0,1012.9,83,0,-1,18.2,15.3,50000,169,6.3,3.7
2019,9,1,23:20,UTC,0,1012.9,83,0,-1,18.2,15.3,45190,167,5.9,3.4
2019,9,1,23:30,UTC,0,1012.9,83,0,-1,18.1,15.3,46530,166,5.6,3.7
2019,9,1,23:40,UTC,0,1012.9,83,0,-1,18.2,15.2,48610,170,6.3,3.8
2019,9,1,23:50,UTC,0,1012.9,83,0,-1,18,15.1,42690,175,5.6,3.1
2019,9,2,00:00,UTC,0,1012.8,83,0,-1,17.9,15.1,38400,182,4.9,3.1
2019,9,2,00:10,UTC,0,1012.7,84,0,-1,17.9,15.1,49720,181,4.3,2.7
2019,9,2,00:20,UTC,0,1012.7,85,0,-1,17.7,15.1,31760,171,4.9,2.4
2019,9,2,00:30,UTC,0,1012.6,86,0,-1,17.6,15.3,31480,168,4.3,2.5
2019,9,2,00:40,UTC,0,1012.6,86,0,-1,17.5,15.2,33350,167,4.3,2.8
2019,9,2,00:50,UTC,0,1012.5,87,0,-1,17.6,15.3,29630,162,4.7,2.8
2019,9,2,01:00,UTC,0,1012.5,88,0,-1,17.4,15.3,31290,160,4.3,2.8
2019,9,2,01:10,UTC,0,1012.5,87,0,-1,17.5,15.4,29230,164,4.2,2.7
2019,9,2,01:20,UTC,0,1012.4,88,0,-1,17.4,15.3,29760,159,3.7,2.5
2019,9,2,01:30,UTC,0,1012.4,88,0,-1,17.4,15.3,32980,158,4.3,2.4
2019,9,2,01:40,UTC,0,1012.3,88,0,-1,17.3,15.2,28130,167,5,2.7
2019,9,2,01:50,UTC,0,1012.3,89,0,-1,17.1,15.3,31590,168,3.8,2.2
2019,9,2,02:00,UTC,1,1012.3,89,0,-1,17.1,15.3,30600,165,3,1.9
2019,9,2,02:10,UTC,1,1012.3,89,0,-1,17.1,15.4,27270,165,2.9,1.8
2019,9,2,02:20,UTC,1,1012.2,91,0,-1,17,15.5,24460,156,3,1.8
2019,9,2,02:30,UTC,1,1012,91,0,-1,17.1,15.6,25030,143,4.1,2.9
2019,9,2,02:40,UTC,1,1011.9,91,0,-1,17.1,15.5,28390,148,5.2,3.3
2019,9,2,02:50,UTC,1,1011.8,91,0,-1,17,15.5,27320,152,4,2.6
2019,9,2,03:00,UTC,0,1011.7,91,0,-1,17,15.5,25610,153,4.8,3.1
2019,9,2,03:10,UTC,0,1011.7,90,0,-1,17.2,15.5,28570,159,4.1,2.6
2019,9,2,03:20,UTC,0,1011.6,91,0,-1,17.1,15.5,26950,159,4,2.7
2019,9,2,03:30,UTC,0,1011.5,90,0,-1,17.2,15.6,23490,147,4.1,2.6
2019,9,2,03:40,UTC,0,1011.5,90,0,-1,17.2,15.6,25240,153,4.5,2.4
2019,9,2,03:50,UTC,1,1011.5,90,0,-1,17.3,15.6,28050,164,4.8,3.2
2019,9,2,04:00,UTC,1,1011.4,89,0,-1,17.4,15.6,28010,144,5.7,3.5
2019,9,2,04:10,UTC,1,1011.4,88,0,-1,17.5,15.4,24000,144,7,3.9
2019,9,2,04:20,UTC,0,1011.4,88,0,-1,17.6,15.6,20930,148,6,4
2019,9,2,04:30,UTC,0,1011.4,89,0,-1,17.6,15.7,22560,151,6.9,3.7
2019,9,2,04:40,UTC,0,1011.4,88,0,-1,17.8,15.9,23460,140,5.2,3.4
2019,9,2,04:50,UTC,0,1011.4,87,0,-1,17.9,15.7,21830,149,5.1,3.5
2019,9,2,05:00,UTC,1,1011.4,86,0,-1,18.4,15.9,25960,144,5.1,2.9
2019,9,2,05:10,UTC,3,1011.5,86,0,-1,18.3,15.9,27980,129,3.9,2.3
2019,9,2,05:20,UTC,5,1011.4,85,0,-1,18.2,15.7,22810,138,4.9,3.2
2019,9,2,05:30,UTC,3,1011.2,86,0,-1,18.3,15.9,25570,125,5.1,3.3
2019,9,2,05:40,UTC,1,1011.1,83,0,-1,18.7,15.8,26980,122,5.8,3.8
2019,9,2,05:50,UTC,1,1011.1,83,0,-1,18.7,15.8,28720,123,6.9,4.7
2019,9,2,06:00,UTC,1,1011.1,83,0,-1,18.6,15.8,27630,119,6.7,4.6
2019,9,2,06:10,UTC,0,1011.1,83,0,-1,18.7,15.8,32300,120,6.5,4.7
2019,9,2,06:20,UTC,1,1011.1,82,0,-1,19,15.9,28030,120,6.9,4.8
2019,9,2,06:30,UTC,1,1011.1,81,0,-1,19.1,15.7,31250,121,6.3,4.3
2019,9,2,06:40,UTC,1,1011.1,81,0,-1,19.2,15.8,33910,124,6.1,3.9
2019,9,2,06:50,UTC,1,1011.2,81,0,-1,19.2,15.9,29630,118,6.7,4.9
2019,9,2,07:00,UTC,0,1011.1,81,0,-1,19.1,15.7,33020,123,6.8,4.4
2019,9,2,07:10,UTC,0,1011.2,81,0,-1,19.2,15.9,27710,123,7,4.4
2019,9,2,07:20,UTC,0,1011.1,81,0,-1,19,15.6,30710,122,7.5,5.9
2019,9,2,07:30,UTC,0,1011.1,80,0,-1,19.1,15.6,30570,128,7.2,5.1
2019,9,2,07:40,UTC,0,1011.2,80,0,-1,19.1,15.5,29600,130,6,4.5
2019,9,2,07:50,UTC,0,1011.3,80,0,-1,19.2,15.6,31730,133,6.9,4.6
2019,9,2,08:00,UTC,0,1011.2,81,0,-1,19.6,16.3,32840,129,6.7,4.5
2019,9,2,08:10,UTC,0,1011.2,80,0,-1,19.4,15.8,28200,121,7.3,5.2
2019,9,2,08:20,UTC,0,1011.2,80,0,-1,19.6,16,34240,119,6.2,4.3
2019,9,2,08:30,UTC,0,1011.1,78,0,-1,19.6,15.6,27350,116,7.2,5.1
2019,9,2,08:40,UTC,0,1010.8,79,0,-1,19.9,16.2,31240,119,7.9,5.5
2019,9,2,08:50,UTC,0,1010.7,78,0,-1,20,16,28470,114,7.9,5.7
2019,9,2,09:00,UTC,0,1010.7,76,0,-1,20.3,16,30580,119,7.6,5.2
2019,9,2,09:10,UTC,0,1010.7,76,0,-1,20.3,15.8,36730,122,7,4.3
2019,9,2,09:20,UTC,0,1010.7,76,0,-1,20.3,15.9,34850,122,7.3,4.8
2019,9,2,09:30,UTC,0,1010.6,76,0,-1,20.9,16.5,37860,119,8.4,5.7
2019,9,2,09:40,UTC,0,1010.6,74,0,-1,20.8,15.9,32320,119,7.6,5.5
2019,9,2,09:50,UTC,0,1010.6,74,0,-1,20.9,16.1,35710,128,7.8,4.8
2019,9,2,10:00,UTC,0,1010.7,73,0,-1,20.8,15.8,36550,133,8,5
2019,9,2,10:10,UTC,0,1010.7,73,0,-1,21.1,16.1,31730,128,7.3,4.5
2019,9,2,10:20,UTC,0,1010.6,73,0,-1,21.2,16,34060,126,7.8,4.7
2019,9,2,10:30,UTC,0,1010.5,72,0,-1,21.5,16.3,34120,131,7,4.6
2019,9,2,10:40,UTC,0,1010.5,73,0,-1,21.9,16.8,31960,129,8.4,5
2019,9,2,10:50,UTC,0,1010.4,70,0,-1,22,16.2,30200,124,8.3,5.5
2019,9,2,11:00,UTC,0,1010.4,69,0,-1,21.9,15.8,30200,126,7.7,5.2
2019,9,2,11:10,UTC,0,1010.3,68,0,-1,22.1,16,29400,113,7,4.9
2019,9,2,11:20,UTC,0,1010.2,67,0,-1,22.2,15.7,34560,122,7.5,4.8
2019,9,2,11:30,UTC,0,1010.3,68,0,-1,22.2,16,32150,122,7.1,4.6
2019,9,2,11:40,UTC,1,1010.2,68,0,-1,22.2,15.9,30940,121,6.5,3.4
2019,9,2,11:50,UTC,1,1010.1,68,0,-1,21.7,15.5,34720,130,7.4,4.2
2019,9,2,12:00,UTC,3,1010.2,69,0,-1,21.5,15.5,45270,124,7.5,4
2019,9,2,12:10,UTC,3,1010.1,69,0,-1,21.6,15.7,35480,130,6.8,4
2019,9,2,12:20,UTC,5,1010,69,0,-1,21.5,15.6,34960,121,5.9,3.6
2019,9,2,12:30,UTC,5,1010.1,71,0,-1,21.4,15.8,43690,114,5.6,3.8
2019,9,2,12:40,UTC,7,1010.1,71,0,-1,21.2,15.8,35600,115,4.4,3.2
2019,9,2,12:50,UTC,7,1010,73,0,-1,21.3,16.2,37310,118,4.2,2.9
2019,9,2,13:00,UTC,7,1010,73,0,-1,21.3,16.2,35300,112,5.6,3.6
2019,9,2,13:10,UTC,7,1009.8,74,0,-1,21,16.1,35070,111,5.8,4.6
2019,9,2,13:20,UTC,7,1009.8,75,0,-1,20.7,16.2,43790,113,6,4.3
2019,9,2,13:30,UTC,5,1009.7,75,0,-1,20.8,16.2,38450,119,5.6,4.1
2019,9,2,13:40,UTC,7,1009.7,76,0,-1,21.1,16.7,38560,123,5.5,3.5
2019,9,2,13:50,UTC,7,1009.9,77,0,-1,20.5,16.3,32570,123,5.4,3
2019,9,2,14:00,UTC,7,1009.9,76,0,-1,20.7,16.4,39230,148,6.3,3.4
2019,9,2,14:10,UTC,7,1009.9,79,0,-1,20.3,16.6,38880,175,5.9,4
2019,9,2,14:20,UTC,7,1009.8,82,0,-1,20,16.8,29340,188,7.4,3.7
2019,9,2,14:30,UTC,8,1009.7,81,0,-1,20.1,16.8,27220,206,4.3,2.6
2019,9,2,14:40,UTC,7,1009.6,81,0,-1,20.2,16.8,30080,245,4.2,2.4
2019,9,2,14:50,UTC,8,1009.6,79,0,-1,20.5,16.8,24960,263,3.7,2
2019,9,2,15:00,UTC,8,1009.6,81,0,-1,20.2,16.9,21430,251,3.8,2.4
2019,9,2,15:10,UTC,8,1009.6,84,0,-1,19.8,16.9,17360,250,5.9,3.1
2019,9,2,15:20,UTC,7,1009.7,84,0,-1,19.8,17,21400,246,5.9,3.3
2019,9,2,15:30,UTC,7,1010,89,0.7,-1,19.2,17.4,5560,249,7.5,3.9
2019,9,2,15:40,UTC,7,1009.8,92,5.3,-1,18.8,17.4,2820,245,6.5,4.3
2019,9,2,15:50,UTC,7,1009.8,94,5,-1,18.4,17.4,2700,249,5.3,3.1
2019,9,2,16:00,UTC,5,1009.7,95,1.7,-1,18.3,17.4,6740,244,4.6,2.9
2019,9,2,16:10,UTC,5,1009.7,95,0.3,-1,18.2,17.5,7820,238,4.5,3.1
2019,9,2,16:20,UTC,7,1009.7,96,0,-1,18.2,17.5,5450,238,3.9,2.2
2019,9,2,16:30,UTC,7,1009.7,96,1.4,-1,18.2,17.6,3940,249,4.3,2.4
2019,9,2,16:40,UTC,7,1009.7,96,5.9,-1,18.2,17.6,1730,256,5.4,3.1
2019,9,2,16:50,UTC,7,1009.9,96,2.9,-1,18.1,17.5,4870,259,6.2,3.5
2019,9,2,17:00,UTC,7,1010.3,94,0.5,-1,17.2,16.2,13600,285,10.2,6.1
2019,9,2,17:10,UTC,7,1010.6,94,0,-1,16.2,15.2,7080,295,10.6,6.6
2019,9,2,17:20,UTC,7,1010.9,92,6.6,-1,15.5,14.3,2530,288,9.2,6.1
2019,9,2,17:30,UTC,7,1011.1,94,7.1,-1,15.2,14.2,2930,285,11.2,7.2
2019,9,2,17:40,UTC,5,1011.1,93,3.6,-1,15.2,14.1,6440,282,8.8,5.7
2019,9,2,17:50,UTC,5,1011.1,93,0.7,-1,14.9,13.8,5780,279,8.2,5.9
2019,9,2,18:00,UTC,3,1011.3,89,5.4,-1,14.3,12.5,4490,295,10.5,6.5
2019,9,2,18:10,UTC,5,1011.4,92,1.1,-1,14.4,13,18520,286,10.1,6.1
2019,9,2,18:20,UTC,5,1011.6,93,0,-1,14.5,13.4,29640,298,6.4,4
2019,9,2,18:30,UTC,7,1011.7,93,0,-1,14.5,13.4,30560,290,7,3.9
2019,9,2,18:40,UTC,7,1011.8,94,0,-1,14.5,13.5,19860,285,6.9,4.1
2019,9,2,18:50,UTC,8,1011.9,94,0,-1,14.7,13.7,24950,285,5.8,3.8
2019,9,2,19:00,UTC,8,1012.1,93,0.4,-1,14.7,13.5,23300,285,5.6,3.4
2019,9,2,19:10,UTC,8,1012.4,90,0.1,-1,14.6,13,43140,261,5.7,3.9
2019,9,2,19:20,UTC,8,1012.2,90,0,-1,14.4,12.7,50000,275,5.6,3.6
2019,9,2,19:30,UTC,7,1012.3,88,0,-1,14.5,12.5,31990,282,5.8,3.4
2019,9,2,19:40,UTC,7,1012.3,88,0,-1,14.5,12.5,23260,280,6.1,3.8
2019,9,2,19:50,UTC,7,1012.2,88,0.3,-1,14.3,12.2,30590,286,4.6,2.8
2019,9,2,20:00,UTC,8,1012.3,87,0,-1,14.4,12.2,47230,273,2.7,1.6
2019,9,2,20:10,UTC,8,1012.5,87,0,-1,14.6,12.4,50000,277,3.2,1.8
2019,9,2,20:20,UTC,8,1012.4,89,0,-1,14.4,12.6,48500,255,4.3,2.7
2019,9,2,20:30,UTC,7,1012.6,85,0,-1,14.6,12.1,50000,257,4.6,2.5
2019,9,2,20:40,UTC,7,1012.6,87,0,-1,14.2,12.1,39090,251,3.9,2.3
2019,9,2,20:50,UTC,3,1012.7,90,0,-1,13.8,12.1,32610,255,3.9,2.3
2019,9,2,21:00,UTC,3,1012.9,91,0,-1,13.4,12.1,39070,260,5,3
2019,9,2,21:10,UTC,3,1012.9,93,0,-1,13.4,12.2,44800,253,3.2,2
2019,9,2,21:20,UTC,5,1012.9,92,0,-1,13.5,12.2,42830,244,2.2,1.6
2019,9,2,21:30,UTC,5,1012.9,94,0,-1,13.1,12.2,38140,259,2.5,1.4
2019,9,2,21:40,UTC,3,1012.9,95,0,-1,12.9,12.1,40050,248,2.5,1.3
2019,9,2,21:50,UTC,1,1013,96,0,-1,12.9,12.2,34690,249,3.2,1.7
2019,9,2,22:00,UTC,1,1013.1,96,0,-1,12.9,12.3,36410,250,2.9,1.5
2019,9,2,22:10,UTC,0,1013.1,96,0,-1,13.3,12.6,32370,250,4,1.9
2019,9,2,22:20,UTC,0,1013.2,92,0,-1,13.9,12.6,37830,260,3.6,2.1
2019,9,2,22:30,UTC,0,1013.3,92,0,-1,13.9,12.7,32020,261,4.3,2.6
2019,9,2,22:40,UTC,0,1013.2,89,0,-1,14.5,12.6,41560,259,4.6,2.9
2019,9,2,22:50,UTC,0,1013.3,88,0,-1,14.6,12.6,31910,261,4.7,3.2
2019,9,2,23:00,UTC,0,1013.3,91,0,-1,13.8,12.4,35910,266,4.4,2.9
2019,9,2,23:10,UTC,0,1013.3,92,0,-1,13.8,12.6,29560,265,4.5,2.7
2019,9,2,23:20,UTC,0,1013.4,93,0,-1,13.5,12.4,24430,262,3.8,2.4
2019,9,2,23:30,UTC,1,1013.4,95,0,-1,13.3,12.4,20680,261,2.8,1.9
2019,9,2,23:40,UTC,3,1013.5,95,0,-1,13.5,12.7,29730,254,3.2,1.7
2019,9,2,23:50,UTC,1,1013.5,95,0,-1,13.3,12.5,26270,254,4,2
2019,9,3,00:00,UTC,3,1013.5,95,0,-1,13.2,12.5,26610,259,3.7,1.7
2019,9,3,00:10,UTC,5,1013.5,96,0,-1,13.3,12.6,29390,264,2.7,1.6
2019,9,3,00:20,UTC,7,1013.5,96,0,-1,13.4,12.7,25680,254,2.3,1.3
2019,9,3,00:30,UTC,5,1013.5,96,0,-1,13.2,12.6,25780,250,4.1,1.7
2019,9,3,00:40,UTC,1,1013.6,96,0,-1,13.3,12.6,24160,257,3.1,1.8
2019,9,3,00:50,UTC,1,1013.7,96,0,-1,13.2,12.6,23380,265,2.9,1.8
2019,9,3,01:00,UTC,0,1013.7,96,0,-1,13.1,12.5,19910,265,2.4,1.5
2019,9,3,01:10,UTC,0,1013.8,96,0,-1,12.9,12.3,20030,248,3.2,1.6
2019,9,3,01:20,UTC,0,1013.9,97,0,-1,13,12.5,21730,241,3.3,1.9
2019,9,3,01:30,UTC,1,1013.8,97,0,-1,13.1,12.6,23730,250,3.3,1.8
2019,9,3,01:40,UTC,3,1013.8,97,0,-1,13.2,12.7,25750,250,2.7,1.4
2019,9,3,01:50,UTC,5,1013.8,96,0,-1,13.5,12.9,30860,268,2.3,1.3
2019,9,3,02:00,UTC,8,1013.8,96,0,-1,13.3,12.7,21810,263,2.5,1.5
2019,9,3,02:10,UTC,7,1013.8,96,0,-1,13.3,12.8,24150,262,1.9,1.3
2019,9,3,02:20,UTC,7,1013.9,96,0,-1,13.4,12.8,27480,257,3.1,1.3
2019,9,3,02:30,UTC,7,1013.9,97,0,-1,13.5,13,22200,257,2.4,1.5
2019,9,3,02:40,UTC,7,1014,97,0,-1,13.5,13,21170,259,2.9,1.9
2019,9,3,02:50,UTC,7,1014,97,0,-1,13.4,12.9,20280,260,2.2,1.6
2019,9,3,03:00,UTC,7,1014.1,97,0,-1,13.5,13,19200,260,2.4,1.7
2019,9,3,03:10,UTC,7,1014,97,0,-1,13.4,13,22140,252,2.7,1.7
2019,9,3,03:20,UTC,7,1014,97,0,-1,13.5,13,22710,239,1.8,1.2
2019,9,3,03:30,UTC,7,1014.1,97,0,-1,13.5,13,25380,223,2.6,1.3
2019,9,3,03:40,UTC,7,1014.2,97,0,-1,13.9,13.4,26960,220,2.4,1.5
2019,9,3,03:50,UTC,7,1014.2,96,0,-1,13.9,13.2,26310,230,2.9,1.7
2019,9,3,04:00,UTC,3,1014.3,95,0,-1,14.2,13.5,28490,244,3.2,1.9
2019,9,3,04:10,UTC,1,1014.4,95,0,-1,14.1,13.4,29520,256,3.4,2.1
2019,9,3,04:20,UTC,1,1014.4,94,0,-1,14.4,13.5,34560,256,4.2,2.3
2019,9,3,04:30,UTC,1,1014.4,89,0,-1,15,13.3,36730,263,4.2,2.7
2019,9,3,04:40,UTC,1,1014.5,84,0,-1,15.5,12.8,34660,276,3.9,2.7
2019,9,3,04:50,UTC,1,1014.4,86,0,-1,15.4,13.1,38930,283,4.2,2.3
2019,9,3,05:00,UTC,1,1014.5,82,0,-1,15.7,12.6,46370,282,4,2.6
2019,9,3,05:10,UTC,0,1014.6,78,0,-1,15.9,12.1,36950,280,4.6,2.5
2019,9,3,05:20,UTC,0,1014.6,80,0,-1,15.5,12.1,37330,280,4.9,2.9
2019,9,3,05:30,UTC,1,1014.7,79,0,-1,15.6,12,43000,273,4.2,2.9
2019,9,3,05:40,UTC,1,1014.8,79,0,-1,15.4,11.8,48380,284,4.3,2.4
2019,9,3,05:50,UTC,1,1014.8,79,0,-1,15.6,12,50000,278,4.3,3
2019,9,3,06:00,UTC,1,1014.9,79,0,-1,15.6,11.9,48700,286,3.8,2.8
2019,9,3,06:10,UTC,1,1014.9,78,0,-1,16.1,12.3,43610,286,5.1,3.7
2019,9,3,06:20,UTC,1,1015,76,0,-1,15.9,11.7,41660,286,5.6,3.8
2019,9,3,06:30,UTC,1,1015,77,0,-1,16,11.9,47430,291,4.4,2.9
2019,9,3,06:40,UTC,1,1015.1,74,0,-1,16.3,11.7,48760,285,4.5,3.1
2019,9,3,06:50,UTC,1,1015.2,71,0,-1,16.5,11.2,36970,285,4.7,2.6
2019,9,3,07:00,UTC,1,1015.2,72,0,-1,16.8,11.6,42290,280,5.7,3.3
2019,9,3,07:10,UTC,1,1015.3,70,0,-1,16.7,11.1,39620,278,5.9,4.1
2019,9,3,07:20,UTC,1,1015.3,69,0,-1,16.9,11.1,47220,261,5,3
2019,9,3,07:30,UTC,1,1015.4,69,0,-1,16.9,11.2,46280,266,5.5,3.3
2019,9,3,07:40,UTC,1,1015.4,69,0,-1,16.5,10.9,43200,263,6,4
2019,9,3,07:50,UTC,1,1015.4,68,0,-1,16.5,10.6,43850,272,4.3,2.9
2019,9,3,08:00,UTC,1,1015.4,69,0,-1,16.6,10.8,47780,262,6,3.5
2019,9,3,08:10,UTC,1,1015.4,69,0,-1,16.5,10.9,50000,261,5,3.5
2019,9,3,08:20,UTC,0,1015.4,71,0,-1,16.5,11.2,50000,263,5.2,3.9
2019,9,3,08:30,UTC,1,1015.5,69,0,-1,16.7,10.9,47400,261,5.6,3.8
2019,9,3,08:40,UTC,0,1015.6,69,0,-1,16.6,10.8,47530,261,5.1,3.6
2019,9,3,08:50,UTC,1,1015.6,67,0,-1,16.8,10.6,50000,265,5.8,4.2
2019,9,3,09:00,UTC,1,1015.5,68,0,-1,17.1,11.1,50000,252,5.4,3.2
2019,9,3,09:10,UTC,1,1015.6,66,0,-1,17.1,10.8,49870,256,6.2,4.2
2019,9,3,09:20,UTC,1,1015.6,66,0,-1,17.2,10.8,42680,254,6.1,3.9
2019,9,3,09:30,UTC,1,1015.6,64,0,-1,17.5,10.6,49030,267,6.1,3.8
2019,9,3,09:40,UTC,1,1015.7,63,0,-1,17.6,10.5,48040,254,6.4,4.1
2019,9,3,09:50,UTC,1,1015.7,60,0,-1,17.9,10.1,47360,257,5.8,3.9
2019,9,3,10:00,UTC,1,1015.7,60,0,-1,17.9,10,47580,237,5.8,3.5
2019,9,3,10:10,UTC,1,1015.7,61,0,-1,17.7,10.1,50000,243,6.8,4.4
2019,9,3,10:20,UTC,1,1015.7,61,0,-1,17.6,10.1,47220,251,4.5,2.6
2019,9,3,10:30,UTC,1,1015.6,61,0,-1,17.9,10.3,47400,223,5.4,3.2
2019,9,3,10:40,UTC,1,1015.6,63,0,-1,17.6,10.5,48960,236,6.4,3.6
2019,9,3,10:50,UTC,1,1015.7,63,0,-1,17.9,10.7,47760,214,6.3,4.3
2019,9,3,11:00,UTC,1,1015.6,61,0,-1,18,10.4,46670,217,7.2,5.1
2019,9,3,11:10,UTC,1,1015.7,64,0,-1,18.1,11.2,40640,218,7.4,5.7
2019,9,3,11:20,UTC,1,1015.6,62,0,-1,18.8,11.2,47460,220,8.1,6.3
2019,9,3,11:30,UTC,0,1015.5,61,0,-1,18.5,10.8,39290,222,8.6,5.9
2019,9,3,11:40,UTC,0,1015.6,62,0,-1,18.5,11.2,49170,216,8.7,6.6
2019,9,3,11:50,UTC,1,1015.6,65,0,-1,18.5,11.7,46610,216,9.4,6.3
2019,9,3,12:00,UTC,0,1015.5,65,0,-1,18.1,11.4,46200,213,10,5.8
2019,9,3,12:10,UTC,1,1015.5,67,0,-1,17.8,11.7,43900,217,10.8,7.5
2019,9,3,12:20,UTC,1,1015.4,66,0,-1,17.8,11.3,43180,218,10.8,7.8
2019,9,3,12:30,UTC,1,1015.3,65,0,-1,17.9,11.1,50000,215,10,7.5
2019,9,3,12:40,UTC,0,1015.3,64,0,-1,18.3,11.3,50000,212,10,6.1
2019,9,3,12:50,UTC,0,1015.3,61,0,-1,18.4,10.6,47820,216,9.2,5.8
2019,9,3,13:00,UTC,0,1015.3,60,0,-1,17.9,9.9,43480,220,9.9,5.6
2019,9,3,13:10,UTC,0,1015.3,58,0,-1,18.2,9.9,45560,227,10.4,6.5
2019,9,3,13:20,UTC,0,1015.2,59,0,-1,18.1,10,43360,225,9.5,4.9
2019,9,3,13:30,UTC,0,1015.2,59,0,-1,17.9,9.7,41880,230,10.2,5.5
2019,9,3,13:40,UTC,1,1015.2,60,0,-1,17.7,9.8,44030,228,8.1,4.6
2019,9,3,13:50,UTC,1,1015.1,61,0,-1,18,10.4,43830,218,10,6.5
2019,9,3,14:00,UTC,1,1015.1,61,0,-1,17.6,9.9,50000,226,7.5,4.8
2019,9,3,14:10,UTC,1,1015.1,55,0,-1,17.7,8.5,43010,229,8,4.9
2019,9,3,14:20,UTC,0,1015.1,55,0,-1,17.8,8.7,49260,236,9.2,5.8
2019,9,3,14:30,UTC,0,1015.1,59,0,-1,17.3,9.1,43350,239,9.1,5.6
2019,9,3,14:40,UTC,1,1015,60,0,-1,17.5,9.7,44400,232,8.3,5.3
2019,9,3,14:50,UTC,1,1015,63,0,-1,17,9.9,50000,230,8.3,5.3
2019,9,3,15:00,UTC,1,1014.9,62,0,-1,17.1,9.8,46700,229,7.9,4.2
2019,9,3,15:10,UTC,1,1014.8,62,0,-1,17.4,9.9,47150,237,7.9,4.5
2019,9,3,15:20,UTC,1,1014.8,64,0,-1,17.3,10.4,50000,218,7.1,4.6
2019,9,3,15:30,UTC,0,1014.8,62,0,-1,17.5,10.3,45090,224,8.4,4.6
2019,9,3,15:40,UTC,1,1014.8,60,0,-1,17.7,9.8,50000,224,7.6,5.1
2019,9,3,15:50,UTC,0,1014.8,59,0,-1,17.6,9.4,48580,234,7.5,4
2019,9,3,16:00,UTC,1,1014.9,57,0,-1,17.4,8.6,48040,231,7.3,3.9
2019,9,3,16:10,UTC,0,1014.9,58,0,-1,17.1,8.8,50000,228,9.5,5.8
2019,9,3,16:20,UTC,0,1014.9,59,0,-1,17.1,9,48470,239,8.1,4.7
2019,9,3,16:30,UTC,0,1014.9,60,0,-1,16.9,9.1,50000,236,6.5,4.1
2019,9,3,16:40,UTC,0,1014.9,61,0,-1,16.8,9.2,46840,250,7.3,4.6
2019,9,3,16:50,UTC,0,1014.8,61,0,-1,16.6,9,50000,243,8.5,4.8
2019,9,3,17:00,UTC,0,1014.8,62,0,-1,16.5,9.1,50000,248,7.7,4.8
2019,9,3,17:10,UTC,0,1014.8,63,0,-1,16.3,9.3,50000,243,7.4,4.5
2019,9,3,17:20,UTC,0,1014.9,65,0,-1,16.2,9.5,44110,242,7.3,4.9
2019,9,3,17:30,UTC,0,1014.9,65,0,-1,16.1,9.5,48940,244,6.9,4.3
2019,9,3,17:40,UTC,0,1014.9,65,0,-1,16.1,9.5,46950,240,6.9,4.7
2019,9,3,17:50,UTC,0,1014.9,67,0,-1,15.9,9.7,49520,245,6.7,4.1
2019,9,3,18:00,UTC,0,1014.9,66,0,-1,15.9,9.5,42850,246,5.9,3.9
2019,9,3,18:10,UTC,0,1014.9,66,0,-1,15.7,9.5,46130,249,6.3,3.4
2019,9,3,18:20,UTC,0,1014.9,68,0,-1,15.6,9.7,50000,251,5.6,3.7
2019,9,3,18:30,UTC,0,1015,68,0,-1,15.5,9.7,49460,248,5.3,3.2
2019,9,3,18:40,UTC,0,1015,69,0,-1,15.5,9.8,49820,253,4.9,2.9
2019,9,3,18:50,UTC,0,1015,70,0,-1,15.4,10,48780,248,4.8,3.1
2019,9,3,19:00,UTC,0,1014.9,74,0,-1,14.6,10.1,49850,248,5.1,3.3
2019,9,3,19:10,UTC,0,1014.9,72,0,-1,15,9.9,47030,241,5.5,3.1
2019,9,3,19:20,UTC,0,1015,74,0,-1,14.6,10.1,50000,249,3.9,2.5
2019,9,3,19:30,UTC,0,1014.9,75,0,-1,14.5,10,50000,242,4.8,2.6
2019,9,3,19:40,UTC,0,1015,75,0,-1,14.4,10.1,47200,246,4,2.4
2019,9,3,19:50,UTC,0,1015,75,0,-1,14.3,10,49210,252,3.8,2.1
2019,9,3,20:00,UTC,0,1015,75,0,-1,14.2,9.8,50000,248,4,2.5
2019,9,3,20:10,UTC,0,1014.9,77,0,-1,13.6,9.6,48980,254,4.2,2.4
2019,9,3,20:20,UTC,0,1014.8,79,0,-1,13.2,9.6,50000,253,3.5,2.2
2019,9,3,20:30,UTC,0,1014.7,80,0,-1,12.8,9.5,50000,249,3.5,2.1
2019,9,3,20:40,UTC,0,1014.7,81,0,-1,12.6,9.5,50000,256,3,1.9
2019,9,3,20:50,UTC,0,1014.6,81,0,-1,12.6,9.4,50000,252,2.6,1.8
2019,9,3,21:00,UTC,0,1014.6,81,0,-1,12.5,9.3,50000,248,2.3,1.3
2019,9,3,21:10,UTC,0,1014.5,82,0,-1,12.3,9.3,50000,244,2.1,1
2019,9,3,21:20,UTC,0,1014.4,83,0,-1,12.2,9.4,49200,236,1.8,1.2
2019,9,3,21:30,UTC,0,1014.4,83,0,-1,12.1,9.3,50000,212,1.3,0.9
2019,9,3,21:40,UTC,0,1014.4,83,0,-1,12,9.2,49400,197,0.9,0.6
2019,9,3,21:50,UTC,0,1014.3,84,0,-1,11.7,9.1,49120,192,1.6,0.8
2019,9,3,22:00,UTC,0,1014.3,84,0,-1,11.7,9.1,49400,188,1.8,1
2019,9,3,22:10,UTC,0,1014.3,85,0,-1,11.6,9.1,50000,200,1.2,0.8
2019,9,3,22:20,UTC,0,1014.2,87,0,-1,11.4,9.3,48440,179,1.2,0.7
2019,9,3,22:30,UTC,1,1014.2,88,0,-1,11.3,9.3,48170,160,0.9,0.6
2019,9,3,22:40,UTC,1,1014.1,88,0,-1,11.3,9.5,46560,145,1.3,0.8
2019,9,3,22:50,UTC,1,1014.1,89,0,-1,11.4,9.7,43730,171,2.7,1.1
2019,9,3,23:00,UTC,0,1014,88,0,-1,11.6,9.6,47090,198,3.6,1.7
2019,9,3,23:10,UTC,0,1014,77,0,-1,12.9,9,50000,211,3.5,2
2019,9,3,23:20,UTC,0,1013.9,71,0,-1,13.9,8.8,50000,211,3.8,2
2019,9,3,23:30,UTC,0,1013.8,72,0,-1,13.8,8.7,48860,203,5.2,2.1
2019,9,3,23:40,UTC,0,1013.7,73,0,-1,13.9,9.1,50000,204,5.6,3.2
2019,9,3,23:50,UTC,0,1013.7,71,0,-1,14.4,9.2,50000,209,5.1,2.5
2019,9,4,00:00,UTC,0,1013.6,71,0,-1,14.5,9.3,50000,202,5.1,2.7
2019,9,4,00:10,UTC,0,1013.5,69,0,-1,14.8,9.1,50000,208,5,3.3
2019,9,4,00:20,UTC,0,1013.5,70,0,-1,14.8,9.4,50000,199,3.6,2
2019,9,4,00:30,UTC,0,1013.5,69,0,-1,15.1,9.5,50000,192,5.7,3.3
2019,9,4,00:40,UTC,0,1013.4,69,0,-1,15.1,9.4,50000,190,5.6,3.5
2019,9,4,00:50,UTC,1,1013.3,68,0,-1,15.1,9.2,50000,185,5.8,3.8
2019,9,4,01:00,UTC,3,1013.2,69,0,-1,15.4,9.7,50000,184,5.8,3.4
2019,9,4,01:10,UTC,5,1013.2,70,0,-1,15.4,10,50000,175,6,3.5
2019,9,4,01:20,UTC,7,1013.1,71,0,-1,15.5,10.3,50000,176,6.5,4
2019,9,4,01:30,UTC,7,1013,70,0,-1,15.6,10.2,50000,167,6.4,4
2019,9,4,01:40,UTC,8,1013,71,0,-1,15.6,10.3,49770,174,6.1,3.7
2019,9,4,01:50,UTC,7,1013,72,0,-1,15.7,10.8,50000,174,8.5,4.5
2019,9,4,02:00,UTC,7,1012.9,69,0,-1,15.8,10.2,50000,176,7.9,4.4
2019,9,4,02:10,UTC,7,1012.7,66,0,-1,15.9,9.5,50000,173,8.5,5.1
2019,9,4,02:20,UTC,7,1012.6,68,0,-1,15.6,9.8,50000,174,8.1,4.7
2019,9,4,02:30,UTC,5,1012.5,70,0,-1,15.4,10,50000,171,7.2,4.3
2019,9,4,02:40,UTC,5,1012.5,71,0,-1,15.5,10.2,50000,172,8.6,5.4
2019,9,4,02:50,UTC,5,1012.4,72,0,-1,15.5,10.4,49850,174,8,4.7
2019,9,4,03:00,UTC,7,1012.3,74,0,-1,15.6,10.9,50000,174,8.3,4.9
2019,9,4,03:10,UTC,7,1012.3,73,0,-1,15.7,10.9,50000,179,8.4,5.2
2019,9,4,03:20,UTC,7,1012.2,73,0,-1,15.7,10.9,50000,178,8.2,5.2
2019,9,4,03:30,UTC,7,1012.2,75,0,-1,15.6,11.2,50000,178,9,5.9
2019,9,4,03:40,UTC,7,1012.1,76,0,-1,15.5,11.3,50000,179,8.9,5.5
2019,9,4,03:50,UTC,7,1012,77,0,-1,15.5,11.6,50000,179,8.7,4.5
2019,9,4,04:00,UTC,7,1012,78,0,-1,15.7,11.8,48290,178,8.7,4.6
2019,9,4,04:10,UTC,7,1011.9,79,0,-1,15.7,12.2,50000,177,8.6,5.2
2019,9,4,04:20,UTC,7,1011.9,79,0,-1,15.8,12.1,44780,177,8.5,5.4
2019,9,4,04:30,UTC,8,1011.9,79,0,-1,15.7,12,50000,184,7.8,4.5
2019,9,4,04:40,UTC,7,1011.8,81,0,-1,15.5,12.2,46500,181,8.4,5.2
2019,9,4,04:50,UTC,7,1011.7,82,0,-1,15.6,12.4,42130,179,7.7,5
2019,9,4,05:00,UTC,7,1011.7,81,0,-1,15.6,12.5,50000,176,7.8,5.1
2019,9,4,05:10,UTC,7,1011.6,82,0,-1,15.5,12.5,48460,181,8.4,5.3
2019,9,4,05:20,UTC,7,1011.6,83,0,-1,15.6,12.6,42990,181,7.9,4.8
2019,9,4,05:30,UTC,8,1011.5,83,0,-1,15.6,12.7,42230,184,7.6,4.7
2019,9,4,05:40,UTC,7,1011.5,84,0,-1,15.7,13,45910,185,7.8,4
2019,9,4,05:50,UTC,7,1011.4,84,0,-1,15.9,13.2,42100,192,7.4,4.3
2019,9,4,06:00,UTC,7,1011.4,84,0,-1,16,13.2,39990,192,6.8,3.9
2019,9,4,06:10,UTC,7,1011.4,84,0,-1,16.2,13.5,45920,192,8,4.2
2019,9,4,06:20,UTC,7,1011.4,85,0,-1,16,13.4,43460,190,7.4,4.7
2019,9,4,06:30,UTC,7,1011.4,85,0,-1,16.2,13.6,39550,194,7.3,4.7
2019,9,4,06:40,UTC,7,1011.4,85,0,-1,16.1,13.5,37110,194,7.7,4.7
2019,9,4,06:50,UTC,7,1011.4,84,0,-1,16.2,13.5,42870,194,8.3,4.7
2019,9,4,07:00,UTC,7,1011.4,84,0,-1,16.2,13.6,43240,195,7.4,4.2
2019,9,4,07:10,UTC,7,1011.4,84,0,-1,16.4,13.6,44670,203,8.1,4.8
2019,9,4,07:20,UTC,8,1011.4,83,0,-1,16.5,13.6,48030,205,8.6,5.7
2019,9,4,07:30,UTC,8,1011.3,83,0,-1,16.5,13.7,40980,205,8.3,5
2019,9,4,07:40,UTC,7,1011.2,85,0,-1,16.7,14.1,40130,204,7.4,5.1
2019,9,4,07:50,UTC,5,1011.2,81,0,-1,17.1,13.9,33510,202,8.6,5.8
2019,9,4,08:00,UTC,7,1011.2,83,0,-1,16.7,13.8,36460,202,7.9,5.3
2019,9,4,08:10,UTC,7,1011.2,83,0,-1,16.9,13.9,40600,204,6.9,4.7
2019,9,4,08:20,UTC,7,1011.2,83,0,-1,17.1,14.1,45540,206,8.7,5.5
2019,9,4,08:30,UTC,7,1011.2,82,0,-1,17.5,14.4,36510,200,8.3,4.8
2019,9,4,08:40,UTC,7,1011.2,81,0,-1,17.6,14.2,35300,203,8.2,4.8
2019,9,4,08:50,UTC,7,1011.1,80,0,-1,17.6,14.1,40950,216,8.8,5.3
2019,9,4,09:00,UTC,7,1011.1,78,0,-1,17.9,14.1,37520,219,10.2,6.9
2019,9,4,09:10,UTC,7,1011,78,0,-1,17.8,14,46780,199,9,5.1
2019,9,4,09:20,UTC,5,1010.9,78,0,-1,18,14,36200,198,10.1,5.6
2019,9,4,09:30,UTC,3,1010.9,77,0,-1,18.4,14.2,45420,198,9.2,6.2
2019,9,4,09:40,UTC,3,1010.9,76,0,-1,18.4,14,43800,208,9.9,6.6
2019,9,4,09:50,UTC,1,1010.9,75,0,-1,18.9,14.3,41120,209,9.5,6.2
2019,9,4,10:00,UTC,1,1010.9,76,0,-1,18.4,14,33580,205,9,5.8
2019,9,4,10:10,UTC,1,1010.9,76,0,-1,18.6,14.2,38720,205,9,5.5
2019,9,4,10:20,UTC,1,1010.8,75,0,-1,18.6,14.1,30190,199,8,4.8
2019,9,4,10:30,UTC,3,1010.8,74,0,-1,19,14.2,35030,202,10.2,6
2019,9,4,10:40,UTC,5,1010.8,74,0,-1,18.5,13.8,49110,205,8.8,5.1
2019,9,4,10:50,UTC,7,1010.7,74,0,-1,19.3,14.5,42130,204,9.1,5.1
2019,9,4,11:00,UTC,5,1010.8,69,0,-1,19.5,13.8,41130,210,10,5.7
2019,9,4,11:10,UTC,3,1010.8,72,0,-1,18.9,13.8,34800,226,8.5,4
2019,9,4,11:20,UTC,5,1010.8,76,0,-1,18.4,14.1,41320,222,8.7,4.7
2019,9,4,11:30,UTC,5,1010.8,77,0,-1,18.4,14.2,45820,210,9.9,5.1
2019,9,4,11:40,UTC,7,1010.9,74,0,-1,19.1,14.4,37500,221,9.3,6.2
2019,9,4,11:50,UTC,,,,,,,,,216,9.6,7.1
2019,9,4,12:00,UTC,5,1010.7,75,0,-1,18.5,14.1,34740,219,10,6.2
2019,9,4,12:10,UTC,3,1010.8,75,0,-1,18.8,14.3,40000,219,8.2,5.3
2019,9,4,12:20,UTC,1,1010.8,76,0,-1,18.4,14,39310,215,10.7,7.2
2019,9,4,12:30,UTC,1,1010.6,79,0,-1,18.2,14.5,43710,216,10.5,7.3
2019,9,4,12:40,UTC,1,1010.5,75,0,-1,18.6,14,44700,217,8.8,6.3
2019,9,4,12:50,UTC,1,1010.5,75,0,-1,18.6,14.2,39590,217,8.5,6.8
2019,9,4,13:00,UTC,0,1010.5,72,0,-1,18.3,13.1,42630,215,8.6,6.2
2019,9,4,13:10,UTC,1,1010.5,70,0,-1,18.7,13.1,46220,216,8.7,5.6
2019,9,4,13:20,UTC,3,1010.5,71,0,-1,18.5,13.2,44780,215,8.1,5.5
2019,9,4,13:30,UTC,5,1010.5,69,0,-1,18.6,12.8,43950,215,8.4,6
2019,9,4,13:40,UTC,5,1010.7,66,0,-1,18.8,12.3,49530,213,8.6,6.2
2019,9,4,13:50,UTC,3,1010.7,64,0,-1,19.1,12.1,46180,223,9.2,5.3
2019,9,4,14:00,UTC,1,1010.8,62,0,-1,18.7,11.3,50000,230,9.6,5.5
2019,9,4,14:10,UTC,1,1010.7,64,0,-1,18.4,11.4,47970,220,9.4,6.2
2019,9,4,14:20,UTC,1,1010.7,65,0,-1,18.6,11.8,47500,226,8.7,4.5
2019,9,4,14:30,UTC,0,1010.8,65,0,-1,18.4,11.8,50000,216,8.5,5.6
2019,9,4,14:40,UTC,0,1010.7,65,0,-1,18.3,11.6,50000,216,8.3,5.9
2019,9,4,14:50,UTC,0,1010.7,65,0,-1,18.2,11.6,50000,221,8.2,4.8
2019,9,4,15:00,UTC,0,1010.7,68,0,-1,18.2,12.2,43470,217,9,6
2019,9,4,15:10,UTC,0,1010.8,71,0,-1,17.6,12.3,50000,216,9.9,6.8
2019,9,4,15:20,UTC,0,1010.7,72,0,-1,17.3,12.3,48380,219,9.2,5.6
2019,9,4,15:30,UTC,0,1010.7,71,0,-1,17.3,12.1,50000,219,8.7,5.7
2019,9,4,15:40,UTC,0,1010.8,70,0,-1,17.4,11.9,42940,221,8,5
2019,9,4,15:50,UTC,0,1010.9,71,0,-1,17.3,12.1,49050,226,8.5,4.7
2019,9,4,16:00,UTC,0,1010.9,71,0,-1,17.3,12,44010,232,6.9,3.9
2019,9,4,16:10,UTC,0,1011,70,0,-1,17.5,12,49370,229,7.2,4.1
2019,9,4,16:20,UTC,0,1011,68,0,-1,17.5,11.6,50000,240,7.3,3.7
2019,9,4,16:30,UTC,0,1011.1,69,0,-1,17.2,11.5,50000,238,7.9,3.9
2019,9,4,16:40,UTC,0,1011.1,70,0,-1,17.1,11.5,50000,240,7.2,4.3
2019,9,4,16:50,UTC,1,1011.2,72,0,-1,16.9,12,50000,235,7.1,4
2019,9,4,17:00,UTC,1,1011.3,76,0,-1,16.7,12.4,50000,218,6.1,3.6
2019,9,4,17:10,UTC,1,1011.3,77,0,-1,16.6,12.5,48890,224,6.4,4.1
2019,9,4,17:20,UTC,5,1011.3,77,0,-1,16.5,12.6,50000,231,5.3,3.2
2019,9,4,17:30,UTC,5,1011.3,79,0,-1,16.5,12.8,50000,236,4.3,2.7
2019,9,4,17:40,UTC,7,1011.3,79,0,-1,16.5,12.8,48380,230,3.9,2.3
2019,9,4,17:50,UTC,5,1011.4,78,0,-1,16.4,12.5,50000,242,5.8,3.2
2019,9,4,18:00,UTC,7,1011.5,75,0,-1,16.5,12.1,50000,241,4.9,3
2019,9,4,18:10,UTC,3,1011.5,75,0,-1,16.4,12.1,50000,238,4.4,2.6
2019,9,4,18:20,UTC,1,1011.6,78,0,-1,16.2,12.4,50000,240,4.3,2.8
2019,9,4,18:30,UTC,1,1011.6,79,0,-1,16.1,12.4,50000,226,5,3.2
2019,9,4,18:40,UTC,0,1011.7,80,0,-1,16,12.5,50000,238,4.6,2.7
2019,9,4,18:50,UTC,0,1011.6,80,0,-1,15.9,12.5,50000,243,5.2,2.7
2019,9,4,19:00,UTC,0,1011.7,80,0,-1,15.8,12.4,50000,237,4.5,2.2
2019,9,4,19:10,UTC,0,1011.8,81,0,-1,15.8,12.5,50000,237,4,2.2
2019,9,4,19:20,UTC,0,1011.9,82,0,-1,15.7,12.6,50000,236,4.8,2.6
2019,9,4,19:30,UTC,0,1011.9,83,0,-1,15.6,12.7,50000,239,4.7,2.3
2019,9,4,19:40,UTC,0,1011.8,82,0,-1,15.5,12.5,50000,230,3.9,2.2
2019,9,4,19:50,UTC,0,1011.8,82,0,-1,15.5,12.4,50000,246,3.8,2.3
2019,9,4,20:00,UTC,0,1011.8,83,0,-1,15.4,12.4,50000,238,4.2,2.5
2019,9,4,20:10,UTC,0,1011.9,83,0,-1,15.3,12.5,50000,233,4.7,2.8
2019,9,4,20:20,UTC,0,1011.9,83,0,-1,15.3,12.4,50000,242,4.6,2.9
2019,9,4,20:30,UTC,0,1011.9,83,0,-1,15.2,12.3,50000,245,4.2,2.9
2019,9,4,20:40,UTC,0,1011.9,83,0,-1,15,12.2,50000,242,3.3,2.2
2019,9,4,20:50,UTC,0,1011.9,84,0,-1,14.8,12.1,50000,251,4.5,2.5
2019,9,4,21:00,UTC,3,1011.9,87,0,-1,14.1,12,50000,251,3,1.9
2019,9,4,21:10,UTC,3,1011.8,89,0,-1,14,12.1,50000,254,2.8,1.9
2019,9,4,21:20,UTC,5,1011.8,89,0,-1,14,12.3,50000,246,2.7,1.6
2019,9,4,21:30,UTC,5,1011.8,89,0,-1,14,12.2,50000,249,3.1,2
2019,9,4,21:40,UTC,3,1011.8,90,0,-1,13.7,12.1,50000,256,2.5,1.8
2019,9,4,21:50,UTC,3,1011.8,90,0,-1,13.7,12.1,50000,244,3,1.9
2019,9,4,22:00,UTC,5,1011.8,90,0,-1,13.9,12.3,50000,229,2.8,1.8
2019,9,4,22:10,UTC,5,1011.8,90,0,-1,13.7,12.1,50000,246,2.5,1.6
2019,9,4,22:20,UTC,7,1011.8,90,0,-1,13.8,12.2,50000,233,3,2
2019,9,4,22:30,UTC,3,1011.7,89,0,-1,13.7,11.9,50000,240,2.1,1.3
2019,9,4,22:40,UTC,1,1011.7,90,0,-1,13.5,11.8,49280,240,2,1.2
2019,9,4,22:50,UTC,1,1011.7,90,0,-1,13.2,11.6,50000,219,2.2,1.4
2019,9,4,23:00,UTC,0,1011.7,92,0,-1,13,11.6,49900,222,1.9,1.3
2019,9,4,23:10,UTC,0,1011.7,92,0,-1,12.8,11.6,50000,203,1.8,1.2
2019,9,4,23:20,UTC,0,1011.7,92,0,-1,12.7,11.5,50000,204,1.6,1
2019,9,4,23:30,UTC,1,1011.7,93,0,-1,12.8,11.6,50000,194,1.7,1
2019,9,4,23:40,UTC,3,1011.6,92,0,-1,13.1,11.8,50000,198,1.4,0.7
2019,9,4,23:50,UTC,5,1011.6,91,0,-1,13.4,12,50000,181,1.4,1
2019,9,5,00:00,UTC,3,1011.6,89,0,-1,13.6,11.9,50000,173,2.3,1.2
2019,9,5,00:10,UTC,5,1011.6,90,0,-1,13.5,11.8,50000,179,2,1.1
2019,9,5,00:20,UTC,1,1011.5,86,0,-1,14.1,11.8,50000,183,2.8,1.5
2019,9,5,00:30,UTC,1,1011.5,80,0,-1,15.1,11.7,50000,202,4.5,2.4
2019,9,5,00:40,UTC,3,1011.5,79,0,-1,15.3,11.6,50000,210,4.9,2.7
2019,9,5,00:50,UTC,3,1011.4,77,0,-1,15.5,11.6,50000,212,4.6,2.6
2019,9,5,01:00,UTC,5,1011.3,77,0,-1,15.6,11.6,50000,212,5,1.8
2019,9,5,01:10,UTC,5,1011.2,78,0,-1,15.6,11.8,50000,209,5.1,2.6
2019,9,5,01:20,UTC,7,1011.2,81,0,-1,15.7,12.5,50000,205,6.5,3.6
2019,9,5,01:30,UTC,3,1011.2,82,0,-1,15.5,12.4,50000,210,8,4.9
2019,9,5,01:40,UTC,3,1011.2,82,0,-1,15.4,12.3,49860,203,8,4.6
2019,9,5,01:50,UTC,1,1011.2,81,0,-1,15.3,12.1,50000,198,6.3,3.6
2019,9,5,02:00,UTC,1,1011.1,82,0,-1,15.3,12.2,50000,194,6.7,3.3
2019,9,5,02:10,UTC,1,1011.1,83,0,-1,15.4,12.5,50000,198,5.3,2.9
2019,9,5,02:20,UTC,1,1011,84,0,-1,15.3,12.6,48960,193,6.5,3.8
2019,9,5,02:30,UTC,1,1010.9,85,0,-1,15.4,12.9,41640,195,7.1,4.2
2019,9,5,02:40,UTC,1,1010.8,86,0,-1,15.2,12.8,42710,192,6.9,4
2019,9,5,02:50,UTC,1,1010.8,87,0,-1,15.2,13.1,39170,193,7.3,4.5
2019,9,5,03:00,UTC,1,1010.8,86,0,-1,15.2,12.9,40830,190,9.2,4.6
2019,9,5,03:10,UTC,3,1010.8,87,0,-1,15.2,13,37820,194,8.6,4.5
2019,9,5,03:20,UTC,1,1010.7,88,0,-1,15,13.1,39700,192,8.3,4.4
2019,9,5,03:30,UTC,1,1010.6,89,0,-1,15,13.2,39180,188,7.9,4.7
2019,9,5,03:40,UTC,1,1010.7,88,0,-1,15.1,13.1,37800,190,8.9,4.4
2019,9,5,03:50,UTC,1,1010.6,87,0,-1,15.2,13.2,35300,192,8.3,4.5
2019,9,5,04:00,UTC,5,1010.5,86,0,-1,15.3,13,42810,189,8.9,4.7
2019,9,5,04:10,UTC,5,1010.4,85,0,-1,15.5,13,38740,185,8,4.4
2019,9,5,04:20,UTC,7,1010.4,83,0,-1,15.6,12.6,40290,179,7.2,4.5
2019,9,5,04:30,UTC,5,1010.2,83,0,-1,15.5,12.7,41420,176,8.8,5.1
2019,9,5,04:40,UTC,5,1010.2,84,0,-1,15.6,12.8,38890,179,8.5,5.1
2019,9,5,04:50,UTC,5,1010.2,83,0,-1,15.5,12.6,37450,174,7.9,4.7
2019,9,5,05:00,UTC,7,1010.1,80,0,-1,15.8,12.3,38250,176,8.7,5.3
2019,9,5,05:10,UTC,7,1010.1,79,0,-1,15.8,12.2,36360,177,9.3,5.6
2019,9,5,05:20,UTC,3,1010.2,81,0,-1,15.5,12.2,40940,174,8.5,6
2019,9,5,05:30,UTC,1,1010.3,80,0,-1,15.8,12.3,36510,178,9.1,5.3
2019,9,5,05:40,UTC,3,1010.2,78,0,-1,16.2,12.5,40120,184,8.7,5
2019,9,5,05:50,UTC,5,1010.1,80,0,-1,16.1,12.7,37300,181,7.6,4.6
2019,9,5,06:00,UTC,7,1010,81,0,-1,15.9,12.6,36030,185,8.8,4.6
2019,9,5,06:10,UTC,7,1010,82,0,-1,15.8,12.7,40080,180,7.4,4.5
2019,9,5,06:20,UTC,8,1009.9,82,0,-1,15.8,12.6,36290,177,7.9,5.2
2019,9,5,06:30,UTC,8,1009.8,83,0,-1,15.8,12.9,37390,175,7.6,4.8
2019,9,5,06:40,UTC,7,1009.7,84,0,-1,16,13.2,36650,177,8.6,5
2019,9,5,06:50,UTC,7,1009.6,84,0,-1,16.1,13.4,42910,171,8.5,5
2019,9,5,07:00,UTC,7,1009.6,84,0,-1,16.2,13.5,38090,173,9.4,5
2019,9,5,07:10,UTC,5,1009.6,82,0,-1,16.6,13.6,36980,178,9.2,5.6
2019,9,5,07:20,UTC,7,1009.6,83,0,-1,16.5,13.6,39110,179,8.3,5.2
2019,9,5,07:30,UTC,7,1009.5,84,0,-1,16.5,13.7,34580,177,9.6,6
2019,9,5,07:40,UTC,7,1009.5,83,0,-1,16.6,13.6,37350,180,8.9,5.2
2019,9,5,07:50,UTC,7,1009.5,83,0,-1,16.5,13.6,41300,178,9.4,5.3
2019,9,5,08:00,UTC,7,1009.4,83,0,-1,16.6,13.6,42890,176,9.6,5.8
2019,9,5,08:10,UTC,7,1009.4,83,0,-1,16.7,13.8,42360,174,9.4,5.7
2019,9,5,08:20,UTC,7,1009.3,83,0,-1,16.6,13.7,42610,169,8.5,5.4
2019,9,5,08:30,UTC,7,1009.2,83,0,-1,16.8,13.9,40960,165,8,5.2
2019,9,5,08:40,UTC,7,1009.1,83,0,-1,16.8,13.9,40740,168,9.1,6.1
2019,9,5,08:50,UTC,7,1009,83,0,-1,17.1,14.1,39710,167,8.9,5.7
2019,9,5,09:00,UTC,7,1008.9,81,0,-1,17.5,14.2,38330,166,9.2,5.4
2019,9,5,09:10,UTC,7,1008.8,76,0,-1,18.6,14.3,40610,168,9.1,5.6
2019,9,5,09:20,UTC,7,1008.8,75,0,-1,18.6,14,35900,167,10.1,5.8
2019,9,5,09:30,UTC,7,1008.7,75,0,-1,18.7,14.1,34720,173,8.7,5.8
2019,9,5,09:40,UTC,5,1008.6,74,0,-1,19.3,14.5,37260,166,9.8,6.1
2019,9,5,09:50,UTC,5,1008.4,71,0,-1,19.5,14.1,46170,162,11.1,6.7
2019,9,5,10:00,UTC,3,1008.3,73,0,-1,19.3,14.4,40880,164,10.7,7.5
2019,9,5,10:10,UTC,3,1008.3,75,0,-1,18.9,14.3,36590,159,9.9,5.6
2019,9,5,10:20,UTC,5,1008.1,76,0,-1,18.7,14.3,42690,160,10.1,5.2
2019,9,5,10:30,UTC,5,1008,75,0,-1,18.6,14.1,42490,160,9.7,5.5
2019,9,5,10:40,UTC,7,1007.9,76,0,-1,18.7,14.3,46530,158,9.5,5.6
2019,9,5,10:50,UTC,7,1007.9,76,0,-1,18.6,14.2,32570,158,10,5.9
2019,9,5,11:00,UTC,7,1007.8,75,0,-1,18.6,14.1,40770,160,8.6,5.5
2019,9,5,11:10,UTC,7,1007.8,75,0,-1,18.9,14.4,32730,161,9.9,5.7
2019,9,5,11:20,UTC,7,1007.7,72,0,-1,19.3,14.2,43650,163,9.9,6.1
2019,9,5,11:30,UTC,7,1007.7,72,0,-1,19.3,14.1,42940,169,9.2,6
2019,9,5,11:40,UTC,7,1007.7,73,0,-1,19.2,14.2,43810,169,10,6.3
2019,9,5,11:50,UTC,7,1007.6,73,0,-1,19.4,14.3,45440,169,9.3,5.7
2019,9,5,12:00,UTC,5,1007.5,73,0,-1,19.4,14.3,42610,169,9.1,5.3
2019,9,5,12:10,UTC,7,1007.4,73,0,-1,19.4,14.4,42430,166,9.8,5.7
2019,9,5,12:20,UTC,7,1007.3,73,0,-1,19.4,14.5,39570,163,9.8,5.7
2019,9,5,12:30,UTC,7,1007.3,74,0,-1,19.4,14.7,42730,165,8.7,4.8
2019,9,5,12:40,UTC,7,1007.4,72,0,-1,19.6,14.4,39430,175,7.1,3.9
2019,9,5,12:50,UTC,7,1007.3,74,0,-1,19.3,14.6,40950,185,9.4,4.9
2019,9,5,13:00,UTC,7,1007.3,70,0,-1,19.5,14,42520,188,9.4,5.2
2019,9,5,13:10,UTC,7,1007.3,69,0,-1,19.6,13.7,40640,201,9.7,5.7
2019,9,5,13:20,UTC,7,1007.4,70,0,-1,19.7,14,30250,208,10.4,6.5
2019,9,5,13:30,UTC,7,1007.4,75,0,-1,19.2,14.7,27480,208,8,5.2
2019,9,5,13:40,UTC,7,1007.5,74,0,-1,19.2,14.5,37520,207,7.7,4.9
2019,9,5,13:50,UTC,8,1007.7,77,0,-1,18.9,14.7,28900,210,7.1,4.4
2019,9,5,14:00,UTC,7,1007.9,81,0,-1,18.2,14.9,12710,223,9.2,5.1
2019,9,5,14:10,UTC,7,1008.1,86,0.7,-1,17.5,15.2,8910,238,9.4,5.3
2019,9,5,14:20,UTC,5,1008,89,1.4,-1,17.1,15.2,5740,237,11.6,5.2
2019,9,5,14:30,UTC,5,1007.9,91,2.6,-1,16.7,15.3,5010,234,10.6,5.9
2019,9,5,14:40,UTC,5,1007.8,89,0.7,-1,16.8,15,16000,230,8.9,4.9
2019,9,5,14:50,UTC,7,1008,88,0,-1,16.9,14.9,9560,220,8.5,4.8
2019,9,5,15:00,UTC,7,1007.8,90,1.5,-1,16.6,14.9,9480,218,10.8,6.5
2019,9,5,15:10,UTC,7,1007.6,86,0.3,-1,16.8,14.5,23860,217,8.4,5.1
2019,9,5,15:20,UTC,7,1007.5,83,0,-1,17.3,14.4,30880,220,8.4,5.2
2019,9,5,15:30,UTC,7,1007.5,81,0,-1,17.6,14.3,39350,221,7.3,5.1
2019,9,5,15:40,UTC,7,1007.4,81,0,-1,17.7,14.4,35730,219,7.1,4.1
2019,9,5,15:50,UTC,8,1007.4,81,0,-1,17.7,14.4,31400,220,7.8,4.8
2019,9,5,16:00,UTC,7,1007.5,81,0,-1,17.8,14.6,38480,215,7.4,4.7
2019,9,5,16:10,UTC,7,1007.5,84,0,-1,17.5,14.8,17660,209,7.9,4.4
2019,9,5,16:20,UTC,7,1007.4,86,0.4,-1,17.3,15,20060,199,8.5,4.3
2019,9,5,16:30,UTC,7,1007.5,88,0.1,-1,17.2,15.2,17630,198,7.3,4.2
2019,9,5,16:40,UTC,7,1007.4,87,0.3,-1,17.4,15.2,23440,200,7.3,4
2019,9,5,16:50,UTC,7,1007.4,87,0,-1,17.5,15.3,29650,198,7,3.5
2019,9,5,17:00,UTC,7,1007.5,84,0,-1,17.7,15,23530,209,7.9,4.3
2019,9,5,17:10,UTC,7,1007.5,84,0,-1,17.6,15,18710,209,9.7,5.1
2019,9,5,17:20,UTC,7,1007.6,86,1.3,-1,17.1,14.8,9280,204,10.1,6
2019,9,5,17:30,UTC,7,1007.6,84,0.5,-1,16.9,14.3,18510,203,10.1,5.6
2019,9,5,17:40,UTC,7,1007.6,82,0.4,-1,17.1,14,22180,212,11.7,6
2019,9,5,17:50,UTC,7,1007.5,86,0.5,-1,16.9,14.6,12750,211,9.3,5.1
2019,9,5,18:00,UTC,7,1007.6,90,1,-1,16.8,15.1,10520,200,8.3,5.2
2019,9,5,18:10,UTC,7,1007.5,90,0.3,-1,16.8,15.2,19780,205,7.4,4.7
2019,9,5,18:20,UTC,7,1007.4,89,0,-1,16.8,15,28700,203,8.9,4.3
2019,9,5,18:30,UTC,7,1007.5,85,0,-1,17,14.6,35170,202,8.6,4.1
2019,9,5,18:40,UTC,7,1007.4,87,0,-1,17.1,14.9,39360,205,9.9,5.5
2019,9,5,18:50,UTC,7,1007.5,88,0,-1,17.1,15.2,35450,198,9,5.1
2019,9,5,19:00,UTC,7,1007.5,87,0,-1,17.1,14.9,37940,199,11.3,5.4
2019,9,5,19:10,UTC,7,1007.4,87,0,-1,17,14.9,39460,204,9.5,4.8
2019,9,5,19:20,UTC,7,1007.4,87,0,-1,17,14.9,36160,204,8.9,5.8
2019,9,5,19:30,UTC,7,1007.5,88,0,-1,17.1,15,33590,205,9.2,5.8
2019,9,5,19:40,UTC,7,1007.4,88,0,-1,17.1,15.1,36500,207,9.4,5.8
2019,9,5,19:50,UTC,7,1007.4,88,0,-1,17,15,38790,206,9,5.2
2019,9,5,20:00,UTC,7,1007.5,88,0,-1,16.9,14.9,31840,210,8.6,6
2019,9,5,20:10,UTC,7,1007.6,88,0,-1,16.8,14.8,34970,211,8.2,4.9
2019,9,5,20:20,UTC,7,1007.6,88,0,-1,16.8,14.7,45200,211,9.4,5.3
2019,9,5,20:30,UTC,7,1007.6,88,0,-1,16.8,14.7,49000,213,9.4,6.2
2019,9,5,20:40,UTC,7,1007.7,88,0,-1,16.7,14.7,40000,216,8.4,4.9
2019,9,5,20:50,UTC,7,1007.6,87,0,-1,16.7,14.5,43820,216,8.3,5.2
2019,9,5,21:00,UTC,7,1007.6,87,0,-1,16.6,14.4,39520,211,9.4,5.4
2019,9,5,21:10,UTC,7,1007.5,88,0,-1,16.5,14.5,38910,210,9.8,5
2019,9,5,21:20,UTC,7,1007.5,88,0,-1,16.4,14.4,41930,212,8.2,5.3
2019,9,5,21:30,UTC,7,1007.5,88,0,-1,16.4,14.3,38110,218,7.9,5.2
2019,9,5,21:40,UTC,5,1007.6,88,0,-1,16.2,14.2,42750,220,9.2,5.2
2019,9,5,21:50,UTC,3,1007.6,88,0,-1,16.2,14.2,38600,217,8.7,4.9
2019,9,5,22:00,UTC,1,1007.6,88,0,-1,16.2,14.1,39560,215,7.7,5.2
2019,9,5,22:10,UTC,0,1007.6,88,0,-1,16.1,14.2,36860,210,7.7,4.6
2019,9,5,22:20,UTC,1,1007.7,88,0,-1,16,14.1,37870,219,7.8,4.6
2019,9,5,22:30,UTC,1,1007.7,88,0,-1,16.1,14.2,37860,213,8.7,5.5
2019,9,5,22:40,UTC,1,1007.7,88,0,-1,16.1,14.1,30750,212,8.8,5.4
2019,9,5,22:50,UTC,3,1007.7,87,0,-1,16.1,14.1,34270,213,8.5,4.4
2019,9,5,23:00,UTC,3,1007.8,88,0,-1,16.1,14.1,38740,211,7.9,4.6
2019,9,5,23:10,UTC,5,1007.8,88,0,-1,16.1,14.1,36150,211,7.8,5
2019,9,5,23:20,UTC,5,1007.7,88,0,-1,16,14,35710,210,8,4.3
2019,9,5,23:30,UTC,1,1007.7,88,0,-1,15.9,13.9,34090,211,7.9,5
2019,9,5,23:40,UTC,3,1007.8,89,0,-1,15.8,14,29670,211,8.5,5
2019,9,5,23:50,UTC,1,1007.9,89,0,-1,15.7,13.8,33600,208,8.9,4.8
2019,9,6,00:00,UTC,1,1007.9,90,0,-1,15.7,14,30350,205,8.5,5.1
2019,9,6,00:10,UTC,0,1007.9,91,0,-1,15.5,14,31490,204,8.2,4.4
2019,9,6,00:20,UTC,0,1008,91,0,-1,15.4,14,27700,211,7.7,4.5
2019,9,6,00:30,UTC,0,1008.1,90,0,-1,15.5,13.9,31100,209,8.4,4.8
2019,9,6,00:40,UTC,0,1008.1,90,0,-1,15.5,13.9,32350,210,8.5,5.9
2019,9,6,00:50,UTC,0,1008.1,90,0,-1,15.4,13.7,32960,209,9.6,5.4
2019,9,6,01:00,UTC,0,1008.1,89,0,-1,15.5,13.7,31740,209,8.4,4.7
2019,9,6,01:10,UTC,1,1008.1,90,0,-1,15.5,13.8,28380,205,9.6,4.9
2019,9,6,01:20,UTC,1,1008,90,0,-1,15.4,13.7,30650,204,8.9,5.7
2019,9,6,01:30,UTC,1,1007.9,89,0,-1,15.5,13.7,33380,206,9.5,5.5
2019,9,6,01:40,UTC,0,1008,90,0,-1,15.5,13.8,35450,207,10.6,5.9
2019,9,6,01:50,UTC,1,1008,89,0,-1,15.6,13.8,29110,206,10.1,5.4
2019,9,6,02:00,UTC,1,1008,90,0,-1,15.5,13.8,35070,205,8.8,5.5
2019,9,6,02:10,UTC,1,1007.9,90,0,-1,15.4,13.7,28880,205,9.8,5.8
2019,9,6,02:20,UTC,0,1007.8,89,0,-1,15.4,13.7,31610,202,9.3,5.5
2019,9,6,02:30,UTC,0,1007.9,89,0,-1,15.4,13.6,32270,206,8.5,4.9
2019,9,6,02:40,UTC,0,1007.8,88,0,-1,15.5,13.6,34790,204,9.8,4.9
2019,9,6,02:50,UTC,1,1007.8,88,0,-1,15.5,13.4,33990,202,9.7,4.9
2019,9,6,03:00,UTC,1,1007.9,87,0,-1,15.5,13.4,38230,207,9.4,5.8
2019,9,6,03:10,UTC,1,1007.8,87,0,-1,15.5,13.4,39920,208,8.7,5.4
2019,9,6,03:20,UTC,1,1008,88,0,-1,15.4,13.4,36940,204,9.4,6.1
2019,9,6,03:30,UTC,1,1007.9,88,0,-1,15.5,13.5,34260,203,8.5,4.9
2019,9,6,03:40,UTC,3,1007.8,87,0,-1,15.6,13.5,33550,206,10.1,6.2
2019,9,6,03:50,UTC,5,1007.9,87,0,-1,15.6,13.5,26420,207,10.1,6.7
2019,9,6,04:00,UTC,5,1007.9,89,0,-1,15.6,13.7,23820,208,11,6.4
2019,9,6,04:10,UTC,5,1008,89,0,-1,15.5,13.7,30950,209,10.5,6.4
2019,9,6,04:20,UTC,1,1008,88,0,-1,15.4,13.4,33050,210,11,6
2019,9,6,04:30,UTC,3,1008,85,0,-1,15.5,13.1,38610,211,8.6,5.5
2019,9,6,04:40,UTC,3,1008,84,0,-1,15.7,12.9,41310,212,9.6,5.8
2019,9,6,04:50,UTC,1,1008,84,0,-1,15.7,13.1,41090,209,9.8,5.5
2019,9,6,05:00,UTC,1,1008.1,85,0,-1,15.6,13.1,44980,211,8.4,5.3
2019,9,6,05:10,UTC,0,1008.2,85,0,-1,15.9,13.4,40350,212,8.7,5.1
2019,9,6,05:20,UTC,3,1008.2,85,0,-1,16.3,13.7,21750,209,9.4,4.9
2019,9,6,05:30,UTC,5,1008.4,84,0.5,-1,15.3,12.6,8730,229,7.8,4.7
2019,9,6,05:40,UTC,7,1008.6,91,10.1,-1,14.4,12.9,1430,224,9.4,5.4
2019,9,6,05:50,UTC,7,1008.5,92,3.5,-1,14,12.7,3860,207,7.2,4.3
2019,9,6,06:00,UTC,7,1008.5,93,3.6,-1,13.9,12.8,5840,216,4.9,2.6
2019,9,6,06:10,UTC,7,1008.7,95,0.2,-1,14,13.1,15480,232,4.5,2.1
2019,9,6,06:20,UTC,7,1008.4,92,0.4,-1,14.4,13.1,11000,226,4.8,2.8
2019,9,6,06:30,UTC,5,1008.6,90,0.3,-1,14.5,12.9,32930,241,6.3,3.2
2019,9,6,06:40,UTC,5,1008.7,91,0,-1,15,13.5,32170,225,5.3,2.6
2019,9,6,06:50,UTC,5,1008.9,89,0,-1,14.8,12.9,30860,222,5.3,3.3
2019,9,6,07:00,UTC,7,1008.8,90,0,-1,14.5,12.8,26250,227,6.3,3.4
2019,9,6,07:10,UTC,7,1008.9,90,0,-1,14.5,12.9,25380,229,6.1,3.1
2019,9,6,07:20,UTC,7,1009,91,0,-1,14.5,13.1,29100,216,4,2.4
2019,9,6,07:30,UTC,7,1009.3,88,0,-1,14.8,12.9,31190,210,6,4
2019,9,6,07:40,UTC,7,1009.5,86,0,-1,14.9,12.7,35170,218,6.6,4.3
2019,9,6,07:50,UTC,7,1009.5,86,0,-1,15,12.7,39930,218,5.7,3.7
2019,9,6,08:00,UTC,5,1009.6,81,0,-1,15.4,12.2,39390,222,5.3,3.1
2019,9,6,08:10,UTC,3,1009.6,77,0,-1,15.8,11.8,37030,220,5.1,3.1
2019,9,6,08:20,UTC,1,1009.7,74,0,-1,16.1,11.3,39360,228,6.2,3.8
2019,9,6,08:30,UTC,1,1009.7,73,0,-1,15.8,11,38710,224,9.1,4.4
2019,9,6,08:40,UTC,5,1009.8,79,0,-1,15.4,11.7,22890,216,9,5.9
2019,9,6,08:50,UTC,5,1010,77,0,-1,15.4,11.5,45610,210,4.8,3.1
2019,9,6,09:00,UTC,5,1010,74,0,-1,16.4,11.7,33310,207,6.1,4.2
2019,9,6,09:10,UTC,3,1010.2,74,0,-1,16.4,11.7,45610,219,8.6,5.7
2019,9,6,09:20,UTC,1,1010.2,74,0,-1,16.5,11.9,42430,220,7.8,5.1
2019,9,6,09:30,UTC,3,1010.5,78,0,-1,16,12.1,31220,218,8.2,4.8
2019,9,6,09:40,UTC,5,1010.7,80,0,-1,14.8,11.4,9520,224,11.4,7.4
2019,9,6,09:50,UTC,7,1010.9,76,0.9,-1,14.6,10.3,31600,233,9.1,5.6
2019,9,6,10:00,UTC,7,1010.4,83,0.7,-1,13.8,11,4640,226,10.3,5.4
2019,9,6,10:10,UTC,3,1010.3,82,2,-1,13.6,10.6,36890,202,7.7,3.5
2019,9,6,10:20,UTC,1,1010.8,71,0,-1,15.1,9.9,49820,232,6.5,3.4
2019,9,6,10:30,UTC,1,1011.1,73,0,-1,15.7,10.8,47540,238,7.1,4.1
2019,9,6,10:40,UTC,0,1011.1,70,0,-1,16,10.6,40250,237,8.4,4.7
2019,9,6,10:50,UTC,0,1011.2,67,0,-1,16,9.9,41030,227,8.9,4.8
2019,9,6,11:00,UTC,0,1011.3,67,0,-1,16.2,10,43760,227,11.1,5.3
2019,9,6,11:10,UTC,0,1011.4,67,0,-1,16,9.8,37180,226,9.9,5.7
2019,9,6,11:20,UTC,0,1011.4,70,0,-1,16.6,11,40130,225,8.5,5.2
2019,9,6,11:30,UTC,1,1011.6,74,0,-1,15.7,11.1,24390,226,8.6,5.3
2019,9,6,11:40,UTC,3,1011.7,78,0.3,-1,15.4,11.5,14420,236,7.7,4.1
2019,9,6,11:50,UTC,1,1011.9,69,0,-1,15.3,9.7,34730,246,10.4,5.5
2019,9,6,12:00,UTC,3,1012,74,0,-1,14.8,10.3,18000,249,10.9,6.3
2019,9,6,12:10,UTC,3,1012.1,71,0.4,-1,15.3,10.2,48040,243,9.7,5.6
2019,9,6,12:20,UTC,3,1012.3,70,0,-1,15.1,9.6,48080,247,9.1,5
2019,9,6,12:30,UTC,3,1012.4,70,0,-1,15.7,10.3,44040,243,7.1,4.4
2019,9,6,12:40,UTC,1,1012.4,72,0,-1,15.8,10.9,49610,240,8.1,4.4
2019,9,6,12:50,UTC,1,1012.4,74,0,-1,16.2,11.5,41980,230,7.2,4.4
2019,9,6,13:00,UTC,1,1012.4,69,0,-1,16.3,10.7,45210,240,7.7,4.5
2019,9,6,13:10,UTC,0,1012.5,70,0,-1,16.6,11.1,42150,243,7.2,4.7
2019,9,6,13:20,UTC,0,1012.6,72,0,-1,16.8,11.7,46340,239,7.2,3.8
2019,9,6,13:30,UTC,0,1012.7,67,0,-1,17.2,11.1,48710,233,8.5,4.3
2019,9,6,13:40,UTC,1,1012.9,65,0,-1,17,10.4,47750,239,10.6,6
2019,9,6,13:50,UTC,0,1013.1,66,0,-1,17,10.7,47910,243,9.2,5.1
2019,9,6,14:00,UTC,0,1013.1,66,0,-1,16.9,10.6,50000,232,8.9,5.3
2019,9,6,14:10,UTC,0,1013.1,65,0,-1,16.9,10.2,50000,241,10,6
2019,9,6,14:20,UTC,0,1013.3,64,0,-1,17,10.2,50000,241,7.4,4.9
2019,9,6,14:30,UTC,0,1013.4,67,0,-1,16.7,10.4,50000,238,9.1,5
2019,9,6,14:40,UTC,3,1013.6,68,0,-1,16.6,10.6,50000,249,7.9,4.3
2019,9,6,14:50,UTC,3,1013.7,61,0,-1,16.9,9.3,50000,274,9.1,5.3
2019,9,6,15:00,UTC,3,1013.9,62,0,-1,16.6,9.2,47490,276,8.6,6
2019,9,6,15:10,UTC,1,1014,62,0,-1,16.4,9,50000,282,8.9,5.2
2019,9,6,15:20,UTC,1,1014.1,61,0,-1,16.4,8.9,50000,284,8,4.8
2019,9,6,15:30,UTC,1,1014.3,61,0,-1,16.4,8.8,45690,279,7,4.8
2019,9,6,15:40,UTC,1,1014.5,62,0,-1,16.4,9,50000,277,6.6,4.1
2019,9,6,15:50,UTC,1,1014.6,60,0,-1,16.2,8.4,50000,256,8,5.1
2019,9,6,16:00,UTC,0,1014.7,61,0,-1,16.2,8.6,50000,252,6.3,4
2019,9,6,16:10,UTC,0,1014.8,62,0,-1,16.1,8.9,50000,243,7.7,4.7
2019,9,6,16:20,UTC,0,1015,63,0,-1,15.8,8.9,50000,263,6.8,4.7
2019,9,6,16:30,UTC,0,1015.1,63,0,-1,15.8,8.6,50000,256,6.5,3.8
2019,9,6,16:40,UTC,0,1015.3,63,0,-1,15.7,8.7,50000,251,6.6,4.2
2019,9,6,16:50,UTC,0,1015.5,75,0,-1,15.3,10.9,50000,243,5.6,3.3
2019,9,6,17:00,UTC,0,1015.6,76,0,-1,15.1,10.9,50000,231,6.3,3.7
2019,9,6,17:10,UTC,0,1015.7,77,0,-1,15,11,50000,237,7.2,4.1
2019,9,6,17:20,UTC,0,1015.9,78,0,-1,14.9,11.1,50000,244,6.7,4.3
2019,9,6,17:30,UTC,0,1016,78,0,-1,14.7,11,50000,243,7,4.1
2019,9,6,17:40,UTC,0,1016.1,78,0,-1,14.7,11,50000,246,8.3,4
2019,9,6,17:50,UTC,0,1016.3,78,0,-1,14.6,10.8,50000,241,6.5,4.1
2019,9,6,18:00,UTC,0,1016.3,78,0,-1,14.5,10.8,50000,245,6.1,3.6
2019,9,6,18:10,UTC,0,1016.4,79,0,-1,14.5,10.9,50000,248,6.3,3.7
2019,9,6,18:20,UTC,0,1016.6,79,0,-1,14.5,10.9,50000,248,5.7,3.7
2019,9,6,18:30,UTC,0,1016.7,79,0,-1,14.5,10.9,50000,244,5.5,3.5
2019,9,6,18:40,UTC,0,1016.8,78,0,-1,14.5,10.7,50000,244,6.5,3.8
2019,9,6,18:50,UTC,0,1016.9,78,0,-1,14.4,10.6,50000,244,7,4.1
2019,9,6,19:00,UTC,0,1017,79,0,-1,14.2,10.6,50000,246,6.2,4
2019,9,6,19:10,UTC,0,1017.2,78,0,-1,14.2,10.4,50000,248,6,3.7
2019,9,6,19:20,UTC,0,1017.3,77,0,-1,14.2,10.2,50000,254,6.4,3.9
2019,9,6,19:30,UTC,0,1017.3,77,0,-1,14.1,10.1,50000,256,5.8,3.7
2019,9,6,19:40,UTC,1,1017.4,76,0,-1,14.1,10,50000,257,5.9,3.3
2019,9,6,19:50,UTC,1,1017.4,78,0,-1,14,10.2,50000,255,4.6,2.5
2019,9,6,20:00,UTC,1,1017.4,79,0,-1,13.8,10.3,50000,252,5.6,3.1
2019,9,6,20:10,UTC,1,1017.4,80,0,-1,13.7,10.4,50000,252,4.9,3
2019,9,6,20:20,UTC,5,1017.5,80,0,-1,13.8,10.5,50000,249,5.2,3.2
2019,9,6,20:30,UTC,5,1017.6,80,0,-1,13.9,10.4,50000,251,4.7,2.8
2019,9,6,20:40,UTC,7,1017.8,81,0,-1,13.8,10.5,50000,258,5.3,2.7
2019,9,6,20:50,UTC,3,1017.9,80,0,-1,13.8,10.4,50000,252,4.7,3.2
2019,9,6,21:00,UTC,1,1018.1,81,0,-1,13.7,10.4,50000,252,5.3,3
2019,9,6,21:10,UTC,0,1018.2,80,0,-1,13.6,10.2,50000,242,5.6,2.9
2019,9,6,21:20,UTC,0,1018.2,79,0,-1,13.6,10,50000,249,5.1,3
2019,9,6,21:30,UTC,0,1018.3,81,0,-1,13.2,10,50000,247,3.8,2.3
2019,9,6,21:40,UTC,0,1018.4,81,0,-1,13.1,9.9,50000,247,4.2,2.7
2019,9,6,21:50,UTC,0,1018.4,85,0,-1,12.4,9.8,50000,263,3.6,2.5
2019,9,6,22:00,UTC,0,1018.5,86,0,-1,12,9.8,50000,260,4.3,2.2
2019,9,6,22:10,UTC,0,1018.6,87,0,-1,11.8,9.7,50000,263,3,1.9
2019,9,6,22:20,UTC,0,1018.7,88,0,-1,11.7,9.7,50000,266,3.5,2.5
2019,9,6,22:30,UTC,0,1018.8,88,0,-1,11.6,9.6,50000,262,4.2,2.4
2019,9,6,22:40,UTC,0,1018.8,88,0,-1,11.4,9.5,50000,259,3.2,1.9
2019,9,6,22:50,UTC,0,1018.8,89,0,-1,11.3,9.5,50000,253,2.3,1.5
2019,9,6,23:00,UTC,0,1018.9,89,0,-1,11.1,9.4,50000,243,2.3,1.5
2019,9,6,23:10,UTC,0,1019,90,0,-1,11,9.4,50000,252,1.8,1
2019,9,6,23:20,UTC,0,1019.1,91,0,-1,10.8,9.3,50000,248,1.2,0.7
2019,9,6,23:30,UTC,0,1019,91,0,-1,10.6,9.2,50000,240,1.5,0.7
2019,9,6,23:40,UTC,0,1019.1,92,0,-1,10.4,9.1,50000,233,1,0.7
2019,9,6,23:50,UTC,0,1019.1,93,0,-1,10.2,9,50000,251,1,0.7
2019,9,7,00:00,UTC,0,1019.2,93,0,-1,10,9,50000,238,1.1,0.6
2019,9,7,00:10,UTC,0,1019.3,94,0,-1,10,9.1,50000,219,1.1,0.7
2019,9,7,00:20,UTC,0,1019.3,95,0,-1,10,9.1,50000,204,1.1,0.7
2019,9,7,00:30,UTC,0,1019.2,96,0,-1,10.1,9.4,50000,0,0,0
2019,9,7,00:40,UTC,0,1019.3,96,0,-1,10,9.3,50000,132,0.9,0.5
2019,9,7,00:50,UTC,0,1019.3,96,0,-1,10,9.3,50000,128,1,0.8
2019,9,7,01:00,UTC,0,1019.4,96,0,-1,9.9,9.3,50000,108,1.1,0.9
2019,9,7,01:10,UTC,0,1019.4,96,0,-1,9.8,9.2,50000,100,1.2,1
2019,9,7,01:20,UTC,0,1019.5,96,0,-1,9.8,9.3,50000,110,1.5,1.2
2019,9,7,01:30,UTC,0,1019.5,97,0,-1,10.1,9.6,49260,117,2,1.4
2019,9,7,01:40,UTC,0,1019.5,97,0,-1,10,9.5,29390,119,2.1,1.7
2019,9,7,01:50,UTC,1,1019.6,97,0,-1,10.2,9.8,47640,116,1.9,1.4
2019,9,7,02:00,UTC,1,1019.7,97,0,-1,10.3,9.9,50000,108,1.8,1.2
2019,9,7,02:10,UTC,1,1019.8,98,0,-1,10.6,10.3,50000,117,1.5,1.2
2019,9,7,02:20,UTC,0,1019.7,98,0,-1,10.4,10,44800,124,2.1,1.7
2019,9,7,02:30,UTC,0,1019.8,98,0,-1,10.4,10.1,50000,127,1.6,1
2019,9,7,02:40,UTC,0,1019.8,98,0,-1,10.8,10.5,50000,124,1.8,1.4
2019,9,7,02:50,UTC,0,1019.9,98,0,-1,10.5,10.1,47990,113,1.8,1.4
2019,9,7,03:00,UTC,3,1020,98,0,-1,11.2,10.9,50000,114,1.7,1.2
2019,9,7,03:10,UTC,5,1020.1,98,0,-1,11,10.6,48700,110,2,1.4
2019,9,7,03:20,UTC,7,1020,98,0,-1,11.4,11.1,50000,101,1.6,1.2
2019,9,7,03:30,UTC,7,1020,98,0,-1,11.3,11,50000,107,1.7,1.2
2019,9,7,03:40,UTC,7,1020,98,0,-1,11.6,11.3,50000,106,1.8,1.2
2019,9,7,03:50,UTC,7,1020,98,0,-1,11.8,11.5,50000,120,1.9,1.2
2019,9,7,04:00,UTC,7,1020.1,98,0,-1,12.1,11.8,50000,124,2.4,1.2
2019,9,7,04:10,UTC,7,1020.1,97,0,-1,12.6,12.1,50000,178,2.9,1.6
2019,9,7,04:20,UTC,7,1020.2,91,0,-1,13.1,11.7,50000,213,3.4,2
2019,9,7,04:30,UTC,5,1020.2,88,0,-1,13.4,11.4,50000,196,3.2,1.8
2019,9,7,04:40,UTC,5,1020.3,87,0,-1,13.7,11.6,50000,199,3.8,2
2019,9,7,04:50,UTC,3,1020.3,85,0,-1,14.1,11.7,50000,192,3.4,1.8
2019,9,7,05:00,UTC,5,1020.4,85,0,-1,14.9,12.4,50000,194,4.4,2.5
2019,9,7,05:10,UTC,1,1020.5,83,0,-1,15.3,12.4,45920,196,6,3.4
2019,9,7,05:20,UTC,1,1020.5,85,0,-1,15,12.5,50000,193,6,3.7
2019,9,7,05:30,UTC,1,1020.6,85,0,-1,15.1,12.6,50000,188,6.5,4.2
2019,9,7,05:40,UTC,1,1020.6,84,0,-1,15.2,12.4,50000,188,6,3.6
2019,9,7,05:50,UTC,1,1020.7,83,0,-1,15.2,12.2,48710,202,6.6,3.7
2019,9,7,06:00,UTC,1,1020.9,83,0,-1,15.2,12.3,49430,197,6.2,3.9
2019,9,7,06:10,UTC,1,1021,83,0,-1,15.2,12.3,50000,192,6.3,3.6
2019,9,7,06:20,UTC,1,1021,83,0,-1,15.4,12.4,49490,183,5.8,3.4
2019,9,7,06:30,UTC,1,1021.2,82,0,-1,15.7,12.7,41160,192,5.5,3
2019,9,7,06:40,UTC,1,1021.2,82,0,-1,15.6,12.6,50000,198,5.8,3.8
2019,9,7,06:50,UTC,3,1021.2,83,0,-1,15.7,12.7,37830,200,6.5,4.2
2019,9,7,07:00,UTC,5,1021.2,82,0,-1,15.7,12.6,40640,202,7.2,4.5
2019,9,7,07:10,UTC,5,1021.3,82,0,-1,15.6,12.5,41160,191,7.4,4
2019,9,7,07:20,UTC,7,1021.3,83,0,-1,15.6,12.7,40990,199,6.2,3.8
2019,9,7,07:30,UTC,7,1021.3,82,0,-1,15.5,12.4,40120,196,6.2,4
2019,9,7,07:40,UTC,7,1021.3,81,0,-1,15.6,12.3,39740,193,6.8,4.3
2019,9,7,07:50,UTC,7,1021.4,80,0,-1,15.6,12.1,44040,195,6.6,4.2
2019,9,7,08:00,UTC,7,1021.5,79,0,-1,15.8,12,40070,194,6.5,3.8
2019,9,7,08:10,UTC,7,1021.6,78,0,-1,15.9,12.1,45270,186,6.5,3.5
2019,9,7,08:20,UTC,7,1021.7,77,0,-1,16.2,12.2,38000,185,5.5,3.5
2019,9,7,08:30,UTC,7,1021.7,74,0,-1,16.8,12,48520,187,6,3.1
2019,9,7,08:40,UTC,5,1021.7,75,0,-1,16.8,12.4,39010,191,7.4,3.9
2019,9,7,08:50,UTC,5,1021.8,75,0,-1,16.6,12.1,34820,189,7.8,4.2
2019,9,7,09:00,UTC,5,1021.9,74,0,-1,16.7,12,37540,183,6.8,3.8
2019,9,7,09:10,UTC,7,1022,74,0,-1,16.9,12.1,41410,198,7.2,4.7
2019,9,7,09:20,UTC,7,1022.1,73,0,-1,16.5,11.8,32020,198,6,3.9
2019,9,7,09:30,UTC,7,1022.1,71,0,-1,16.7,11.5,40270,195,8.2,4.7
2019,9,7,09:40,UTC,7,1022.1,70,0,-1,16.6,11.2,39070,200,7,4.4
2019,9,7,09:50,UTC,7,1022.1,70,0,-1,17.1,11.5,30550,201,8.2,5.3
2019,9,7,10:00,UTC,7,1022.1,69,0,-1,17,11.4,40490,187,7.3,3.9
2019,9,7,10:10,UTC,7,1022,66,0,-1,17.4,10.9,36130,191,5.8,3.6
2019,9,7,10:20,UTC,7,1022.1,66,0,-1,17.4,11.1,42120,183,6.9,4.4
2019,9,7,10:30,UTC,5,1022.1,69,0,-1,17.1,11.3,44530,185,6.7,4.3
2019,9,7,10:40,UTC,7,1022.1,68,0,-1,17.1,11.2,32190,187,7.1,4.4
2019,9,7,10:50,UTC,5,1022.1,70,0,-1,17.2,11.6,41700,181,6.2,3.7
2019,9,7,11:00,UTC,5,1022.1,67,0,-1,17.7,11.5,39150,178,5.9,3.5
2019,9,7,11:10,UTC,5,1022.1,68,0,-1,17.5,11.5,39460,172,6.7,4.1
2019,9,7,11:20,UTC,7,1022.1,69,0,-1,18,12.2,38570,174,7,4.3
2019,9,7,11:30,UTC,5,1022.1,67,0,-1,18,11.7,41840,169,7.1,4.9
2019,9,7,11:40,UTC,5,1022.1,67,0,-1,17.7,11.6,41070,163,7.8,5.3
2019,9,7,11:50,UTC,5,1022.1,70,0,-1,17.3,11.7,42940,162,7,4.8
2019,9,7,12:00,UTC,5,1022,70,0,-1,17.5,11.9,46730,158,6.8,4.5
2019,9,7,12:10,UTC,5,1022.1,67,0,-1,17.3,11.1,41990,149,6.6,3.9
2019,9,7,12:20,UTC,7,1022,69,0,-1,16.9,11.2,39910,149,7,4.3
2019,9,7,12:30,UTC,7,1022,70,0,-1,16.7,11.2,38560,157,7.2,4.7
2019,9,7,12:40,UTC,7,1022.2,71,0,-1,16.7,11.3,29430,180,5.9,3.8
2019,9,7,12:50,UTC,7,1022.3,73,0,-1,16.4,11.5,37830,232,4.2,2.8
2019,9,7,13:00,UTC,7,1022.3,81,0,-1,15.6,12.3,29550,167,7,3.5
2019,9,7,13:10,UTC,7,1022.3,88,1.4,-1,15,13,5290,158,7.1,4.6
2019,9,7,13:20,UTC,7,1022.2,91,1.9,-1,15.1,13.7,7540,161,5.7,3.5
2019,9,7,13:30,UTC,7,1022.2,91,1,-1,15.4,14,23910,154,5.8,3.7
2019,9,7,13:40,UTC,7,1022.2,90,0,-1,15.6,14,36560,156,4.1,2.5
2019,9,7,13:50,UTC,7,1022.2,85,0,-1,15.5,13,41240,167,4,2.1
2019,9,7,14:00,UTC,7,1022.4,86,0,-1,15.5,13.2,50000,175,5.6,3.1
2019,9,7,14:10,UTC,7,1022.6,87,0,-1,15.1,12.9,35130,186,5.2,2.9
2019,9,7,14:20,UTC,7,1022.7,89,2.2,-1,15,13.2,4050,185,5.1,3.1
2019,9,7,14:30,UTC,7,1022.7,92,5.3,-1,14.6,13.4,2990,180,5.4,3.4
2019,9,7,14:40,UTC,7,1022.8,95,5.6,-1,14.6,13.8,4460,172,6.4,3.8
2019,9,7,14:50,UTC,7,1022.7,94,3.4,-1,14.5,13.5,4360,179,6.2,3.2
2019,9,7,15:00,UTC,7,1022.8,95,0.8,-1,14.6,13.8,14900,195,4.3,2.5
2019,9,7,15:10,UTC,7,1022.8,93,0,-1,14.6,13.5,18440,198,3.6,2.2
2019,9,7,15:20,UTC,7,1022.8,93,0,-1,14.6,13.6,21050,193,4.1,2.8
2019,9,7,15:30,UTC,7,1022.8,93,0,-1,14.6,13.5,30140,184,3.4,2.1
2019,9,7,15:40,UTC,3,1022.9,93,0,-1,14.6,13.5,34180,178,3.2,1.9
2019,9,7,15:50,UTC,1,1022.8,92,0,-1,14.7,13.4,35880,175,4,2.4
2019,9,7,16:00,UTC,0,1022.9,92,0,-1,14.6,13.3,34870,181,3.1,1.9
2019,9,7,16:10,UTC,0,1022.9,92,0,-1,14.5,13.3,32580,179,3.1,1.7
2019,9,7,16:20,UTC,1,1023,93,0,-1,14.6,13.5,45360,168,3.7,2
2019,9,7,16:30,UTC,1,1022.9,93,0,-1,14.7,13.6,43050,164,3.9,2.8
2019,9,7,16:40,UTC,1,1023,93,0,-1,14.7,13.6,41840,159,3.7,2.3
2019,9,7,16:50,UTC,3,1023,94,0,-1,14.7,13.8,41240,157,3.5,2.3
2019,9,7,17:00,UTC,5,1023.1,94,0,-1,14.7,13.7,43900,150,4,2.5
2019,9,7,17:10,UTC,7,1023.2,92,0,-1,14.6,13.4,32510,158,4.6,3.3
2019,9,7,17:20,UTC,5,1023.3,93,0,-1,14.6,13.4,44860,156,3.6,2.4
2019,9,7,17:30,UTC,5,1023.3,91,0,-1,14.6,13.1,43710,143,4.9,2.9
2019,9,7,17:40,UTC,5,1023.4,88,0,-1,14.5,12.6,43670,142,4.5,3.1
2019,9,7,17:50,UTC,3,1023.4,90,0,-1,14.5,12.9,49740,145,4.1,3.1
2019,9,7,18:00,UTC,5,1023.4,91,0,-1,14.7,13.2,50000,138,3.9,2.8
2019,9,7,18:10,UTC,5,1023.4,93,0,-1,14.7,13.5,38750,139,5.1,3.2
2019,9,7,18:20,UTC,7,1023.5,93,0,-1,14.6,13.4,35600,145,5.3,3.1
2019,9,7,18:30,UTC,3,1023.6,92,0,-1,14.4,13.1,34520,147,4.1,2.8
2019,9,7,18:40,UTC,1,1023.6,92,0,-1,14.1,12.8,36680,147,4.7,3.1
2019,9,7,18:50,UTC,1,1023.7,90,0,-1,13.7,12.1,46790,149,4.5,2.8
2019,9,7,19:00,UTC,1,1023.7,90,0,-1,13.5,12,45020,133,4.1,2.9
2019,9,7,19:10,UTC,1,1023.8,90,0,-1,13.4,11.8,50000,132,3.2,2.5
2019,9,7,19:20,UTC,1,1023.7,92,0,-1,13.1,11.9,41310,124,2.7,2.1
2019,9,7,19:30,UTC,1,1023.7,93,0,-1,12.9,11.9,38610,121,2.6,2.1
2019,9,7,19:40,UTC,0,1023.8,94,0,-1,12.8,11.9,35600,126,2.9,2.1
2019,9,7,19:50,UTC,0,1023.8,96,0,-1,12.8,12.1,33310,117,3,2.5
2019,9,7,20:00,UTC,0,1023.9,96,0,-1,12.8,12.2,26020,123,3.3,2.2
2019,9,7,20:10,UTC,0,1023.9,96,0,-1,12.9,12.3,28490,121,2.8,2.3
2019,9,7,20:20,UTC,0,1024,97,0,-1,13,12.5,23510,103,2.6,1.9
2019,9,7,20:30,UTC,0,1024,97,0,-1,13.2,12.7,29080,96,2.8,2
2019,9,7,20:40,UTC,0,1024.1,96,0,-1,12.8,12.3,16820,106,3.5,2.1
2019,9,7,20:50,UTC,0,1024.1,97,0,-1,12.8,12.3,14090,115,3.3,2
2019,9,7,21:00,UTC,0,1024.1,97,0,-1,12.6,12.2,14270,118,2.2,1.4
2019,9,7,21:10,UTC,0,1024.2,98,0,-1,13,12.6,14580,159,2.4,1.6
2019,9,7,21:20,UTC,0,1024.2,98,0,-1,13.5,13.2,19770,175,2.9,1.8
2019,9,7,21:30,UTC,0,1024.2,98,0,-1,13.7,13.3,29140,171,4,2.2
2019,9,7,21:40,UTC,0,1024.2,98,0,-1,14,13.6,33620,170,3.4,2.2
2019,9,7,21:50,UTC,1,1024.2,97,0,-1,14.2,13.7,38090,171,4.6,2.6
2019,9,7,22:00,UTC,3,1024.3,94,0,-1,14.4,13.5,38860,171,4,2.5
2019,9,7,22:10,UTC,5,1024.3,93,0,-1,14.4,13.3,40460,175,4.2,2.6
2019,9,7,22:20,UTC,3,1024.3,93,0,-1,14.5,13.3,36210,181,4,2.1
2019,9,7,22:30,UTC,1,1024.3,92,0,-1,14.4,13,39310,178,4.4,2.2
2019,9,7,22:40,UTC,1,1024.4,91,0,-1,14.4,13,40490,175,4.5,2.7
2019,9,7,22:50,UTC,1,1024.4,90,0,-1,14.3,12.7,37540,171,4.7,2.6
2019,9,7,23:00,UTC,5,1024.5,92,0,-1,14,12.7,32000,180,3.8,1.9
2019,9,7,23:10,UTC,7,1024.4,92,0,-1,14.4,13,37470,178,4,2.3
2019,9,7,23:20,UTC,7,1024.5,92,0,-1,14.5,13.1,37550,171,4.5,2.3
2019,9,7,23:30,UTC,7,1024.5,91,0,-1,14.6,13.1,34390,173,3.6,2.3
2019,9,7,23:40,UTC,7,1024.5,89,0,-1,14.8,13,34770,179,4,2.3
2019,9,7,23:50,UTC,7,1024.6,90,0,-1,14.7,13,34530,170,3.1,2
2019,9,8,00:00,UTC,7,1024.6,88,0,-1,14.9,12.9,49570,168,3.5,2.3
2019,9,8,00:10,UTC,7,1024.6,89,0,-1,14.7,12.9,37460,166,4.1,2.3
2019,9,8,00:20,UTC,7,1024.7,88,0,-1,14.8,12.9,45950,164,3.1,2
2019,9,8,00:30,UTC,7,1024.7,88,0,-1,14.8,12.8,42010,158,3.1,2.1
2019,9,8,00:40,UTC,7,1024.7,88,0,-1,14.7,12.8,46540,158,3.6,2.4
2019,9,8,00:50,UTC,7,1024.7,89,0,-1,14.8,13,39000,164,3.6,2.5
2019,9,8,01:00,UTC,7,1024.7,89,0,-1,15,13.2,38790,158,3.8,2.7
2019,9,8,01:10,UTC,7,1024.7,90,0,-1,15,13.3,38630,150,4.7,2.5
2019,9,8,01:20,UTC,7,1024.7,89,0,-1,15,13.2,43100,155,4.3,2.4
2019,9,8,01:30,UTC,7,1024.7,88,0,-1,15,13.1,38830,156,4.6,2.9
2019,9,8,01:40,UTC,7,1024.7,89,0,-1,15.1,13.3,39000,157,4,2.9
2019,9,8,01:50,UTC,7,1024.7,89,0,-1,15.1,13.4,42860,152,4.8,2.6
2019,9,8,02:00,UTC,7,1024.7,90,0,-1,15.1,13.4,48290,147,4.2,2.5
2019,9,8,02:10,UTC,7,1024.7,90,0,-1,15,13.3,42580,140,3.8,2.6
2019,9,8,02:20,UTC,7,1024.8,88,0,-1,15,13,45080,141,3,2.1
2019,9,8,02:30,UTC,7,1024.7,88,0,-1,14.9,12.9,41720,142,3,2
2019,9,8,02:40,UTC,7,1024.7,85,0,-1,15.3,12.7,43870,138,3.3,2.3
2019,9,8,02:50,UTC,7,1024.7,86,0,-1,14.9,12.6,49080,123,3.5,2.3
2019,9,8,03:00,UTC,7,1024.8,87,0,-1,14.7,12.6,40430,125,2.9,2.2
2019,9,8,03:10,UTC,7,1024.9,86,0,-1,14.8,12.5,44960,125,3.1,2.4
2019,9,8,03:20,UTC,7,1024.9,86,0,-1,14.6,12.3,48540,121,2.9,2.2
2019,9,8,03:30,UTC,7,1025,88,0,-1,14.5,12.5,44100,122,2.7,2
2019,9,8,03:40,UTC,7,1025.1,87,0,-1,14.6,12.5,42660,122,2.7,1.9
2019,9,8,03:50,UTC,5,1025.1,86,0,-1,14.6,12.2,46910,120,2.9,2.2
2019,9,8,04:00,UTC,7,1025.1,87,0,-1,14.4,12.3,45180,118,2.9,2.1
2019,9,8,04:10,UTC,7,1025.1,82,0,-1,15,12,50000,123,3.2,2.2
2019,9,8,04:20,UTC,7,1025.1,81,0,-1,15.1,11.8,50000,121,3.3,2.3
2019,9,8,04:30,UTC,7,1025.2,82,0,-1,15.1,12,49920,132,3.9,2.3
2019,9,8,04:40,UTC,7,1025.3,82,0,-1,15.4,12.3,46200,130,3.8,2.6
2019,9,8,04:50,UTC,7,1025.3,82,0,-1,15.5,12.5,50000,126,3.8,2.7
2019,9,8,05:00,UTC,7,1025.2,82,0,-1,15.7,12.7,46870,127,3.9,2.6
2019,9,8,05:10,UTC,7,1025.2,82,0,-1,16.1,13,44910,112,3.6,2.4
2019,9,8,05:20,UTC,5,1025.3,81,0,-1,16.4,13.1,49550,115,3.4,2.3
2019,9,8,05:30,UTC,7,1025.3,78,0,-1,16.9,13,39100,136,3.4,2
2019,9,8,05:40,UTC,7,1025.4,79,0,-1,16.8,13.1,50000,143,4.1,2.3
2019,9,8,05:50,UTC,7,1025.5,81,0,-1,16.6,13.3,49140,152,4.1,2.6
2019,9,8,06:00,UTC,7,1025.4,79,0,-1,16.5,12.8,46510,153,4.9,2.9
2019,9,8,06:10,UTC,7,1025.4,77,0,-1,16.7,12.6,50000,150,4.6,3
2019,9,8,06:20,UTC,7,1025.5,76,0,-1,16.8,12.5,48750,143,5.4,2.9
2019,9,8,06:30,UTC,7,1025.5,77,0,-1,16.4,12.5,43970,141,4.5,2.7
2019,9,8,06:40,UTC,7,1025.6,78,0,-1,16.5,12.6,42670,143,4.2,2.9
2019,9,8,06:50,UTC,7,1025.6,77,0,-1,16.5,12.4,41950,140,4.4,2.9
2019,9,8,07:00,UTC,7,1025.6,77,0,-1,16.4,12.4,47640,138,4.9,2.4
2019,9,8,07:10,UTC,5,1025.7,77,0,-1,16.3,12.1,49520,135,4,3
2019,9,8,07:20,UTC,7,1025.7,75,0,-1,16.2,11.8,45230,140,4.1,2.8
2019,9,8,07:30,UTC,7,1025.7,76,0,-1,16.1,12,50000,138,3.9,2.8
2019,9,8,07:40,UTC,7,1025.8,75,0,-1,16.2,11.7,45620,150,3.9,2.6
2019,9,8,07:50,UTC,7,1025.8,74,0,-1,16.2,11.6,44780,155,4.1,2.3
2019,9,8,08:00,UTC,7,1025.7,75,0,-1,16.3,11.8,47420,138,3.2,2.3
2019,9,8,08:10,UTC,7,1025.8,73,0,-1,16.4,11.5,48350,140,4,2.9
2019,9,8,08:20,UTC,7,1026,75,0,-1,16.4,11.9,44590,141,4,2.9
2019,9,8,08:30,UTC,7,1026.1,74,0,-1,16.4,11.8,49180,144,4.1,2
2019,9,8,08:40,UTC,7,1026.3,75,0,-1,16.3,11.8,49490,154,3.7,2.1
2019,9,8,08:50,UTC,7,1026.1,73,0,-1,16.4,11.4,46030,142,3.2,2.1
2019,9,8,09:00,UTC,8,1026.1,74,0,-1,16.4,11.7,48630,132,4,2.5
2019,9,8,09:10,UTC,7,1026.2,73,0,-1,16.6,11.7,47790,126,3.5,2.5
2019,9,8,09:20,UTC,7,1026.2,71,0,-1,16.5,11.3,48980,119,3.3,2.5
2019,9,8,09:30,UTC,7,1026.1,75,0,-1,16.5,12,50000,107,4,2.5
2019,9,8,09:40,UTC,7,1026,75,0,-1,16.5,12.1,47170,96,3.1,2.2
2019,9,8,09:50,UTC,7,1026,75,0,-1,16.4,11.9,50000,91,3.7,2.2
2019,9,8,10:00,UTC,8,1026.1,73,0,-1,16.6,11.7,48280,86,3.2,2.5
2019,9,8,10:10,UTC,8,1026.1,73,0,-1,16.7,11.7,47210,94,3.5,2.6
2019,9,8,10:20,UTC,8,1026.1,74,0,-1,16.6,12,50000,92,3.6,2.5
2019,9,8,10:30,UTC,7,1026.1,75,0,-1,16.6,12.1,44000,84,4.1,3.3
2019,9,8,10:40,UTC,7,1026.2,73,0,-1,16.7,11.9,42550,91,4.2,3.4
2019,9,8,10:50,UTC,7,1026.2,74,0,-1,16.7,11.9,50000,99,4.9,3.3
2019,9,8,11:00,UTC,7,1026.2,75,0,-1,16.5,12,47980,102,5.1,3.6
2019,9,8,11:10,UTC,7,1026.3,73,0,-1,16.5,11.7,49080,97,5,3
2019,9,8,11:20,UTC,7,1026.3,75,0,-1,16.4,12,44510,98,5.4,3.3
2019,9,8,11:30,UTC,7,1026.3,77,0,-1,16.3,12.3,49700,99,5.2,3.2
2019,9,8,11:40,UTC,7,1026.2,77,0,-1,16.4,12.4,40630,90,3.9,2.3
2019,9,8,11:50,UTC,7,1026,77,0,-1,16.3,12.3,40720,85,5.5,3.6
2019,9,8,12:00,UTC,7,1026,78,0,-1,16.3,12.3,41560,84,6.2,4.1
2019,9,8,12:10,UTC,7,1025.9,78,0,-1,16.3,12.5,43770,88,5.9,4.3
2019,9,8,12:20,UTC,7,1025.9,80,0,-1,16.2,12.7,37960,86,5.6,4
2019,9,8,12:30,UTC,7,1025.8,82,0,-1,16,12.8,28590,85,6,4.2
2019,9,8,12:40,UTC,7,1025.8,81,0,-1,15.9,12.6,42330,75,5.5,3.4
2019,9,8,12:50,UTC,7,1025.8,81,0.4,-1,15.9,12.6,34220,73,5.1,3.4
2019,9,8,13:00,UTC,7,1025.7,80,0,-1,15.9,12.5,33290,74,5.3,2.8
2019,9,8,13:10,UTC,7,1025.7,83,0.5,-1,15.7,12.8,26920,75,4.3,2.8
2019,9,8,13:20,UTC,7,1025.7,84,0.1,-1,15.6,12.9,26470,60,4.4,2.8
2019,9,8,13:30,UTC,7,1025.6,83,0.6,-1,15.6,12.8,21990,64,4.6,3.2
2019,9,8,13:40,UTC,7,1025.6,85,0.1,-1,15.5,13,34080,58,5.2,3.4
2019,9,8,13:50,UTC,7,1025.5,86,0.3,-1,15.4,13.1,20420,62,5.6,3.6
2019,9,8,14:00,UTC,7,1025.5,87,0.4,-1,15.3,13.2,14430,65,4.9,3.3
2019,9,8,14:10,UTC,7,1025.5,87,0.7,-1,15.1,13,20750,63,5.3,3.7
2019,9,8,14:20,UTC,7,1025.6,88,0.5,-1,15.1,13.2,14460,57,6,3.7
2019,9,8,14:30,UTC,7,1025.5,91,0.7,-1,14.9,13.4,14550,57,5.7,3.5
2019,9,8,14:40,UTC,7,1025.4,90,0,-1,15.1,13.4,26680,57,6.3,3.9
2019,9,8,14:50,UTC,7,1025.4,88,0,-1,15.2,13.2,31620,67,5.7,3.7
2019,9,8,15:00,UTC,7,1025.3,88,0,-1,15.1,13.1,44840,62,6.2,3.9
2019,9,8,15:10,UTC,7,1025.3,86,0,-1,15.2,12.9,37490,56,6.3,4.2
2019,9,8,15:20,UTC,7,1025.1,87,0,-1,15,12.9,40330,61,6.2,4.5
2019,9,8,15:30,UTC,7,1025.1,87,0,-1,15.1,12.8,41210,62,7.1,4.8
2019,9,8,15:40,UTC,5,1024.9,85,0,-1,15,12.6,37520,62,7.4,4.5
2019,9,8,15:50,UTC,7,1024.9,85,0,-1,15,12.5,50000,62,7.7,5.1
2019,9,8,16:00,UTC,7,1024.8,85,0,-1,14.9,12.4,42440,63,6.9,4.7
2019,9,8,16:10,UTC,7,1024.8,84,0,-1,14.9,12.3,42980,64,7.8,5.2
2019,9,8,16:20,UTC,7,1024.8,84,0,-1,14.9,12.2,46770,62,7.5,5.1
2019,9,8,16:30,UTC,7,1024.9,84,0,-1,14.9,12.2,49610,66,7.6,4.9
2019,9,8,16:40,UTC,7,1024.8,84,0,-1,14.9,12.3,45540,69,7.1,4.8
2019,9,8,16:50,UTC,7,1024.8,84,0,-1,15,12.2,49030,63,6.9,4.9
2019,9,8,17:00,UTC,7,1024.8,83,0,-1,15,12.2,49930,63,7.3,4.7
2019,9,8,17:10,UTC,7,1024.7,84,0,-1,14.9,12.3,46800,66,6.3,4.2
2019,9,8,17:20,UTC,7,1024.8,84,0,-1,15,12.2,46020,69,7,3.9
2019,9,8,17:30,UTC,7,1024.8,84,0,-1,14.9,12.3,46170,66,6.4,4.6
2019,9,8,17:40,UTC,7,1024.7,85,0,-1,14.9,12.4,43890,68,6.9,4
2019,9,8,17:50,UTC,7,1024.5,86,0,-1,14.8,12.4,46820,70,5.7,4.2
2019,9,8,18:00,UTC,7,1024.5,86,0,-1,14.8,12.5,45760,67,7,4
2019,9,8,18:10,UTC,7,1024.5,85,0,-1,15,12.5,47760,70,6.4,3.9
2019,9,8,18:20,UTC,7,1024.4,86,0,-1,14.9,12.6,44670,73,6.8,4
2019,9,8,18:30,UTC,7,1024.4,85,0,-1,15.1,12.6,41580,71,6.7,4
2019,9,8,18:40,UTC,8,1024.3,85,0,-1,15.2,12.7,49530,74,6.8,4.3
2019,9,8,18:50,UTC,7,1024.2,84,0,-1,15.3,12.7,48950,70,6.6,4.6
2019,9,8,19:00,UTC,8,1024.2,85,0,-1,15.3,12.7,44700,79,6.2,3.6
2019,9,8,19:10,UTC,8,1024.2,83,0,-1,15.5,12.7,45550,70,6.5,4.1
2019,9,8,19:20,UTC,8,1024.1,83,0,-1,15.7,12.7,46880,63,6.5,3.8
2019,9,8,19:30,UTC,8,1024.1,82,0,-1,15.9,12.7,46090,67,5.9,3.5
2019,9,8,19:40,UTC,7,1024,82,0,-1,15.9,12.8,47270,69,5.6,3.4
2019,9,8,19:50,UTC,7,1023.9,83,0,-1,15.8,12.9,50000,75,5.6,3.1
2019,9,8,20:00,UTC,7,1023.9,81,0,-1,16.3,12.9,50000,79,5.5,3.4
2019,9,8,20:10,UTC,8,1023.9,82,0,-1,16.2,13.1,50000,80,8.1,4
2019,9,8,20:20,UTC,8,1023.9,81,0,-1,16.5,13.2,47950,81,8.9,5.6
2019,9,8,20:30,UTC,8,1023.9,81,0,-1,16.6,13.3,47770,95,6,3.6
2019,9,8,20:40,UTC,8,1023.8,81,0,-1,16.8,13.4,41710,92,6.2,3.9
2019,9,8,20:50,UTC,7,1023.6,81,0,-1,16.9,13.6,50000,82,7.3,4.4
2019,9,8,21:00,UTC,7,1023.6,80,0,-1,17,13.5,50000,86,7.5,5
2019,9,8,21:10,UTC,8,1023.5,80,0,-1,17.1,13.6,47990,86,8,4.5
2019,9,8,21:20,UTC,8,1023.5,80,0,-1,17,13.6,43210,92,7.3,4.1
2019,9,8,21:30,UTC,7,1023.4,80,0,-1,17.1,13.7,50000,94,7.4,4.5
2019,9,8,21:40,UTC,7,1023.3,81,0,-1,17,13.7,49680,92,7.2,3.6
2019,9,8,21:50,UTC,7,1023.3,81,0,-1,16.9,13.7,48760,92,6.5,4
2019,9,8,22:00,UTC,7,1023.2,82,0,-1,16.7,13.7,48120,102,5.7,3.3
2019,9,8,22:10,UTC,7,1023,82,0,-1,16.8,13.8,50000,90,7.2,4.4
2019,9,8,22:20,UTC,7,1023,83,0,-1,16.8,13.9,48830,85,8.4,5.8
2019,9,8,22:30,UTC,8,1022.8,83,0,-1,16.8,13.8,50000,96,7.2,4.6
2019,9,8,22:40,UTC,7,1022.8,84,0,-1,16.5,13.9,49370,88,6.8,4.3
2019,9,8,22:50,UTC,7,1022.7,84,0,-1,16.7,14,50000,95,5.9,4
2019,9,8,23:00,UTC,7,1022.6,84,0,-1,16.6,14,48270,97,6.5,4.3
2019,9,8,23:10,UTC,7,1022.5,85,0,-1,16.6,14,47660,93,6.5,4.2
2019,9,8,23:20,UTC,7,1022.4,86,0,-1,16.4,14,43370,86,6.4,4.3
2019,9,8,23:30,UTC,3,1022.4,86,0,-1,16.3,14,46300,85,7.5,4.6
2019,9,8,23:40,UTC,1,1022.3,86,0,-1,16.5,14.1,49190,86,6.8,4.5
2019,9,8,23:50,UTC,1,1022.3,86,0,-1,16.5,14.1,45430,90,5.6,3.1
2019,9,9,00:00,UTC,5,1022.2,86,0,-1,16.6,14.2,40470,87,7.7,4
2019,9,9,00:10,UTC,7,1022.2,86,0,-1,16.5,14.2,47160,83,8.3,5.2
2019,9,9,00:20,UTC,7,1022.3,86,0,-1,16.6,14.2,43670,85,8.1,5.5
2019,9,9,00:30,UTC,5,1022.4,86,0,-1,16.6,14.2,46570,87,6.8,4
2019,9,9,00:40,UTC,3,1022.4,86,0,-1,16.6,14.2,41030,101,6.5,3.7
2019,9,9,00:50,UTC,5,1022.4,86,0,-1,16.6,14.2,47720,107,6.4,4.2
2019,9,9,01:00,UTC,5,1022.3,87,0,-1,16.5,14.3,46470,97,6.6,4.3
2019,9,9,01:10,UTC,5,1022.3,88,0,-1,16.3,14.3,36710,99,7.1,3.9
2019,9,9,01:20,UTC,5,1022.1,87,0,-1,16.5,14.3,40250,100,5.8,3.6
2019,9,9,01:30,UTC,5,1021.8,87,0,-1,16.5,14.4,42840,95,6.6,3.8
2019,9,9,01:40,UTC,7,1021.6,88,0,-1,16.3,14.4,42940,87,8.1,5.1
2019,9,9,01:50,UTC,7,1021.7,88,0,-1,16.4,14.4,42040,81,6.9,4.3
2019,9,9,02:00,UTC,7,1021.6,89,0,-1,16.4,14.5,25400,96,6.5,4.4
2019,9,9,02:10,UTC,7,1021.2,91,0.3,-1,16.1,14.6,14060,97,7,4.8
2019,9,9,02:20,UTC,7,1021,92,0.6,-1,16.1,14.7,20300,89,7.5,5
2019,9,9,02:30,UTC,7,1021.2,92,0,-1,16,14.7,24640,96,6.7,4.2
2019,9,9,02:40,UTC,7,1021.1,92,0,-1,16,14.7,26260,96,6.3,3.7
2019,9,9,02:50,UTC,7,1021.1,93,0,-1,15.9,14.8,28570,92,6.5,4
2019,9,9,03:00,UTC,7,1021,93,0,-1,15.9,14.8,29100,90,5.7,3.6
2019,9,9,03:10,UTC,7,1021.1,93,0,-1,15.9,14.8,28260,89,6.1,4.1
2019,9,9,03:20,UTC,7,1021,93,0,-1,15.9,14.8,28940,95,5.9,3.5
2019,9,9,03:30,UTC,7,1020.9,93,0,-1,15.9,14.8,25920,95,6.5,3.7
2019,9,9,03:40,UTC,5,1020.8,93,0,-1,15.9,14.8,24660,91,5.7,3.9
2019,9,9,03:50,UTC,5,1020.8,94,0,-1,15.8,14.9,24410,99,6.2,4.1
2019,9,9,04:00,UTC,5,1020.9,94,0,-1,15.8,14.9,20720,95,5.8,3.8
2019,9,9,04:10,UTC,5,1020.9,94,0,-1,15.8,14.9,18260,105,5.2,3.4
2019,9,9,04:20,UTC,7,1020.8,94,0,-1,15.9,15,18420,102,5,3.4
2019,9,9,04:30,UTC,7,1020.6,94,0,-1,16,15,16880,100,6.3,3.9
2019,9,9,04:40,UTC,7,1020.7,94,0,-1,16.1,15.1,16300,94,6.2,3.9
2019,9,9,04:50,UTC,7,1020.7,94,0,-1,16.1,15.1,14870,98,6,3.8
2019,9,9,05:00,UTC,7,1020.6,94,0,-1,16.1,15.2,15390,94,6.4,4.1
2019,9,9,05:10,UTC,5,1020.6,94,0,-1,16.2,15.3,13700,90,5.9,4.1
2019,9,9,05:20,UTC,7,1020.5,94,0,-1,16.3,15.3,13970,94,5.4,3.8
2019,9,9,05:30,UTC,7,1020.4,94,0,-1,16.4,15.4,15090,91,5.8,4
2019,9,9,05:40,UTC,7,1020.4,93,0,-1,16.7,15.6,16900,96,6.1,3.5
2019,9,9,05:50,UTC,8,1020.3,93,0,-1,16.8,15.6,19980,101,6.7,4.3
2019,9,9,06:00,UTC,7,1020.4,92,0,-1,16.9,15.6,19750,106,7.1,4.6
2019,9,9,06:10,UTC,7,1020.5,91,0,-1,16.8,15.4,19080,115,7.9,6
2019,9,9,06:20,UTC,7,1020.6,91,0,-1,16.8,15.4,17690,115,8.2,6
2019,9,9,06:30,UTC,7,1020.5,91,0,-1,16.7,15.3,18940,121,7.4,4.8
2019,9,9,06:40,UTC,7,1020.3,91,0,-1,16.7,15.3,19580,120,7.6,4.9
2019,9,9,06:50,UTC,7,1020.1,91,0,-1,17,15.6,23570,119,7.7,5.2
2019,9,9,07:00,UTC,7,1020,90,0,-1,17.2,15.6,25160,116,8.5,6
2019,9,9,07:10,UTC,3,1020,88,0,-1,17.4,15.5,29520,122,8,5.5
2019,9,9,07:20,UTC,3,1020.2,88,0,-1,17.4,15.4,29970,119,8.3,5.7
2019,9,9,07:30,UTC,5,1020.4,90,0,-1,17.2,15.4,25690,126,8.3,4.6
2019,9,9,07:40,UTC,5,1020.4,90,0,-1,17,15.4,25560,131,7,4.3
2019,9,9,07:50,UTC,7,1020.5,92,0,-1,16.8,15.5,17820,133,6.5,3.9
2019,9,9,08:00,UTC,7,1020.5,92,0,-1,17,15.8,13000,134,6.6,4.1
2019,9,9,08:10,UTC,7,1020.4,91,0,-1,17.2,15.8,16470,142,6.4,3.3
2019,9,9,08:20,UTC,7,1020.6,91,0,-1,17.1,15.5,25980,137,6.6,3.9
2019,9,9,08:30,UTC,7,1020.7,93,1.3,-1,16.8,15.6,5370,140,6,4
2019,9,9,08:40,UTC,7,1020.7,95,7.6,-1,16.6,15.8,1710,167,6.1,3.1
2019,9,9,08:50,UTC,7,1020.7,95,4.1,-1,16.6,15.9,6600,167,5.2,3.2
2019,9,9,09:00,UTC,7,1020.9,96,0,-1,16.7,16.1,8520,186,4.1,2
2019,9,9,09:10,UTC,8,1020.9,96,0,-1,16.8,16.2,6720,194,4.5,2.4
2019,9,9,09:20,UTC,7,1021,94,0,-1,16.9,15.9,11360,208,6,4.2
2019,9,9,09:30,UTC,7,1021,95,4.7,-1,16.7,15.9,1870,210,6.5,4.2
2019,9,9,09:40,UTC,7,1021,96,2.9,-1,16.7,16,5750,206,5.1,3.3
2019,9,9,09:50,UTC,7,1021.1,96,0.1,-1,16.9,16.2,9860,191,4.3,2.3
2019,9,9,10:00,UTC,7,1021.1,95,0,-1,17,16.2,10890,192,4.1,2.4
2019,9,9,10:10,UTC,7,1021.1,93,0,-1,17.1,16.1,10850,192,3.5,2
2019,9,9,10:20,UTC,8,1021.1,93,0,-1,17.1,15.9,14030,191,3.8,2.4
2019,9,9,10:30,UTC,8,1021,93,0,-1,17,15.9,11240,171,4.2,2.2
2019,9,9,10:40,UTC,8,1021,93,0,-1,17.2,16.1,13290,198,3.4,1.9
2019,9,9,10:50,UTC,7,1020.9,93,0,-1,17.5,16.3,16660,203,3.5,2.4
2019,9,9,11:00,UTC,5,1020.9,88,0,-1,17.6,15.6,16460,192,3.6,2
2019,9,9,11:10,UTC,5,1021,86,0,-1,17.8,15.5,25070,195,2.7,1.6
2019,9,9,11:20,UTC,3,1020.8,86,0,-1,18.2,15.8,25030,197,2.8,1.8
2019,9,9,11:30,UTC,5,1020.8,88,0,-1,18.7,16.7,28900,149,2.7,1.2
2019,9,9,11:40,UTC,5,1020.9,86,0,-1,18,15.5,30800,143,3.5,2
2019,9,9,11:50,UTC,7,1020.9,85,0,-1,17.9,15.3,34110,141,3.8,2.8
2019,9,9,12:00,UTC,7,1021,87,0,-1,18,15.8,29480,149,3.9,2.6
2019,9,9,12:10,UTC,8,1021.1,86,0,-1,18,15.7,29110,152,3.9,2.2
2019,9,9,12:20,UTC,8,1021.1,85,0,-1,18,15.5,32500,151,4.6,3.2
2019,9,9,12:30,UTC,8,1021,86,0,-1,18.1,15.7,28460,157,4.5,2.7
2019,9,9,12:40,UTC,8,1020.9,85,0,-1,17.7,15.3,29190,161,4.5,2.7
2019,9,9,12:50,UTC,7,1020.9,85,0,-1,17.8,15.3,28340,137,3.3,1.8
2019,9,9,13:00,UTC,7,1020.9,85,0,-1,17.8,15.3,27230,134,3.6,2.5
2019,9,9,13:10,UTC,8,1020.8,85,0,-1,18.2,15.7,33440,135,3.7,2.5
2019,9,9,13:20,UTC,7,1020.8,82,0,-1,18.5,15.5,30750,137,4.2,2.4
2019,9,9,13:30,UTC,7,1020.8,84,0,-1,18.5,15.8,31010,121,3.1,2.1
2019,9,9,13:40,UTC,7,1020.8,84,0,-1,18.3,15.4,28120,121,3,2.2
2019,9,9,13:50,UTC,7,1020.8,84,0,-1,18.4,15.7,27990,108,3.8,2.5
2019,9,9,14:00,UTC,3,1020.7,84,0,-1,18.3,15.6,30000,115,4.2,2.9
2019,9,9,14:10,UTC,1,1020.7,84,0,-1,18.3,15.5,35070,119,5.1,3.5
2019,9,9,14:20,UTC,1,1020.7,84,0,-1,18.3,15.6,29420,113,4.4,3.2
2019,9,9,14:30,UTC,0,1020.7,85,0,-1,18.2,15.6,27340,111,4.1,2.7
2019,9,9,14:40,UTC,1,1020.7,85,0,-1,18.2,15.7,30250,112,4.9,3.1
2019,9,9,14:50,UTC,3,1020.7,86,0,-1,18.3,15.8,27010,112,4.7,3.3
2019,9,9,15:00,UTC,3,1020.7,86,0,-1,18.1,15.7,27930,112,3.9,3
2019,9,9,15:10,UTC,5,1020.8,86,0,-1,18.2,15.7,29860,111,3.1,2.2
2019,9,9,15:20,UTC,3,1020.8,85,0,-1,18,15.5,25820,112,3.4,2.6
2019,9,9,15:30,UTC,1,1020.8,87,0,-1,17.9,15.7,28000,110,3.1,2.2
2019,9,9,15:40,UTC,1,1020.9,88,0,-1,17.8,15.8,25150,107,3.1,2
2019,9,9,15:50,UTC,1,1020.9,88,0,-1,17.6,15.6,22030,106,3.2,2.3
2019,9,9,16:00,UTC,0,1021,88,0,-1,17.4,15.4,26140,97,3.3,2.6
2019,9,9,16:10,UTC,0,1021.1,89,0,-1,17.3,15.4,23210,105,3.7,2.5
2019,9,9,16:20,UTC,1,1021.2,90,0,-1,17.3,15.5,22180,102,3.5,2.6
2019,9,9,16:30,UTC,1,1021.2,90,0,-1,17.1,15.4,19450,104,3.8,2.7
2019,9,9,16:40,UTC,1,1021.3,91,0,-1,17,15.4,19310,111,3.9,2.8
2019,9,9,16:50,UTC,0,1021.3,91,0,-1,16.8,15.4,17740,109,3.7,2.7
2019,9,9,17:00,UTC,0,1021.2,92,0,-1,16.6,15.3,16150,105,4.1,2.5
2019,9,9,17:10,UTC,0,1021.3,93,0,-1,16.4,15.3,14280,100,4.2,2.7
2019,9,9,17:20,UTC,0,1021.4,93,0,-1,16.3,15.3,14630,95,4.4,2.6
2019,9,9,17:30,UTC,0,1021.4,94,0,-1,16.3,15.3,13420,103,5.1,2.8
2019,9,9,17:40,UTC,0,1021.5,94,0,-1,16.3,15.4,12450,99,5.2,3.3
2019,9,9,17:50,UTC,0,1021.5,95,0,-1,16.3,15.5,12000,99,5.2,3
2019,9,9,18:00,UTC,0,1021.5,95,0,-1,16.3,15.5,10410,90,4.7,3.1
2019,9,9,18:10,UTC,0,1021.6,95,0,-1,16.3,15.5,10110,96,4.4,2.7
2019,9,9,18:20,UTC,0,1021.6,96,0,-1,16.3,15.6,9530,96,4.6,2.8
2019,9,9,18:30,UTC,0,1021.6,96,0,-1,16.2,15.5,9790,91,4.6,3.3
2019,9,9,18:40,UTC,0,1021.6,96,0,-1,16.2,15.5,9220,93,5.9,3.2
2019,9,9,18:50,UTC,0,1021.6,96,0,-1,16.1,15.5,9300,97,4.9,2.8
2019,9,9,19:00,UTC,0,1021.6,96,0,-1,16.1,15.5,9220,89,5.8,3.7
2019,9,9,19:10,UTC,0,1021.7,96,0,-1,16,15.4,8330,90,5.1,3.1
2019,9,9,19:20,UTC,0,1021.7,97,0,-1,16.1,15.6,8770,90,5.1,3.1
2019,9,9,19:30,UTC,0,1021.7,96,0,-1,15.9,15.4,7350,87,5.1,3.6
2019,9,9,19:40,UTC,0,1021.7,97,0,-1,16,15.5,8130,87,5.3,3.7
2019,9,9,19:50,UTC,0,1021.7,97,0,-1,16.1,15.6,8370,89,5.2,3.6
2019,9,9,20:00,UTC,1,1021.7,97,0,-1,16,15.5,8230,85,5.1,3.3
2019,9,9,20:10,UTC,1,1021.8,97,0,-1,15.9,15.3,6880,78,4.5,2.8
2019,9,9,20:20,UTC,3,1021.7,97,0,-1,15.8,15.3,6010,67,3.5,2.4
2019,9,9,20:30,UTC,5,1021.6,97,0,-1,15.7,15.3,5500,73,4.5,3.1
2019,9,9,20:40,UTC,7,1021.7,97,0,-1,15.8,15.4,4880,77,4.9,3.5
2019,9,9,20:50,UTC,7,1021.6,97,0,-1,15.9,15.4,5320,76,4.7,3.2
2019,9,9,21:00,UTC,7,1021.6,97,0,-1,15.9,15.5,5870,77,5.7,3.5
2019,9,9,21:10,UTC,3,1021.6,97,0,-1,15.9,15.5,6440,85,7.2,4.4
2019,9,9,21:20,UTC,1,1021.5,97,0,-1,16,15.5,7490,84,6.6,4.8
2019,9,9,21:30,UTC,1,1021.4,97,0,-1,16,15.5,7550,88,7.1,4.9
2019,9,9,21:40,UTC,1,1021.3,97,0,-1,16.1,15.6,8570,89,6.8,4.4
2019,9,9,21:50,UTC,1,1021.3,97,0,-1,16.2,15.6,9360,84,6.4,4.4
2019,9,9,22:00,UTC,1,1021.2,96,0,-1,16.1,15.5,9670,85,6.6,4.9
2019,9,9,22:10,UTC,3,1021.2,96,0,-1,16.2,15.6,9350,87,6.7,4.7
2019,9,9,22:20,UTC,5,1021.2,96,0,-1,16.2,15.5,9020,88,7.2,5.1
2019,9,9,22:30,UTC,5,1021.1,96,0,-1,16,15.4,8350,87,7.1,4.6
2019,9,9,22:40,UTC,1,1021.1,96,0,-1,16.2,15.6,9320,81,6.3,3.5
2019,9,9,22:50,UTC,1,1021.1,96,0,-1,16.1,15.4,8090,85,4.7,3.2
2019,9,9,23:00,UTC,1,1021,96,0,-1,16.1,15.5,7750,88,5,3.7
2019,9,9,23:10,UTC,1,1021,96,0,-1,16.2,15.5,8400,81,6.5,4.2
2019,9,9,23:20,UTC,0,1020.9,96,0,-1,16.1,15.5,8740,82,5.7,3.3
2019,9,9,23:30,UTC,3,1020.9,96,0,-1,16.3,15.6,9120,76,5.3,3
2019,9,9,23:40,UTC,5,1020.9,95,0,-1,16.3,15.6,9600,77,4.8,2.9
2019,9,9,23:50,UTC,7,1020.8,95,0,-1,16.2,15.4,8130,84,4.6,3.3
2019,9,10,00:00,UTC,5,1020.7,96,0,-1,16,15.3,7760,76,4.9,3.2
2019,9,10,00:10,UTC,5,1020.5,96,0,-1,16,15.3,7150,75,4.5,2.9
2019,9,10,00:20,UTC,5,1020.6,96,0,-1,16,15.4,6770,79,5,3.5
2019,9,10,00:30,UTC,7,1020.6,96,0,-1,16,15.4,7290,90,5.2,3.8
2019,9,10,00:40,UTC,7,1020.6,97,0,-1,15.9,15.4,6590,87,5.2,3.8
2019,9,10,00:50,UTC,7,1020.6,97,0,-1,16.1,15.6,7170,83,5.5,3.7
2019,9,10,01:00,UTC,7,1020.6,97,0,-1,16.2,15.6,7870,83,5.4,3
2019,9,10,01:10,UTC,7,1020.5,97,0,-1,16.2,15.6,7810,86,4.7,3.2
2019,9,10,01:20,UTC,7,1020.4,97,0,-1,16.1,15.6,7600,85,6.1,3.2
2019,9,10,01:30,UTC,3,1020.3,97,0,-1,16.1,15.6,6870,74,4.8,2.7
2019,9,10,01:40,UTC,1,1020.3,97,0,-1,16,15.5,5820,84,4.1,2.9
2019,9,10,01:50,UTC,1,1020.2,97,0,-1,16,15.5,5780,83,4,2.9
2019,9,10,02:00,UTC,1,1020,97,0,-1,15.9,15.5,5340,94,4.3,2.7
2019,9,10,02:10,UTC,3,1020,97,0,-1,16,15.6,5770,92,4,2.9
2019,9,10,02:20,UTC,5,1020.1,97,0,-1,16,15.6,4060,75,4.7,2.8
2019,9,10,02:30,UTC,5,1020.1,98,0,-1,16.1,15.7,4610,75,3.5,2.3
2019,9,10,02:40,UTC,7,1020.1,98,0,-1,16.2,15.8,5430,91,4.4,3.1
2019,9,10,02:50,UTC,7,1020.2,98,0,-1,16.1,15.8,4890,5,4,2.5
2019,9,10,03:00,UTC,7,1020.1,98,0,-1,16.2,15.8,4000,69,4.3,2.5
2019,9,10,03:10,UTC,7,1020.3,98,0,-1,16.2,15.9,4690,47,4.1,2.3
2019,9,10,03:20,UTC,7,1020.1,98,0,-1,16.2,15.9,3750,55,4.7,2.5
2019,9,10,03:30,UTC,7,1020.3,98,0,-1,16.3,15.9,4160,71,4.9,2.9
2019,9,10,03:40,UTC,8,1020.3,98,0,-1,16.3,16,3610,48,3.7,2.2
2019,9,10,03:50,UTC,8,1020.2,98,0,-1,16.3,16,3730,66,3.9,2.4
2019,9,10,04:00,UTC,8,1020.3,98,0,-1,16.4,16.1,3770,58,3.7,2.5
2019,9,10,04:10,UTC,7,1020.3,98,0,-1,16.4,16.1,3570,67,3.9,2.7
2019,9,10,04:20,UTC,8,1020.2,98,0,-1,16.5,16.1,3400,71,4,2.7
2019,9,10,04:30,UTC,7,1020.2,98,0,-1,16.5,16.2,3570,58,5.4,3.2
2019,9,10,04:40,UTC,7,1020.3,98,0,-1,16.5,16.1,3850,70,4.7,3.1
2019,9,10,04:50,UTC,7,1020.1,98,0,-1,16.5,16.1,3920,78,4.8,3.4
2019,9,10,05:00,UTC,7,1020,98,0,-1,16.5,16.1,4700,88,4.9,3.3
2019,9,10,05:10,UTC,7,1020,98,0,-1,16.6,16.2,6270,95,5.1,3.3
2019,9,10,05:20,UTC,7,1020,97,0,-1,16.7,16.2,7630,99,5,3.3
2019,9,10,05:30,UTC,7,1020,97,0,-1,16.6,16.1,8190,102,6.2,3.2
2019,9,10,05:40,UTC,5,1020.1,97,0,-1,16.8,16.3,8430,84,5.1,3.3
2019,9,10,05:50,UTC,3,1020,95,0,-1,17.3,16.5,11360,90,6,4
2019,9,10,06:00,UTC,1,1019.9,92,0,-1,17.8,16.5,14500,84,5.2,3.5
2019,9,10,06:10,UTC,0,1020,89,0,-1,18.2,16.3,16110,75,5.1,3.5
2019,9,10,06:20,UTC,0,1020,86,0,-1,18.5,16.2,18000,99,4.1,2.8
2019,9,10,06:30,UTC,0,1019.9,86,0,-1,18.6,16.2,19830,90,4.6,3
2019,9,10,06:40,UTC,0,1020,83,0,-1,18.9,15.9,21470,85,4.5,3
2019,9,10,06:50,UTC,0,1019.9,82,0,-1,19,16,27430,90,5.3,3.6
2019,9,10,07:00,UTC,0,1019.9,80,0,-1,19.1,15.6,23280,85,5,3.6
2019,9,10,07:10,UTC,1,1020,81,0,-1,19.2,15.9,26070,95,5.5,3.3
2019,9,10,07:20,UTC,0,1020.1,83,0,-1,19.2,16.2,27010,102,5.5,3.5
2019,9,10,07:30,UTC,0,1020.1,82,0,-1,19.2,16.1,22810,107,7.9,4.4
2019,9,10,07:40,UTC,0,1020.2,82,0,-1,19.2,16.1,23990,100,7,5
2019,9,10,07:50,UTC,0,1020.2,83,0,-1,18.9,16,23820,101,6.6,4.6
2019,9,10,08:00,UTC,0,1020.1,82,0,-1,19.1,16.1,27810,97,6.8,4.4
2019,9,10,08:10,UTC,0,1020.1,79,0,-1,19.1,15.4,24730,92,6.2,4.3
2019,9,10,08:20,UTC,0,1020.1,77,0,-1,19.5,15.4,25470,84,8.6,5.7
2019,9,10,08:30,UTC,0,1020.3,76,0,-1,19.9,15.5,28530,102,8.2,5.3
2019,9,10,08:40,UTC,0,1020.1,74,0,-1,19.8,15.1,29220,100,7.3,5.3
2019,9,10,08:50,UTC,0,1020.1,75,0,-1,19.6,15,28770,93,7.6,5.2
2019,9,10,09:00,UTC,0,1020.1,74,0,-1,20,15.1,33030,103,7.4,5.3
2019,9,10,09:10,UTC,1,1020,73,0,-1,19.9,14.9,29090,104,7.7,5.5
2019,9,10,09:20,UTC,1,1020,72,0,-1,19.9,14.8,36250,98,7.3,5.3
2019,9,10,09:30,UTC,1,1019.9,71,0,-1,20.4,14.9,31740,91,8.1,5.8
2019,9,10,09:40,UTC,,,,,,,,,106,7.2,5.1
2019,9,10,09:50,UTC,,,,,,,,,110,9.9,6.4
2019,9,10,10:00,UTC,,,,,,,,,99,9.2,6.3
2019,9,10,10:10,UTC,,,,,,,,,98,8.2,5.9
2019,9,10,10:20,UTC,,,,,,,,,94,7.7,5.3
2019,9,10,10:30,UTC,,,,,,,,,97,7.6,5.2
2019,9,10,10:40,UTC,,,,,,,,,97,8.1,5
2019,9,10,10:50,UTC,,,,,,,,,96,7.5,5.2
2019,9,10,11:00,UTC,,,,,,,,,98,7.8,5.1
2019,9,10,11:10,UTC,,,,,,,,,101,7,4.7
2019,9,10,11:20,UTC,,,,,,,,,98,7.7,5.1
2019,9,10,11:30,UTC,,,,,,,,,103,7.5,4.5
2019,9,10,11:40,UTC,,,,,,,,,102,6.5,4.4
2019,9,10,11:50,UTC,,,,,,,,,97,7.5,4.9
2019,9,10,12:00,UTC,,,,,,20.3,,,98,7,5
2019,9,10,12:10,UTC,,,,,,,,,98,7.5,4.9
2019,9,10,12:20,UTC,1,1019.4,75,,-1,20.3,15.8,21090,99,7.4,4.9
2019,9,10,12:30,UTC,1,1019.3,75,0,-1,20.4,16,,101,7.9,4.5
2019,9,10,12:40,UTC,1,1019.2,76,0,-1,20.4,16.1,,104,7.4,4.7
2019,9,10,12:50,UTC,1,1019.1,76,0,-1,20.4,16,,105,6.7,4.4
2019,9,10,13:00,UTC,1,1019.1,73,0,-1,20.9,15.8,22600,106,6.7,4.7
2019,9,10,13:10,UTC,1,1019.1,70,0,-1,21.1,15.5,25650,108,5.9,3.9
2019,9,10,13:20,UTC,0,1019,69,0,-1,21.1,15.1,25260,117,7.9,5.9
2019,9,10,13:30,UTC,0,1018.9,69,0,-1,21.1,15.1,26800,115,9.1,7
2019,9,10,13:40,UTC,0,1018.9,69,0,-1,21,15.2,27810,113,9.3,7
2019,9,10,13:50,UTC,0,1018.8,70,0,-1,20.7,15,30410,113,9.1,6.9
2019,9,10,14:00,UTC,0,1018.7,69,0,-1,21,15,27640,115,8,5.7
2019,9,10,14:10,UTC,0,1018.7,69,0,-1,21,15,27280,115,7.7,5.7
2019,9,10,14:20,UTC,1,1018.7,69,0,-1,21,15,26120,117,6.7,5
2019,9,10,14:30,UTC,0,1018.7,68,0,-1,20.8,14.8,27140,114,7.4,5
2019,9,10,14:40,UTC,0,1018.6,68,0,-1,20.6,14.5,29690,114,7.1,5.1
2019,9,10,14:50,UTC,0,1018.5,69,0,-1,20.5,14.6,26760,113,6.2,4.4
2019,9,10,15:00,UTC,0,1018.5,68,0,-1,20.5,14.5,28860,114,6.1,4.3
2019,9,10,15:10,UTC,0,1018.5,66,0,-1,20.8,14.3,34870,120,5.7,3.6
2019,9,10,15:20,UTC,0,1018.4,64,0,-1,21,13.9,30710,118,7.8,5.2
2019,9,10,15:30,UTC,0,1018.4,64,0,-1,21,14,30760,118,7.3,5.1
2019,9,10,15:40,UTC,0,1018.4,65,0,-1,20.9,14,35170,123,7.8,4.7
2019,9,10,15:50,UTC,1,1018.4,63,0,-1,21,13.7,36950,120,7.1,4.3
2019,9,10,16:00,UTC,0,1018.5,64,0,-1,20.8,13.8,28740,123,7.4,3.9
2019,9,10,16:10,UTC,0,1018.5,66,0,-1,20.5,14,33620,129,8.2,4.6
2019,9,10,16:20,UTC,0,1018.6,68,0,-1,20.3,14.2,29660,133,7.3,4.8
2019,9,10,16:30,UTC,0,1018.6,67,0,-1,20.4,14,32510,137,7.4,4.6
2019,9,10,16:40,UTC,0,1018.6,67,0,-1,20.4,14,29660,137,7.6,4.7
2019,9,10,16:50,UTC,1,1018.6,67,0,-1,20.3,14,32600,137,8.7,4.6
2019,9,10,17:00,UTC,3,1018.6,66,0,-1,20.4,13.9,32270,136,8,5
2019,9,10,17:10,UTC,3,1018.6,65,0,-1,20.4,13.7,33070,135,7.9,4.3
2019,9,10,17:20,UTC,1,1018.5,66,0,-1,20.3,13.7,28660,133,7.5,4.4
2019,9,10,17:30,UTC,1,1018.5,66,0,-1,20.4,13.7,34490,132,7.7,4.9
2019,9,10,17:40,UTC,0,1018.4,65,0,-1,20.4,13.7,34730,132,10.5,5.4
2019,9,10,17:50,UTC,0,1018.4,66,0,-1,20.3,13.8,33360,135,8.1,4.9
2019,9,10,18:00,UTC,1,1018.3,65,0,-1,20.4,13.7,35020,135,7.1,4.4
2019,9,10,18:10,UTC,1,1018.3,66,0,-1,20.2,13.7,37000,136,7.7,4.4
2019,9,10,18:20,UTC,1,1018.3,67,0,-1,20.1,13.7,36210,136,8.8,4.6
2019,9,10,18:30,UTC,1,1018.2,67,0,-1,19.9,13.7,37700,137,7.9,4.8
2019,9,10,18:40,UTC,3,1018.3,67,0,-1,20.1,13.7,38070,134,8.7,4.6
2019,9,10,18:50,UTC,5,1018.4,68,0,-1,19.9,13.9,35550,136,8.1,4.9
2019,9,10,19:00,UTC,5,1018.6,68,0,-1,19.9,13.8,36350,140,8.5,5.7
2019,9,10,19:10,UTC,1,1018.6,68,0,-1,19.6,13.7,38790,142,8.7,5.7
2019,9,10,19:20,UTC,1,1018.5,69,0,-1,19.7,13.9,33480,147,8.5,4.8
2019,9,10,19:30,UTC,0,1018.5,71,0,-1,19.4,14.1,32220,153,8,5.1
2019,9,10,19:40,UTC,0,1018.6,72,0,-1,19.3,14.2,29860,158,9,5.1
2019,9,10,19:50,UTC,0,1018.7,74,0,-1,18.9,14.1,27470,153,8.4,4.4
2019,9,10,20:00,UTC,0,1018.7,69,0,-1,19.3,13.4,32150,169,5.3,3.3
2019,9,10,20:10,UTC,0,1018.6,63,0,-1,19.5,12.3,34950,181,6.2,3.7
2019,9,10,20:20,UTC,1,1018.5,65,0,-1,19.1,12.4,40100,174,5.5,3.1
2019,9,10,20:30,UTC,3,1018.4,65,0,-1,19.3,12.5,36050,166,4.9,2.5
2019,9,10,20:40,UTC,5,1018.4,68,0,-1,19.1,13,38430,141,4.8,2.8
2019,9,10,20:50,UTC,7,1018.3,64,0,-1,19.2,12.2,38400,140,5.5,3.3
2019,9,10,21:00,UTC,8,1018,59,0,-1,19.6,11.4,42570,139,5,2.7
2019,9,10,21:10,UTC,7,1017.9,63,0,-1,19.2,12.1,35220,114,3.7,2.1
2019,9,10,21:20,UTC,7,1017.8,67,0,-1,18.9,12.7,42580,104,4.9,3
2019,9,10,21:30,UTC,7,1017.7,70,0,-1,18.7,13.1,42690,112,5.2,3.7
2019,9,10,21:40,UTC,7,1017.7,70,0,-1,18.7,13.2,38440,111,4.5,3.3
2019,9,10,21:50,UTC,7,1017.7,69,0,-1,18.6,12.8,36940,113,5,3.5
2019,9,10,22:00,UTC,7,1017.7,69,0,-1,18.7,12.9,38160,117,5,3.7
2019,9,10,22:10,UTC,7,1017.6,73,0,-1,18.7,13.8,35480,115,6.2,4.3
2019,9,10,22:20,UTC,7,1017.6,74,0,-1,18.7,14,30240,113,7.1,5.4
2019,9,10,22:30,UTC,3,1017.7,74,0,-1,18.7,13.9,29460,121,7.4,4.5
2019,9,10,22:40,UTC,1,1017.7,73,0,-1,18.7,13.8,35560,142,8.2,4.3
2019,9,10,22:50,UTC,1,1017.8,74,0,-1,18.8,14,31150,154,9.1,5.3
2019,9,10,23:00,UTC,1,1017.7,75,0,-1,18.5,13.9,29620,156,7.8,4.9
2019,9,10,23:10,UTC,1,1017.7,74,0,-1,18.4,13.7,28950,154,7.7,5
2019,9,10,23:20,UTC,0,1017.6,73,0,-1,18.4,13.5,34670,154,8.2,5.3
2019,9,10,23:30,UTC,0,1017.6,74,0,-1,18.3,13.5,33310,155,7.7,4.9
2019,9,10,23:40,UTC,0,1017.6,73,0,-1,18.2,13.4,35450,154,7.7,4.8
2019,9,10,23:50,UTC,0,1017.5,73,0,-1,18.2,13.2,33500,153,8,5.1
2019,9,11,00:00,UTC,0,1017.4,74,0,-1,18,13.3,30840,153,7.6,4.4
2019,9,11,00:10,UTC,0,1017.4,74,0,-1,18,13.3,29770,150,7.5,4.2
2019,9,11,00:20,UTC,0,1017.4,75,0,-1,17.8,13.4,33210,152,6.5,3.7
2019,9,11,00:30,UTC,0,1017.4,76,0,-1,17.7,13.4,32670,149,6.2,3.7
2019,9,11,00:40,UTC,0,1017.4,76,0,-1,17.7,13.3,38200,150,6.9,4.1
2019,9,11,00:50,UTC,0,1017.3,75,0,-1,17.8,13.2,32990,153,7.4,4.1
2019,9,11,01:00,UTC,0,1017.2,75,0,-1,17.6,13.1,35020,157,7.7,4.8
2019,9,11,01:10,UTC,0,1017.1,74,0,-1,17.5,12.9,33740,157,8.8,4.8
2019,9,11,01:20,UTC,0,1017.1,73,0,-1,17.5,12.7,37200,163,8.2,4.8
2019,9,11,01:30,UTC,0,1017,73,0,-1,17.5,12.7,40130,163,7.6,4.6
2019,9,11,01:40,UTC,0,1016.9,74,0,-1,17.4,12.7,35290,159,6.8,4.2
2019,9,11,01:50,UTC,0,1016.9,75,0,-1,17.3,12.8,34110,160,7.1,4.8
2019,9,11,02:00,UTC,1,1016.9,74,0,-1,17.3,12.5,34680,162,8.3,4.6
2019,9,11,02:10,UTC,1,1016.9,73,0,-1,17.2,12.3,41070,168,8.6,5
2019,9,11,02:20,UTC,1,1016.8,73,0,-1,17.2,12.3,33530,168,8.6,5.4
2019,9,11,02:30,UTC,0,1016.6,72,0,-1,17.1,12,36770,170,8.4,5.6
2019,9,11,02:40,UTC,0,1016.6,72,0,-1,17,12,36510,170,8.5,5.5
2019,9,11,02:50,UTC,1,1016.6,71,0,-1,16.9,11.6,39790,170,9.2,5.8
2019,9,11,03:00,UTC,1,1016.7,70,0,-1,16.7,11.2,47150,175,9.5,5.9
2019,9,11,03:10,UTC,1,1016.7,72,0,-1,16.5,11.4,44290,178,8.3,5.1
2019,9,11,03:20,UTC,0,1016.6,73,0,-1,16.4,11.5,44710,177,9.5,5.5
2019,9,11,03:30,UTC,0,1016.5,73,0,-1,16.2,11.4,47130,177,9.4,5.7
2019,9,11,03:40,UTC,0,1016.6,73,0,-1,16.1,11.4,47210,177,8.1,4.9
2019,9,11,03:50,UTC,0,1016.5,74,0,-1,16.1,11.5,48280,177,9.3,5.9
2019,9,11,04:00,UTC,0,1016.4,75,0,-1,16,11.5,42400,177,9.3,5.2
2019,9,11,04:10,UTC,0,1016.3,75,0,-1,16,11.5,44220,174,8.7,5.4
2019,9,11,04:20,UTC,0,1016.3,75,0,-1,16,11.5,49790,171,10.9,5.9
2019,9,11,04:30,UTC,0,1016.2,75,0,-1,16,11.7,46310,171,9.5,6
2019,9,11,04:40,UTC,0,1016.2,76,0,-1,16,11.7,40470,168,8.3,5
2019,9,11,04:50,UTC,0,1016.1,74,0,-1,16.2,11.7,43550,165,8.2,5.4
2019,9,11,05:00,UTC,0,1016.1,74,0,-1,16.4,11.7,45980,169,8.1,5.6
2019,9,11,05:10,UTC,0,1016.1,73,0,-1,16.4,11.5,46900,166,9.9,6.2
2019,9,11,05:20,UTC,0,1016.1,73,0,-1,16.5,11.7,41040,166,9.6,5.8
2019,9,11,05:30,UTC,0,1015.9,72,0,-1,16.5,11.5,46690,165,10.5,6
2019,9,11,05:40,UTC,0,1015.8,72,0,-1,16.6,11.4,39990,171,11,6.3
2019,9,11,05:50,UTC,0,1015.7,71,0,-1,16.5,11.2,47560,168,10.3,6.8
2019,9,11,06:00,UTC,0,1015.6,71,0,-1,16.7,11.3,42140,167,10.2,6.7
2019,9,11,06:10,UTC,0,1015.7,69,0,-1,16.8,11.2,42100,170,10.7,6.6
2019,9,11,06:20,UTC,0,1015.6,69,0,-1,16.9,11.1,42110,171,11.4,7.1
2019,9,11,06:30,UTC,0,1015.5,68,0,-1,17,11.2,43740,173,10.5,6.5
2019,9,11,06:40,UTC,0,1015.4,68,0,-1,17.1,11,41550,169,11.7,6.8
2019,9,11,06:50,UTC,0,1015.4,69,0,-1,16.9,11.3,48120,169,11,7
2019,9,11,07:00,UTC,0,1015.3,69,0,-1,17.2,11.5,39230,169,9.2,5.5
2019,9,11,07:10,UTC,1,1015.3,65,0,-1,17.2,10.6,22530,173,10.3,6.3
2019,9,11,07:20,UTC,3,1015.3,69,0,-1,17,11.2,12570,176,12.7,6.5
2019,9,11,07:30,UTC,3,1015.2,67,0,-1,17,11,17860,175,11.1,6.3
2019,9,11,07:40,UTC,5,1015.1,68,0,-1,16.8,10.8,21290,175,11.3,6
2019,9,11,07:50,UTC,5,1015,67,0,-1,16.9,10.8,44640,176,10.4,7.1
2019,9,11,08:00,UTC,5,1015,68,0,-1,16.8,10.8,28780,173,11.4,6.3
2019,9,11,08:10,UTC,7,1015,68,0,-1,16.5,10.5,40070,174,11.2,6.9
2019,9,11,08:20,UTC,7,1014.9,69,0,-1,16.4,10.7,30240,174,10.9,6.5
2019,9,11,08:30,UTC,7,1014.9,71,0,-1,16.2,10.8,25570,175,12.3,7.2
2019,9,11,08:40,UTC,8,1014.9,74,0.4,-1,15.8,11.2,17600,179,10.7,6.4
2019,9,11,08:50,UTC,8,1014.9,78,0.4,-1,15.4,11.6,16290,184,10.8,5.5
2019,9,11,09:00,UTC,8,1014.8,80,0.5,-1,15.2,11.7,12500,178,11.5,7
2019,9,11,09:10,UTC,8,1014.7,78,0,-1,15.4,11.6,30140,180,10.2,5.9
2019,9,11,09:20,UTC,7,1014.6,77,0,-1,15.8,11.7,47710,183,10.9,6.2
2019,9,11,09:30,UTC,7,1014.6,77,0,-1,15.8,11.9,22730,186,12.7,7.4
2019,9,11,09:40,UTC,7,1014.6,76,0,-1,15.9,11.6,43400,198,12.4,7.5
2019,9,11,09:50,UTC,7,1014.6,78,0,-1,15.9,12,30390,188,11.7,7
2019,9,11,10:00,UTC,8,1014.6,84,0,-1,15.2,12.5,13970,189,15,7.5
2019,9,11,10:10,UTC,7,1014.6,86,0,-1,15.2,12.8,24300,180,14.6,7.4
2019,9,11,10:20,UTC,7,1014.6,83,0,-1,15.4,12.5,43080,182,13.2,7.2
2019,9,11,10:30,UTC,7,1014.6,83,0,-1,15.4,12.5,46370,185,14.4,8.3
2019,9,11,10:40,UTC,8,1014.6,83,0,-1,15.4,12.6,44740,185,13.1,7.9
2019,9,11,10:50,UTC,8,1014.7,83,0,-1,15.4,12.5,42620,187,14.1,7.6
2019,9,11,11:00,UTC,8,1014.6,84,0,-1,15.3,12.7,43220,188,12.5,6.8
2019,9,11,11:10,UTC,8,1014.7,84,0,-1,15.4,12.7,35360,188,11.5,6.2
2019,9,11,11:20,UTC,7,1014.6,84,0,-1,15.6,12.9,35200,186,11.3,6.3
2019,9,11,11:30,UTC,7,1014.6,84,0,-1,15.7,12.9,40160,181,10.4,6.3
2019,9,11,11:40,UTC,8,1014.5,84,0,-1,15.7,13.1,35750,183,12.3,6.8
2019,9,11,11:50,UTC,7,1014.3,84,0,-1,16.1,13.4,38300,185,13.6,7.4
2019,9,11,12:00,UTC,7,1014.2,82,0,-1,16.5,13.3,35040,184,13.4,7.5
2019,9,11,12:10,UTC,7,1014.2,82,0,-1,16.6,13.5,35010,180,12.4,7.3
2019,9,11,12:20,UTC,7,1014.1,82,0,-1,16.3,13.2,38980,179,14.7,7.5
2019,9,11,12:30,UTC,7,1014.1,83,0,-1,16.2,13.3,41760,179,13.4,7.5
2019,9,11,12:40,UTC,7,1014.1,83,0,-1,16.2,13.3,43760,178,13.6,8.9
2019,9,11,12:50,UTC,7,1013.9,84,0,-1,16.1,13.4,42590,178,12.8,7.3
2019,9,11,13:00,UTC,7,1014,86,0,-1,15.9,13.7,14280,177,12.8,8.1
2019,9,11,13:10,UTC,8,1013.9,88,0.7,-1,15.7,13.7,16490,178,14.6,8.2
2019,9,11,13:20,UTC,7,1013.7,88,0,-1,15.8,13.8,21950,175,13.4,7.8
2019,9,11,13:30,UTC,7,1013.6,88,0,-1,15.9,13.9,30770,173,12.9,8
2019,9,11,13:40,UTC,7,1013.5,87,0,-1,16,13.9,26940,175,12.4,7.7
2019,9,11,13:50,UTC,8,1013.3,88,0,-1,15.9,14,23290,174,12,7.3
2019,9,11,14:00,UTC,8,1013.2,88,0.3,-1,16,14,18670,174,13.9,7
2019,9,11,14:10,UTC,7,1013.1,87,0.1,-1,16.2,14.1,35750,178,13,8.2
2019,9,11,14:20,UTC,7,1013,87,0,-1,16.3,14.1,34350,178,13.1,7.9
2019,9,11,14:30,UTC,7,1013,87,0,-1,16.4,14.2,34590,177,13,7.8
2019,9,11,14:40,UTC,8,1012.9,86,0,-1,16.6,14.2,38530,178,13,8.3
2019,9,11,14:50,UTC,7,1012.9,85,0,-1,16.9,14.4,34590,182,12.6,7.6
2019,9,11,15:00,UTC,7,1012.9,85,0,-1,16.9,14.3,38460,184,12.6,7
2019,9,11,15:10,UTC,7,1012.8,85,0,-1,16.9,14.3,36530,185,14.4,6.7
2019,9,11,15:20,UTC,7,1012.7,84,0,-1,16.9,14.3,36300,184,14.1,7.8
2019,9,11,15:30,UTC,7,1012.7,87,0,-1,16.7,14.5,17790,189,11.7,6.5
2019,9,11,15:40,UTC,7,1012.8,87,0.3,-1,16.7,14.6,37450,189,12,7
2019,9,11,15:50,UTC,7,1012.9,87,0,-1,16.8,14.6,35200,190,14.8,7.6
2019,9,11,16:00,UTC,7,1013,87,0,-1,16.8,14.6,39350,198,13.6,6.9
2019,9,11,16:10,UTC,7,1013,87,0,-1,16.8,14.6,37640,199,14.3,6.9
2019,9,11,16:20,UTC,7,1013.1,87,0,-1,16.8,14.7,43110,198,13.5,6.9
2019,9,11,16:30,UTC,7,1013.2,87,0,-1,16.8,14.7,48540,203,14.6,7.5
2019,9,11,16:40,UTC,7,1013.2,88,0,-1,16.8,14.8,45550,202,10.4,6.1
2019,9,11,16:50,UTC,7,1013.2,89,0,-1,16.8,15,45690,199,12,6
2019,9,11,17:00,UTC,7,1013.3,88,0,-1,16.9,14.9,44020,207,11,6.1
2019,9,11,17:10,UTC,7,1013.3,90,0,-1,16.8,15.1,40990,205,9,5.6
2019,9,11,17:20,UTC,7,1013.2,89,0,-1,16.9,15,29910,206,11.1,5.5
2019,9,11,17:30,UTC,7,1013.2,88,0,-1,17,15,15880,219,8.4,4.8
2019,9,11,17:40,UTC,7,1013.3,91,0,-1,16.7,15.2,23510,210,10.2,5.6
2019,9,11,17:50,UTC,8,1013.1,91,0,-1,16.7,15.2,16150,207,7.9,5.2
2019,9,11,18:00,UTC,7,1013.1,89,0,-1,16.8,15.1,16810,214,9.5,5.3
2019,9,11,18:10,UTC,7,1013.1,89,0.5,-1,16.8,15,13900,215,8.5,5.1
2019,9,11,18:20,UTC,7,1013.1,90,0.1,-1,16.8,15,18390,225,7.8,4
2019,9,11,18:30,UTC,7,1013.2,92,0.2,-1,16.5,15.2,5420,226,8.4,4.3
2019,9,11,18:40,UTC,7,1013.4,94,8.2,-1,16,15,2970,223,12.5,7.5
2019,9,11,18:50,UTC,7,1013.5,93,0,-1,16.1,15,13710,236,11.8,6.3
2019,9,11,19:00,UTC,7,1013.7,92,0,-1,16.2,14.9,16870,241,11.5,6.5
2019,9,11,19:10,UTC,8,1013.8,92,0,-1,16.3,14.9,17780,237,11.3,6.4
2019,9,11,19:20,UTC,8,1013.8,90,0,-1,16.4,14.8,19310,239,9,5.3
2019,9,11,19:30,UTC,7,1013.7,90,0,-1,16.4,14.8,24190,246,9.9,5.4
2019,9,11,19:40,UTC,7,1013.7,90,0,-1,16.5,14.9,20650,236,9.6,5.5
2019,9,11,19:50,UTC,7,1013.8,90,0,-1,16.6,14.9,20860,239,10.1,5.4
2019,9,11,20:00,UTC,7,1013.8,90,0,-1,16.7,15,20770,235,9.3,4.8
2019,9,11,20:10,UTC,7,1013.9,94,6.7,-1,16.4,15.3,2520,228,9.7,5.2
2019,9,11,20:20,UTC,7,1014,93,0.7,-1,16.3,15.1,13060,228,10.7,6
2019,9,11,20:30,UTC,7,1013.9,93,0,-1,16.2,15.1,14290,225,10.9,5.4
2019,9,11,20:40,UTC,7,1014,92,0,-1,16.2,14.9,16260,224,10.7,5.9
2019,9,11,20:50,UTC,7,1014,91,0,-1,16.3,14.8,17790,229,10,5.8
2019,9,11,21:00,UTC,7,1014.1,90,0,-1,16.2,14.5,21450,228,10.6,5.4
2019,9,11,21:10,UTC,7,1014.2,88,0,-1,16.2,14.2,26350,233,9.5,5
2019,9,11,21:20,UTC,5,1014.4,86,0,-1,16.2,13.8,30380,239,13,6.8
2019,9,11,21:30,UTC,5,1014.6,85,0,-1,16.2,13.7,38270,243,12.6,7.8
2019,9,11,21:40,UTC,7,1014.6,85,0,-1,16.2,13.7,34800,243,13.4,7.4
2019,9,11,21:50,UTC,7,1014.7,84,0,-1,16.2,13.5,32360,244,11.6,7.3
2019,9,11,22:00,UTC,3,1014.7,83,0,-1,16.1,13.3,34760,243,10.6,6.5
2019,9,11,22:10,UTC,1,1014.8,83,0,-1,16.1,13.2,40120,239,11.1,5.9
2019,9,11,22:20,UTC,1,1014.8,82,0,-1,16.1,13.1,34750,240,10.2,5.7
2019,9,11,22:30,UTC,1,1014.8,83,0,-1,16.2,13.3,39810,239,11.4,5.3
2019,9,11,22:40,UTC,5,1014.7,85,0,-1,16.3,13.8,30840,230,7.8,4.4
2019,9,11,22:50,UTC,5,1014.7,85,0,-1,16.3,13.8,29200,233,9.8,5.1
2019,9,11,23:00,UTC,5,1014.7,84,0,-1,16.4,13.6,29660,228,9.9,5.3
2019,9,11,23:10,UTC,5,1014.7,84,0,-1,16.3,13.7,29650,227,10.7,5.4
2019,9,11,23:20,UTC,5,1014.7,82,0,-1,16.4,13.2,29500,225,9.9,5.6
2019,9,11,23:30,UTC,5,1014.7,82,0,-1,16.3,13.2,34450,224,10.7,6.5
2019,9,11,23:40,UTC,3,1014.7,83,0,-1,16.2,13.2,34190,224,10.1,6.2
2019,9,11,23:50,UTC,1,1014.7,83,0,-1,16.1,13.3,34000,222,9.6,5.5
2019,9,12,00:00,UTC,3,1014.8,85,0,-1,16,13.5,33900,223,10.8,5.5
2019,9,12,00:10,UTC,1,1014.8,85,0,-1,16,13.5,32380,219,8.9,5.7
2019,9,12,00:20,UTC,3,1014.9,87,0,-1,15.9,13.7,29320,219,10,6.6
2019,9,12,00:30,UTC,5,1014.8,86,0,-1,15.7,13.4,30140,212,11.2,5.7
2019,9,12,00:40,UTC,7,1014.8,85,0,-1,15.7,13.2,35030,211,11,6.5
2019,9,12,00:50,UTC,7,1014.7,86,0,-1,15.6,13.3,35580,214,10.2,6.3
2019,9,12,01:00,UTC,7,1014.6,85,0,-1,15.7,13.1,34110,211,9.3,6
2019,9,12,01:10,UTC,7,1014.6,84,0,-1,15.8,13.1,37330,209,11.5,6.9
2019,9,12,01:20,UTC,7,1014.5,84,0,-1,15.8,13.2,37650,210,9.9,6.4
2019,9,12,01:30,UTC,7,1014.5,85,0,-1,15.8,13.3,34540,211,11.7,7
2019,9,12,01:40,UTC,7,1014.4,87,0,-1,15.7,13.5,33350,208,10.6,6.4
2019,9,12,01:50,UTC,7,1014.3,87,0,-1,15.7,13.5,33290,209,11,6.1
2019,9,12,02:00,UTC,7,1014.3,86,0,-1,15.7,13.4,36490,212,11,6.2
2019,9,12,02:10,UTC,7,1014.3,86,0,-1,15.7,13.3,31120,211,10,6
2019,9,12,02:20,UTC,7,1014.2,85,0,-1,15.8,13.3,27060,208,10.1,6.2
2019,9,12,02:30,UTC,7,1013.9,86,0,-1,15.6,13.3,18010,204,11.9,6
2019,9,12,02:40,UTC,7,1013.9,87,0.4,-1,15.5,13.3,30190,207,11.9,5.9
2019,9,12,02:50,UTC,7,1014,86,0,-1,15.6,13.4,33340,217,11.5,6.2
2019,9,12,03:00,UTC,8,1013.8,88,0,-1,15.4,13.4,1780,216,11,6.7
2019,9,12,03:10,UTC,7,1013.5,90,2.3,-1,15,13.5,5540,217,10,5.2
2019,9,12,03:20,UTC,7,1013.6,90,0.9,-1,15.1,13.4,19500,200,14,8
2019,9,12,03:30,UTC,7,1013.7,90,0,-1,15.1,13.4,19310,207,15,9.1
2019,9,12,03:40,UTC,7,1013.5,91,1.9,-1,15,13.6,5990,203,11.1,6.2
2019,9,12,03:50,UTC,7,1013.5,90,0.8,-1,15.2,13.6,22050,226,12.7,6.2
2019,9,12,04:00,UTC,8,1013.4,89,0,-1,15.4,13.5,25890,212,14.3,7.5
2019,9,12,04:10,UTC,7,1013.4,88,0,-1,15.5,13.5,27710,209,12.7,7.4
2019,9,12,04:20,UTC,7,1013.4,85,0,-1,15.8,13.2,29570,210,13.3,7.1
2019,9,12,04:30,UTC,7,1013.4,85,0,-1,15.8,13.3,27550,212,13.5,8.3
2019,9,12,04:40,UTC,7,1013.3,84,0,-1,15.8,13,32680,208,13.2,8.3
2019,9,12,04:50,UTC,7,1013.3,84,0,-1,15.6,13,36010,205,13,7.4
2019,9,12,05:00,UTC,7,1013.2,83,0,-1,15.7,12.8,37910,206,12.5,8.6
2019,9,12,05:10,UTC,7,1013.2,83,0,-1,15.8,12.8,32850,204,13.3,8.1
2019,9,12,05:20,UTC,7,1013.2,82,0,-1,15.8,12.8,35010,204,13.5,7.7
2019,9,12,05:30,UTC,7,1013.3,81,0,-1,15.9,12.7,42020,202,11,5.9
2019,9,12,05:40,UTC,7,1013.2,80,0,-1,16.1,12.5,45250,205,12.8,8
2019,9,12,05:50,UTC,7,1013.2,79,0,-1,16.1,12.5,38990,207,12.3,8.5
2019,9,12,06:00,UTC,7,1013.3,79,0,-1,16.1,12.5,38210,210,12.3,7.9
2019,9,12,06:10,UTC,7,1013.2,80,0,-1,16.1,12.6,34840,210,12.1,7.3
2019,9,12,06:20,UTC,7,1013.1,82,0,-1,15.9,12.8,21830,209,11.9,7.6
2019,9,12,06:30,UTC,7,1013,81,0,-1,15.9,12.7,23970,209,10.9,7.2
2019,9,12,06:40,UTC,7,1012.9,82,0,-1,15.9,12.7,23710,206,12.7,7.4
2019,9,12,06:50,UTC,7,1012.8,80,0,-1,16,12.6,35210,208,13.9,6.8
2019,9,12,07:00,UTC,7,1012.8,80,0,-1,16.1,12.6,37260,206,13.1,7.8
2019,9,12,07:10,UTC,7,1012.8,79,0,-1,15.9,12.3,29410,209,14.6,8.1
2019,9,12,07:20,UTC,7,1012.8,79,0,-1,15.6,12,23690,209,16.6,9.8
2019,9,12,07:30,UTC,7,1012.6,83,0,-1,15.2,12.4,19650,207,16.6,9.1
2019,9,12,07:40,UTC,7,1012.5,85,0,-1,15.3,12.8,22790,205,15.8,9.2
2019,9,12,07:50,UTC,7,1012.5,85,0,-1,15.2,12.7,22410,203,13.5,7
2019,9,12,08:00,UTC,7,1012.4,86,0,-1,15.1,12.7,16240,205,15.9,7.8
2019,9,12,08:10,UTC,7,1012.3,88,0.6,-1,15,13,13070,204,13.6,7.8
2019,9,12,08:20,UTC,8,1012.2,88,0.4,-1,15,13,13360,204,15.9,8
2019,9,12,08:30,UTC,7,1012.1,85,0.1,-1,15.3,12.9,27760,207,15.7,8.8
2019,9,12,08:40,UTC,7,1012.1,84,0,-1,15.6,12.8,22900,207,13.6,7.8
2019,9,12,08:50,UTC,8,1012,87,0,-1,15.3,13,13640,207,14.2,8.5
2019,9,12,09:00,UTC,7,1012,87,0,-1,15.3,13.2,12940,205,14.8,9
2019,9,12,09:10,UTC,7,1012,88,0.4,-1,15.2,13.2,17120,204,14.7,8
2019,9,12,09:20,UTC,8,1011.9,89,0.3,-1,15.2,13.4,12750,202,14.5,9.2
2019,9,12,09:30,UTC,7,1011.8,90,0.1,-1,15.2,13.6,8680,205,15.5,9
2019,9,12,09:40,UTC,7,1011.8,88,0,-1,15.4,13.5,22130,207,14.6,8.6
2019,9,12,09:50,UTC,8,1011.8,89,0,-1,15.4,13.5,18980,208,14.7,8.7
2019,9,12,10:00,UTC,7,1011.8,89,0,-1,15.5,13.8,29170,215,16.3,8.4
2019,9,12,10:10,UTC,7,1011.8,88,0,-1,15.9,14,29080,213,14.3,9.1
2019,9,12,10:20,UTC,7,1011.8,87,0,-1,16.2,14,30670,212,13.7,8.4
2019,9,12,10:30,UTC,7,1011.8,89,0,-1,15.9,14.1,20080,213,13.8,7.7
2019,9,12,10:40,UTC,7,1011.8,92,0.5,-1,15.7,14.3,10990,214,10,6.5
2019,9,12,10:50,UTC,7,1012,91,0.1,-1,15.6,14.2,21590,213,15.3,8.3
2019,9,12,11:00,UTC,7,1012.1,89,0,-1,15.9,14,28870,223,12,7.2
2019,9,12,11:10,UTC,5,1012,87,0,-1,16.5,14.3,27700,225,9.2,5.5
2019,9,12,11:20,UTC,3,1012.1,83,0,-1,16.7,13.7,20940,218,12.3,6.9
2019,9,12,11:30,UTC,5,1012,81,0,-1,16.6,13.2,25740,218,11.3,7
2019,9,12,11:40,UTC,5,1012.1,78,0,-1,16.7,12.9,31640,228,10.7,5.6
2019,9,12,11:50,UTC,7,1012.1,77,0,-1,16.8,12.7,49210,236,11.9,6.4
2019,9,12,12:00,UTC,7,1012.1,73,0,-1,16.7,11.9,46510,236,12.5,6.6
2019,9,12,12:10,UTC,5,1012.1,72,0,-1,16.9,11.9,39680,243,10.6,6.4
2019,9,12,12:20,UTC,3,1012.2,70,0,-1,17,11.4,33080,246,12,7.6
2019,9,12,12:30,UTC,1,1012.1,69,0,-1,16.9,11.2,39290,247,12.5,7.4
2019,9,12,12:40,UTC,1,1012.1,71,0,-1,16.7,11.3,33550,245,13.1,6.8
2019,9,12,12:50,UTC,3,1012.1,71,0,-1,16.9,11.6,36430,242,14.2,7.9
2019,9,12,13:00,UTC,5,1012.2,72,0,-1,16.8,11.7,39230,242,11.1,6.6
2019,9,12,13:10,UTC,7,1012.2,71,0,-1,16.7,11.4,29960,239,13.6,7
2019,9,12,13:20,UTC,7,1012.2,71,0,-1,16.6,11.4,31940,241,14.1,8.6
2019,9,12,13:30,UTC,7,1012.2,71,0,-1,16.4,11.1,37160,242,14,8.4
2019,9,12,13:40,UTC,5,1012.3,74,0,-1,16.3,11.6,30840,240,12.5,7
2019,9,12,13:50,UTC,5,1012.2,71,0,-1,16.6,11.3,32520,240,13.4,8
2019,9,12,14:00,UTC,3,1012.2,68,0,-1,16.6,10.8,35370,242,13.3,7.2
2019,9,12,14:10,UTC,1,1012.3,69,0,-1,16.8,10.9,37580,243,12.8,7.2
2019,9,12,14:20,UTC,1,1012.4,69,0,-1,16.5,10.8,34640,243,13.6,7.7
2019,9,12,14:30,UTC,1,1012.5,70,0,-1,16.6,11.1,31480,240,13.3,7.7
2019,9,12,14:40,UTC,1,1012.5,71,0,-1,16.5,11.3,38100,243,14,6.6
2019,9,12,14:50,UTC,1,1012.6,69,0,-1,16.5,10.9,35290,244,12.8,7.2
2019,9,12,15:00,UTC,1,1012.5,68,0,-1,16.5,10.5,33780,248,9,6
2019,9,12,15:10,UTC,1,1012.7,71,0,-1,16.5,11.2,34060,244,10.4,5.9
2019,9,12,15:20,UTC,1,1012.7,71,0,-1,16.3,11.1,32880,245,10.7,6
2019,9,12,15:30,UTC,1,1012.7,73,0,-1,16,11.1,32860,242,13,6.1
2019,9,12,15:40,UTC,1,1012.8,74,0,-1,15.9,11.2,32690,245,10.6,5.5
2019,9,12,15:50,UTC,1,1012.8,75,0,-1,15.9,11.3,31060,245,11,6.9
2019,9,12,16:00,UTC,1,1012.8,75,0,-1,15.8,11.4,31460,245,12.2,7.3
2019,9,12,16:10,UTC,1,1012.9,75,0,-1,15.6,11.3,29690,247,12.4,6.5
2019,9,12,16:20,UTC,1,1012.9,75,0,-1,15.6,11.2,31750,244,11.3,6.4
2019,9,12,16:30,UTC,0,1012.9,76,0,-1,15.5,11.3,35480,243,11.8,6.6
2019,9,12,16:40,UTC,0,1013,77,0,-1,15.5,11.5,29040,245,13.6,7.1
2019,9,12,16:50,UTC,1,1013.1,78,0,-1,15.4,11.6,27260,242,11.9,6.4
2019,9,12,17:00,UTC,0,1013.1,79,0,-1,15.4,11.8,27700,243,11.2,7
2019,9,12,17:10,UTC,0,1013.1,79,0,-1,15.3,11.8,27200,248,12,6.4
2019,9,12,17:20,UTC,0,1013.2,80,0,-1,15.3,11.8,24600,244,11.5,5.8
2019,9,12,17:30,UTC,0,1013.2,81,0,-1,15.3,12,26550,243,10.7,5.9
2019,9,12,17:40,UTC,0,1013.2,82,0,-1,15.2,12.1,24780,242,11.2,6.3
2019,9,12,17:50,UTC,0,1013.2,83,0,-1,15.2,12.2,24190,241,9.6,4.7
2019,9,12,18:00,UTC,0,1013.2,83,0,-1,15.2,12.3,23080,239,7.5,4.1
2019,9,12,18:10,UTC,0,1013.2,83,0,-1,15.2,12.3,22400,237,7.9,4.2
2019,9,12,18:20,UTC,0,1013.2,83,0,-1,15,12.2,23920,244,10.4,5.2
2019,9,12,18:30,UTC,0,1013.2,83,0,-1,15,12.1,25650,247,8.2,4.6
2019,9,12,18:40,UTC,0,1013.1,83,0,-1,15,12,27830,246,8.3,4.5
2019,9,12,18:50,UTC,0,1013,82,0,-1,15.1,12.1,27530,243,9.1,4.6
2019,9,12,19:00,UTC,0,1013.1,82,0,-1,15.2,12.2,26910,239,8.6,4.5
2019,9,12,19:10,UTC,0,1013,83,0,-1,15.2,12.3,24760,243,9,5.1
2019,9,12,19:20,UTC,0,1012.9,83,0,-1,15.2,12.3,26400,244,9,5
2019,9,12,19:30,UTC,0,1012.9,83,0,-1,15.2,12.3,24510,244,10,5.5
2019,9,12,19:40,UTC,0,1012.8,83,0,-1,15.2,12.4,26660,247,8.3,4.9
2019,9,12,19:50,UTC,0,1012.7,84,0,-1,15.2,12.5,25520,241,9.4,5.6
2019,9,12,20:00,UTC,0,1012.7,83,0,-1,15.2,12.4,27330,240,8.6,4.7
2019,9,12,20:10,UTC,0,1012.6,84,0,-1,15.2,12.4,28150,240,8.8,4.6
2019,9,12,20:20,UTC,1,1012.6,83,0,-1,15.2,12.4,26740,240,7.5,4
2019,9,12,20:30,UTC,3,1012.5,83,0,-1,15.4,12.4,28560,239,7.5,4.1
2019,9,12,20:40,UTC,5,1012.4,83,0,-1,15.4,12.4,28330,239,8.2,4.6
2019,9,12,20:50,UTC,5,1012.4,83,0,-1,15.4,12.5,26070,241,10.3,4.7
2019,9,12,21:00,UTC,5,1012.3,83,0,-1,15.5,12.5,25240,242,9.6,4.4
2019,9,12,21:10,UTC,7,1012.1,83,0,-1,15.5,12.5,26570,239,7.4,4.5
2019,9,12,21:20,UTC,7,1012,82,0,-1,15.5,12.5,29140,239,9.1,4.7
2019,9,12,21:30,UTC,5,1011.9,82,0,-1,15.5,12.5,25980,240,9.2,4.8
2019,9,12,21:40,UTC,3,1011.9,83,0,-1,15.4,12.6,26000,243,8.8,4.4
2019,9,12,21:50,UTC,1,1011.8,84,0,-1,15.3,12.6,23640,239,6.5,4
2019,9,12,22:00,UTC,3,1011.7,83,0,-1,15.3,12.5,30600,238,7.6,4.2
2019,9,12,22:10,UTC,1,1011.7,83,0,-1,15.3,12.5,26810,242,7.2,4.2
2019,9,12,22:20,UTC,3,1011.7,84,0,-1,15.3,12.5,25350,239,6.8,4
2019,9,12,22:30,UTC,5,1011.7,84,0,-1,15.3,12.5,29020,237,6.7,3.4
2019,9,12,22:40,UTC,7,1011.6,83,0,-1,15.3,12.5,32580,246,6.4,4.2
2019,9,12,22:50,UTC,7,1011.6,82,0,-1,15.4,12.4,32910,242,6.5,3.8
2019,9,12,23:00,UTC,7,1011.4,81,0,-1,15.5,12.3,27860,241,7,3.5
2019,9,12,23:10,UTC,7,1011.5,82,0,-1,15.4,12.4,30740,238,6.2,3.5
2019,9,12,23:20,UTC,7,1011.4,84,0,-1,15.3,12.7,26990,237,6.1,3.3
2019,9,12,23:30,UTC,7,1011.3,85,0,-1,15.3,12.7,23340,233,5.7,3
2019,9,12,23:40,UTC,7,1011.2,82,0,-1,15.4,12.3,25470,244,6.8,3.6
2019,9,12,23:50,UTC,7,1011.2,81,0,-1,15.4,12.1,31970,250,5.8,3.5
2019,9,13,00:00,UTC,7,1011,81,0,-1,15.3,12,30430,239,6.4,3.3
2019,9,13,00:10,UTC,7,1011.1,80,0,-1,15.4,11.9,33990,237,6.3,3.2
2019,9,13,00:20,UTC,7,1011.2,79,0,-1,15.4,11.8,3220,239,5.8,3.5
2019,9,13,00:30,UTC,8,1011.1,79,0,-1,15.3,11.8,21520,239,6.6,3.4
2019,9,13,00:40,UTC,7,1011.1,79,0,-1,15.3,11.6,34380,240,8.6,5.2
2019,9,13,00:50,UTC,7,1011,77,0,-1,15.3,11.3,32590,238,7.1,4.1
2019,9,13,01:00,UTC,7,1011,76,0,-1,15.2,11.1,31390,242,7.6,4.6
2019,9,13,01:10,UTC,7,1011,76,0,-1,15.2,11,33180,244,8.3,4.4
2019,9,13,01:20,UTC,7,1010.9,76,0,-1,15.2,10.9,32430,246,8.1,5
2019,9,13,01:30,UTC,8,1010.6,75,0,-1,15.2,10.7,35760,246,8.4,4.6
2019,9,13,01:40,UTC,7,1010.4,74,0,-1,15.2,10.6,30000,247,7.6,4
2019,9,13,01:50,UTC,7,1010.2,75,0,-1,15.1,10.7,35090,247,8.4,4.3
2019,9,13,02:00,UTC,7,1010.2,74,0,-1,15.2,10.5,29240,248,7.5,4.1
2019,9,13,02:10,UTC,8,1010.1,73,0,-1,15.2,10.4,39590,255,7.2,4.1
2019,9,13,02:20,UTC,8,1010,74,0,-1,15.1,10.5,43170,260,8.1,4.8
2019,9,13,02:30,UTC,8,1009.9,73,0,-1,15.2,10.4,39180,269,6.9,4.1
2019,9,13,02:40,UTC,7,1009.9,73,0,-1,15.1,10.4,28340,264,8.4,4.6
2019,9,13,02:50,UTC,7,1009.9,73,0,-1,15.1,10.3,34200,255,7.4,4.7
2019,9,13,03:00,UTC,7,1009.8,73,0,-1,15.1,10.4,33390,256,6.4,4
2019,9,13,03:10,UTC,7,1009.7,74,0,-1,15,10.4,37170,257,7.5,4.5
2019,9,13,03:20,UTC,8,1009.6,74,0,-1,15,10.4,37470,256,8.8,4.6
2019,9,13,03:30,UTC,8,1009.5,74,0,-1,15,10.3,35900,251,7.5,4.5
2019,9,13,03:40,UTC,7,1009.4,74,0,-1,15,10.4,41360,255,8.5,4.4
2019,9,13,03:50,UTC,7,1009.3,75,0,-1,14.9,10.5,34780,254,6.1,4
2019,9,13,04:00,UTC,7,1009.3,75,0,-1,14.9,10.5,37940,261,8.3,3.7
2019,9,13,04:10,UTC,7,1009.4,75,0,-1,14.9,10.5,35370,263,9.1,5.2
2019,9,13,04:20,UTC,7,1009.3,76,0,-1,14.8,10.6,34010,255,7.1,4.2
2019,9,13,04:30,UTC,7,1009.2,75,0,-1,14.9,10.5,33970,249,7.2,4.1
2019,9,13,04:40,UTC,7,1009.2,76,0,-1,14.9,10.6,35630,250,7.5,4.4
2019,9,13,04:50,UTC,7,1009.1,76,0,-1,14.8,10.7,31430,253,8.9,4.8
2019,9,13,05:00,UTC,7,1009.2,77,0,-1,14.8,10.8,28990,247,6.1,3.5
2019,9,13,05:10,UTC,7,1009.2,77,0,-1,14.8,10.9,26580,239,5.9,3.3
2019,9,13,05:20,UTC,7,1009.1,78,0,-1,14.8,10.9,25570,244,6.6,4.2
2019,9,13,05:30,UTC,7,1009.1,78,0,-1,14.8,11,30570,250,7.8,3.6
2019,9,13,05:40,UTC,7,1009.1,77,0,-1,14.8,10.9,32980,250,6.1,3.7
2019,9,13,05:50,UTC,7,1009.1,77,0,-1,15,11,27730,244,7.8,4.1
2019,9,13,06:00,UTC,7,1009.1,77,0,-1,15,11.1,27800,247,6.9,3.9
2019,9,13,06:10,UTC,7,1009,77,0,-1,15,11.1,32930,249,7,3.9
2019,9,13,06:20,UTC,7,1009,77,0,-1,15.1,11,28590,250,7.6,4.1
2019,9,13,06:30,UTC,7,1008.9,76,0,-1,15.5,11.3,32220,250,6.2,3.3
2019,9,13,06:40,UTC,7,1008.9,76,0,-1,15.3,11,25650,253,7.9,4.4
2019,9,13,06:50,UTC,5,1008.8,76,0,-1,15.2,11.1,25270,260,6.8,4.3
2019,9,13,07:00,UTC,7,1008.7,76,0,-1,15.2,11,27830,252,7.8,4.3
2019,9,13,07:10,UTC,5,1008.6,76,0,-1,15.3,11.1,25530,259,9,5.4
2019,9,13,07:20,UTC,3,1008.6,75,0,-1,15.5,11.1,29710,263,7.3,4.8
2019,9,13,07:30,UTC,3,1008.6,75,0,-1,15.5,11,27080,257,8.2,5
2019,9,13,07:40,UTC,5,1008.5,74,0,-1,15.5,11,28850,258,6.9,4.7
2019,9,13,07:50,UTC,5,1008.4,73,0,-1,15.6,10.8,34340,259,6.6,4
2019,9,13,08:00,UTC,5,1008.3,69,0,-1,16.3,10.5,23720,259,8.1,5.1
2019,9,13,08:10,UTC,5,1008.3,70,0,-1,16.4,10.8,30630,249,9.2,5.3
2019,9,13,08:20,UTC,7,1008.3,70,0,-1,16.1,10.7,29330,258,8.1,5.3
2019,9,13,08:30,UTC,7,1008.4,73,0,-1,15.8,10.9,25630,274,9.3,5.1
2019,9,13,08:40,UTC,7,1008.4,76,0,-1,15.3,11.2,23450,269,8,4.5
2019,9,13,08:50,UTC,7,1008.4,81,0.7,-1,14.6,11.4,11840,284,8.2,4.5
2019,9,13,09:00,UTC,7,1008.7,74,0.1,-1,13.5,8.9,32610,319,9.4,6.1
2019,9,13,09:10,UTC,7,1008.6,82,0.6,-1,12.5,9.6,9800,322,9.5,5.8
2019,9,13,09:20,UTC,7,1008.6,89,6.1,-1,11.7,9.9,2150,321,6.1,3.2
2019,9,13,09:30,UTC,7,1008.6,93,2.5,-1,11.6,10.5,11480,323,4.5,2.2
2019,9,13,09:40,UTC,7,1008.5,92,0.2,-1,11.7,10.4,45420,320,5.6,2.3
2019,9,13,09:50,UTC,7,1008.7,92,1.3,-1,11.6,10.3,4270,322,4.1,2.4
2019,9,13,10:00,UTC,7,1008.9,92,5.1,-1,11.4,10.1,3130,308,6.5,3.6
2019,9,13,10:10,UTC,7,1008.8,94,4.6,-1,11.2,10.2,4040,291,6,3.3
2019,9,13,10:20,UTC,7,1008.9,95,3.2,-1,11.2,10.4,8460,271,3.4,2.3
2019,9,13,10:30,UTC,7,1008.8,95,1.3,-1,11.2,10.5,6540,267,4.2,2.5
2019,9,13,10:40,UTC,7,1008.8,95,1.7,-1,11.2,10.5,6150,282,3.9,2.3
2019,9,13,10:50,UTC,7,1008.9,96,2.6,-1,11.3,10.6,5700,276,3.9,2.6
2019,9,13,11:00,UTC,7,1008.7,96,3.9,-1,11.3,10.7,2450,259,4.3,3.2
2019,9,13,11:10,UTC,7,1008.6,95,5.9,-1,11.4,10.7,2200,258,5.3,3.6
2019,9,13,11:20,UTC,7,1008.4,96,4.6,-1,11.5,10.8,3890,261,4.8,3.6
2019,9,13,11:30,UTC,7,1008.4,96,1.8,-1,11.7,11.1,7390,263,4.1,2.8
2019,9,13,11:40,UTC,5,1008.4,96,1.1,-1,12.3,11.6,9240,257,4.6,3.3
2019,9,13,11:50,UTC,5,1008.3,94,0.4,-1,12.1,11.2,16650,268,5.1,3.7
2019,9,13,12:00,UTC,5,1008.3,95,0,-1,12.2,11.5,21320,270,4.5,3.1
2019,9,13,12:10,UTC,5,1008.4,96,0.5,-1,12.2,11.5,14310,287,4.2,2.6
2019,9,13,12:20,UTC,5,1008.5,95,0.4,-1,12.2,11.4,18280,289,4.1,2.9
2019,9,13,12:30,UTC,5,1008.5,95,0.2,-1,12.2,11.4,29580,281,4.2,2.5
2019,9,13,12:40,UTC,5,1008.6,93,0,-1,12.3,11.3,50000,282,4.5,3.1
2019,9,13,12:50,UTC,3,1008.7,94,0,-1,12.5,11.5,36030,281,4.6,3.1
2019,9,13,13:00,UTC,3,1008.7,94,0,-1,12.4,11.4,50000,289,4.9,3.5
2019,9,13,13:10,UTC,5,1008.5,93,0,-1,12.4,11.3,50000,287,5.2,3.5
2019,9,13,13:20,UTC,5,1008.5,92,0,-1,12.7,11.4,50000,283,4,2.5
2019,9,13,13:30,UTC,5,1008.5,92,0,-1,12.7,11.4,50000,284,5.3,3.3
2019,9,13,13:40,UTC,7,1008.5,89,0,-1,13,11.3,49850,288,5.3,3.3
2019,9,13,13:50,UTC,5,1008.6,90,0,-1,13.1,11.6,48370,274,5.2,3.2
2019,9,13,14:00,UTC,5,1008.6,88,0,-1,13.5,11.6,48900,289,6,3.9
2019,9,13,14:10,UTC,5,1008.6,87,0,-1,13.5,11.4,50000,285,8.1,5.2
2019,9,13,14:20,UTC,7,1008.7,88,0,-1,13.3,11.4,50000,302,7.8,4.1
2019,9,13,14:30,UTC,7,1008.8,84,0.4,-1,11.9,9.3,8600,302,11,6.8
2019,9,13,14:40,UTC,7,1008.8,90,1.6,-1,11.6,10,18700,315,7.9,4.6
2019,9,13,14:50,UTC,7,1008.8,90,0,-1,11.7,10,50000,313,5.8,4.1
2019,9,13,15:00,UTC,5,1008.8,86,0,-1,12.2,10,50000,311,5.8,3.9
2019,9,13,15:10,UTC,3,1008.9,85,0,-1,12.2,9.8,50000,313,5.7,3.3
2019,9,13,15:20,UTC,1,1009,83,0,-1,12.3,9.6,50000,307,6.7,3.9
2019,9,13,15:30,UTC,0,1009.1,81,0,-1,12.4,9.2,50000,303,6.9,4.3
2019,9,13,15:40,UTC,0,1009.2,81,0,-1,12.5,9.2,50000,305,7.3,4.9
2019,9,13,15:50,UTC,0,1009.3,81,0,-1,12.5,9.3,50000,304,8.9,5.4
2019,9,13,16:00,UTC,0,1009.4,82,0,-1,12.3,9.3,50000,307,7.9,5.2
2019,9,13,16:10,UTC,0,1009.5,82,0,-1,12.2,9.1,50000,304,7.9,5.4
2019,9,13,16:20,UTC,0,1009.6,81,0,-1,12.1,9,50000,304,7.9,4.7
2019,9,13,16:30,UTC,0,1009.7,83,0,-1,12,9.2,50000,305,8.7,5.5
2019,9,13,16:40,UTC,0,1009.9,84,0,-1,11.9,9.4,50000,302,7.3,4.5
2019,9,13,16:50,UTC,0,1010,85,0,-1,11.9,9.4,49020,301,8,5
2019,9,13,17:00,UTC,0,1010.1,84,0,-1,11.9,9.3,50000,299,7.5,4.6
2019,9,13,17:10,UTC,1,1010.2,84,0,-1,11.9,9.2,50000,300,7.3,5
2019,9,13,17:20,UTC,1,1010.3,83,0,-1,11.9,9.1,50000,300,7.3,4.8
2019,9,13,17:30,UTC,3,1010.5,82,0,-1,11.8,8.9,50000,298,6.8,4.4
2019,9,13,17:40,UTC,1,1010.6,80,0,-1,11.7,8.4,50000,301,8.3,5.1
2019,9,13,17:50,UTC,1,1010.6,79,0,-1,11.7,8.2,48860,303,8.5,6
2019,9,13,18:00,UTC,0,1010.7,79,0,-1,11.6,8.1,50000,300,7,4.7
2019,9,13,18:10,UTC,0,1010.8,80,0,-1,11.5,8.1,45960,299,7,4.4
2019,9,13,18:20,UTC,0,1010.9,79,0,-1,11.4,7.8,50000,300,7.6,5.1
2019,9,13,18:30,UTC,0,1011,78,0,-1,11.3,7.6,50000,300,7.7,5
2019,9,13,18:40,UTC,0,1011.1,77,0,-1,11.3,7.4,50000,301,7.9,4.9
2019,9,13,18:50,UTC,0,1011.2,77,0,-1,11.1,7.3,50000,301,7.3,4.9
2019,9,13,19:00,UTC,0,1011.2,77,0,-1,11.1,7.2,50000,297,7.3,4.2
2019,9,13,19:10,UTC,0,1011.3,79,0,-1,10.9,7.4,50000,293,6.1,3.8
2019,9,13,19:20,UTC,0,1011.3,80,0,-1,10.8,7.5,50000,288,5.5,3.5
2019,9,13,19:30,UTC,0,1011.3,80,0,-1,10.8,7.5,50000,287,6.1,3.8
2019,9,13,19:40,UTC,0,1011.3,79,0,-1,10.8,7.4,49800,280,5.7,3.7
2019,9,13,19:50,UTC,0,1011.4,80,0,-1,10.7,7.3,50000,278,6,3.7
2019,9,13,20:00,UTC,0,1011.3,80,0,-1,10.6,7.2,50000,279,6.8,4.2
2019,9,13,20:10,UTC,0,1011.3,80,0,-1,10.5,7.1,50000,280,7.3,4.4
2019,9,13,20:20,UTC,1,1011.5,81,0,-1,10.3,7.2,50000,280,6.4,4.1
2019,9,13,20:30,UTC,0,1011.6,80,0,-1,10.4,7.1,50000,278,6.4,3.7
2019,9,13,20:40,UTC,0,1011.7,80,0,-1,10.3,7,50000,272,6.5,4.3
2019,9,13,20:50,UTC,0,1011.8,80,0,-1,10.1,6.9,50000,275,5.5,4
2019,9,13,21:00,UTC,0,1011.7,81,0,-1,10.1,6.9,50000,275,6.2,4.1
2019,9,13,21:10,UTC,0,1011.8,80,0,-1,10.2,6.8,50000,274,5.9,4
2019,9,13,21:20,UTC,0,1011.8,80,0,-1,10.1,6.8,50000,277,6.2,4.5
2019,9,13,21:30,UTC,0,1011.9,79,0,-1,10.2,6.7,50000,278,6.8,4.3
2019,9,13,21:40,UTC,0,1011.9,79,0,-1,10.2,6.7,50000,279,7.3,4.7
2019,9,13,21:50,UTC,0,1012,79,0,-1,10.2,6.7,50000,282,6.8,4.8
2019,9,13,22:00,UTC,0,1012.1,79,0,-1,10.2,6.7,50000,277,7.1,5
2019,9,13,22:10,UTC,0,1012.2,79,0,-1,10.2,6.7,50000,276,6.8,4.6
2019,9,13,22:20,UTC,0,1012.2,77,0,-1,10.3,6.5,50000,278,6.5,4.6
2019,9,13,22:30,UTC,0,1012.3,77,0,-1,10.2,6.5,50000,279,6.7,4.7
2019,9,13,22:40,UTC,0,1012.3,77,0,-1,10.3,6.5,50000,280,7.6,5.1
2019,9,13,22:50,UTC,0,1012.4,77,0,-1,10.3,6.4,20850,279,7.8,4.7
2019,9,13,23:00,UTC,0,1012.4,76,0,-1,10.3,6.3,50000,282,7.3,5.1
2019,9,13,23:10,UTC,0,1012.5,77,0,-1,10.1,6.3,50000,284,8.5,5.3
2019,9,13,23:20,UTC,0,1012.5,78,0,-1,10,6.3,50000,283,7.1,4
2019,9,13,23:30,UTC,0,1012.6,78,0,-1,10,6.3,50000,281,7,4.1
2019,9,13,23:40,UTC,0,1012.7,78,0,-1,10,6.3,50000,280,6.5,4.3
2019,9,13,23:50,UTC,0,1012.8,78,0,-1,9.9,6.4,50000,285,5.6,3.7
2019,9,14,00:00,UTC,0,1012.9,79,0,-1,9.9,6.3,50000,284,6.1,4.1
2019,9,14,00:10,UTC,0,1012.9,79,0,-1,9.9,6.3,50000,283,5.9,3.7
2019,9,14,00:20,UTC,0,1013,79,0,-1,9.8,6.4,36510,279,5.5,3.6
2019,9,14,00:30,UTC,0,1013.1,79,0,-1,9.8,6.4,50000,283,6.5,3.8
2019,9,14,00:40,UTC,0,1013.2,79,0,-1,9.8,6.4,50000,280,5.9,3.9
2019,9,14,00:50,UTC,0,1013.2,80,0,-1,9.7,6.3,50000,277,7.1,4.4
2019,9,14,01:00,UTC,0,1013.3,80,0,-1,9.6,6.4,50000,280,6.2,4
2019,9,14,01:10,UTC,0,1013.4,80,0,-1,9.6,6.3,50000,275,6.3,4
2019,9,14,01:20,UTC,0,1013.4,80,0,-1,9.5,6.3,50000,286,6.2,3.9
2019,9,14,01:30,UTC,0,1013.5,81,0,-1,9.5,6.3,50000,280,7,4.3
2019,9,14,01:40,UTC,0,1013.5,81,0,-1,9.4,6.3,50000,279,5.5,3.8
2019,9,14,01:50,UTC,0,1013.5,81,0,-1,9.5,6.3,50000,281,5.9,3.9
2019,9,14,02:00,UTC,0,1013.6,81,0,-1,9.4,6.3,50000,280,7.5,4.1
2019,9,14,02:10,UTC,0,1013.6,81,0,-1,9.4,6.4,50000,280,6,3.7
2019,9,14,02:20,UTC,0,1013.6,81,0,-1,9.4,6.4,50000,275,5.5,3.8
2019,9,14,02:30,UTC,0,1013.7,82,0,-1,9.4,6.4,50000,280,6.5,4.3
2019,9,14,02:40,UTC,0,1013.8,81,0,-1,9.5,6.4,50000,280,6.3,4
2019,9,14,02:50,UTC,0,1013.9,81,0,-1,9.5,6.4,50000,280,6.5,3.9
2019,9,14,03:00,UTC,0,1014,81,0,-1,9.4,6.3,50000,280,7.4,4.8
2019,9,14,03:10,UTC,0,1013.9,81,0,-1,9.5,6.4,50000,280,6.3,4.2
2019,9,14,03:20,UTC,0,1014,82,0,-1,9.4,6.4,50000,280,6.1,3.9
2019,9,14,03:30,UTC,0,1014,82,0,-1,9.3,6.4,50000,284,6,3.9
2019,9,14,03:40,UTC,0,1014,82,0,-1,9.2,6.3,50000,283,5.9,4
2019,9,14,03:50,UTC,0,1014.1,83,0,-1,9,6.4,50000,285,6.6,4
2019,9,14,04:00,UTC,0,1014.1,83,0,-1,9,6.3,50000,282,6.1,4
2019,9,14,04:10,UTC,0,1014.2,83,0,-1,9,6.3,50000,280,6.4,4.1
2019,9,14,04:20,UTC,0,1014.2,83,0,-1,9,6.3,50000,277,5.2,3.4
2019,9,14,04:30,UTC,0,1014.3,83,0,-1,9,6.4,50000,278,6.4,4
2019,9,14,04:40,UTC,0,1014.3,83,0,-1,9.1,6.4,50000,276,5.4,3.4
2019,9,14,04:50,UTC,0,1014.3,83,0,-1,9.3,6.4,50000,278,5.6,3.9
2019,9,14,05:00,UTC,0,1014.3,81,0,-1,9.5,6.4,50000,278,5.5,3.8
2019,9,14,05:10,UTC,0,1014.4,81,0,-1,9.5,6.4,50000,284,7.5,4.2
2019,9,14,05:20,UTC,0,1014.4,79,0,-1,9.7,6.2,50000,283,6.4,3.9
2019,9,14,05:30,UTC,0,1014.5,79,0,-1,9.8,6.3,50000,285,6.7,3.8
2019,9,14,05:40,UTC,0,1014.5,78,0,-1,9.9,6.4,50000,287,6.1,3.7
2019,9,14,05:50,UTC,0,1014.6,78,0,-1,10.1,6.4,45540,294,6.4,3.8
2019,9,14,06:00,UTC,0,1014.7,77,0,-1,10.4,6.4,48530,291,6.6,4.4
2019,9,14,06:10,UTC,0,1014.8,76,0,-1,10.8,6.7,50000,291,7.6,3.6
2019,9,14,06:20,UTC,0,1014.8,74,0,-1,10.9,6.6,50000,289,6.8,4
2019,9,14,06:30,UTC,0,1014.8,74,0,-1,11.2,6.7,49820,284,6.6,4
2019,9,14,06:40,UTC,0,1014.8,72,0,-1,11.5,6.6,50000,286,7.5,5.1
2019,9,14,06:50,UTC,0,1014.8,72,0,-1,11.7,6.8,50000,285,8.2,4.7
2019,9,14,07:00,UTC,0,1014.9,71,0,-1,11.8,6.7,48640,288,7.2,5.4
2019,9,14,07:10,UTC,0,1014.9,69,0,-1,12,6.5,50000,304,10.2,5
2019,9,14,07:20,UTC,0,1014.9,69,0,-1,12.2,6.6,50000,299,9.3,4.8
2019,9,14,07:30,UTC,1,1014.9,66,0,-1,12.4,6.3,50000,298,9.1,6
2019,9,14,07:40,UTC,1,1014.9,66,0,-1,12.5,6.3,46620,304,8.5,5.5
2019,9,14,07:50,UTC,1,1014.9,66,0,-1,12.7,6.4,48090,299,10.3,6
2019,9,14,08:00,UTC,3,1014.9,64,0,-1,12.6,6,50000,299,12,6.7
2019,9,14,08:10,UTC,3,1015,62,0,-1,13.1,5.9,49610,303,11.3,6.9
2019,9,14,08:20,UTC,5,1015,62,0,-1,13.1,5.9,41050,300,11.2,5.7
2019,9,14,08:30,UTC,5,1015.1,61,0,-1,13,5.5,50000,300,12.3,7.1
2019,9,14,08:40,UTC,7,1015.2,62,0,-1,13.1,5.9,46320,302,10.2,6.8
2019,9,14,08:50,UTC,5,1015.2,60,0,-1,12.9,5.3,50000,295,10.9,6.3
2019,9,14,09:00,UTC,7,1015.2,60,0,-1,12.8,5.2,50000,309,10.7,6.4
2019,9,14,09:10,UTC,7,1015.2,60,0,-1,13,5.3,49610,306,11.2,5.2
2019,9,14,09:20,UTC,5,1015.3,59,0,-1,13,5.1,50000,310,10.2,6.6
2019,9,14,09:30,UTC,3,1015.3,58,0,-1,13.2,5,49150,302,11.2,6.2
2019,9,14,09:40,UTC,3,1015.3,56,0,-1,13.3,4.8,47200,301,11.8,7.2
2019,9,14,09:50,UTC,5,1015.2,57,0,-1,13.5,5.1,50000,298,9.6,6.5
2019,9,14,10:00,UTC,5,1015.2,63,0,-1,13.6,6.6,20450,304,9.7,6.9
2019,9,14,10:10,UTC,3,1015,58,0,-1,13.5,5.5,50000,298,7.8,4.9
2019,9,14,10:20,UTC,5,1015.2,58,0,-1,13.3,5.3,22400,300,9.4,3.9
2019,9,14,10:30,UTC,5,1015.2,73,1.4,-1,11.5,6.8,10490,286,13.1,7.4
2019,9,14,10:40,UTC,5,1015.3,77,0,-1,11.9,8,50000,297,7,4.2
2019,9,14,10:50,UTC,1,1015.2,70,0,-1,13.1,7.8,39820,300,5.5,3.8
2019,9,14,11:00,UTC,1,1015.1,59,0,-1,13.2,5.4,50000,306,5.3,3.4
2019,9,14,11:10,UTC,1,1014.9,64,0,-1,13.9,7.3,41050,299,4.9,2.8
2019,9,14,11:20,UTC,3,1014.9,55,0,-1,14.5,5.6,47860,296,9.8,5
2019,9,14,11:30,UTC,5,1015.1,67,0,-1,13,7.1,23420,310,11.3,7.3
2019,9,14,11:40,UTC,5,1015.1,71,0,-1,13.3,8.1,50000,339,7.8,5.3
2019,9,14,11:50,UTC,7,1015.2,72,0.3,-1,12.8,7.8,31420,336,8.8,5.1
2019,9,14,12:00,UTC,5,1015.2,66,0,-1,12.3,6.2,23910,324,10.9,7
2019,9,14,12:10,UTC,7,1015.3,65,0,-1,12.3,6,46710,317,10.1,5.2
2019,9,14,12:20,UTC,7,1015.3,65,0,-1,12.1,5.8,50000,308,6.2,4
2019,9,14,12:30,UTC,5,1015.2,63,0,-1,12.8,5.9,50000,299,6.4,3.9
2019,9,14,12:40,UTC,1,1015.2,62,0,-1,13.2,5.9,50000,294,5.7,3.4
2019,9,14,12:50,UTC,1,1015.2,63,0,-1,13.5,6.5,47800,293,8.2,4.3
2019,9,14,13:00,UTC,3,1015.4,64,0,-1,13.1,6.4,22840,290,6.6,4.1
2019,9,14,13:10,UTC,5,1015.5,62,0,-1,12.4,5.3,32210,297,10.7,7.1
2019,9,14,13:20,UTC,5,1015.4,58,0,-1,13,4.9,50000,304,9.8,5.3
2019,9,14,13:30,UTC,3,1015.4,59,0,-1,13.4,5.4,50000,304,7.3,4.3
2019,9,14,13:40,UTC,1,1015.3,61,0,-1,13.6,6.2,50000,304,8.9,4.9
2019,9,14,13:50,UTC,0,1015.2,61,0,-1,13.5,6.1,50000,317,9.5,6.2
2019,9,14,14:00,UTC,1,1015.1,64,0,-1,13,6.3,50000,313,7.1,4.8
2019,9,14,14:10,UTC,3,1015.3,74,0,-1,12.5,8,10320,325,6.4,4.3
2019,9,14,14:20,UTC,3,1015.1,78,1.6,-1,11.7,7.9,29910,329,6.7,4.4
2019,9,14,14:30,UTC,5,1015.2,77,0,-1,12.3,8.3,49390,322,4.7,3.3
2019,9,14,14:40,UTC,5,1015.2,66,0,-1,12.3,6.1,45050,340,6.3,4.6
2019,9,14,14:50,UTC,7,1015.1,67,0,-1,12.7,6.6,50000,2,5.2,2.8
2019,9,14,15:00,UTC,5,1015.2,68,0,-1,12.4,6.8,50000,328,4.8,2.9
2019,9,14,15:10,UTC,5,1015.1,62,0,-1,13.1,5.9,50000,311,4.6,2.3
2019,9,14,15:20,UTC,5,1015.3,54,0,-1,13.7,4.4,50000,302,10.6,4.6
2019,9,14,15:30,UTC,1,1015.3,55,0,-1,13.4,4.4,50000,301,10.6,6.8
2019,9,14,15:40,UTC,1,1015.2,57,0,-1,13.2,4.9,50000,306,9.4,5.5
2019,9,14,15:50,UTC,0,1015.3,57,0,-1,13,4.8,50000,304,9.3,5.7
2019,9,14,16:00,UTC,1,1015.4,57,0,-1,12.8,4.5,50000,297,7.8,5
2019,9,14,16:10,UTC,3,1015.5,57,0,-1,12.7,4.4,50000,303,6.5,3.8
2019,9,14,16:20,UTC,3,1015.6,56,0,-1,12.6,4.1,50000,293,6.7,3.8
2019,9,14,16:30,UTC,3,1015.6,58,0,-1,12.3,4.3,50000,303,6.9,4.7
2019,9,14,16:40,UTC,1,1015.6,61,0,-1,11.9,4.7,50000,301,7.9,4.6
2019,9,14,16:50,UTC,1,1015.6,58,0,-1,12.1,4.1,50000,295,8.1,4.2
2019,9,14,17:00,UTC,0,1015.7,59,0,-1,12.1,4.3,50000,284,8,4.7
2019,9,14,17:10,UTC,1,1015.7,61,0,-1,11.9,4.5,50000,289,8.7,4.7
2019,9,14,17:20,UTC,3,1015.8,62,0,-1,11.8,4.8,50000,289,6.1,3.8
2019,9,14,17:30,UTC,1,1015.9,62,0,-1,11.7,4.7,50000,281,7,4.5
2019,9,14,17:40,UTC,3,1016,62,0,-1,11.7,4.7,50000,279,5.8,3.9
2019,9,14,17:50,UTC,5,1016.1,62,0,-1,11.6,4.6,50000,282,7,4.2
2019,9,14,18:00,UTC,5,1016.2,63,0,-1,11.4,4.7,50000,288,6.5,4.7
2019,9,14,18:10,UTC,3,1016.2,64,0,-1,11.3,4.6,50000,285,5.6,3.5
2019,9,14,18:20,UTC,3,1016.3,63,0,-1,11.3,4.6,48600,281,5.8,3.9
2019,9,14,18:30,UTC,1,1016.1,65,0,-1,11,4.6,50000,284,6.6,4.2
2019,9,14,18:40,UTC,1,1015.9,64,0,-1,10.9,4.5,50000,284,5.9,3.5
2019,9,14,18:50,UTC,0,1016,66,0,-1,10.8,4.6,48960,286,5.5,3.8
2019,9,14,19:00,UTC,0,1016.1,67,0,-1,10.7,4.7,50000,282,5.8,4
2019,9,14,19:10,UTC,0,1016,69,0,-1,10.6,5.2,50000,280,5.2,3.4
2019,9,14,19:20,UTC,0,1015.9,68,0,-1,10.5,5,50000,265,5.6,3.2
2019,9,14,19:30,UTC,0,1015.9,68,0,-1,10.5,4.7,48360,267,6,3.8
2019,9,14,19:40,UTC,0,1015.9,68,0,-1,10.3,4.6,50000,272,5.8,3.8
2019,9,14,19:50,UTC,0,1015.8,69,0,-1,10.2,4.7,50000,276,5.4,3.6
2019,9,14,20:00,UTC,0,1015.7,69,0,-1,10.1,4.8,50000,280,5.5,3.4
2019,9,14,20:10,UTC,0,1015.6,70,0,-1,10.1,4.8,50000,279,5.1,3.1
2019,9,14,20:20,UTC,0,1015.5,71,0,-1,9.9,4.9,50000,273,4,2.7
2019,9,14,20:30,UTC,0,1015.6,74,0,-1,9.6,5.1,50000,284,4.7,2.8
2019,9,14,20:40,UTC,0,1015.5,71,0,-1,9.8,4.9,50000,274,6.1,3.1
2019,9,14,20:50,UTC,0,1015.3,76,0,-1,9.3,5.3,50000,282,4.3,2.4
2019,9,14,21:00,UTC,0,1015.3,74,0,-1,9.5,5.1,50000,281,4.2,2.6
2019,9,14,21:10,UTC,0,1015.3,75,0,-1,9.3,5.2,50000,267,5.1,2.5
2019,9,14,21:20,UTC,0,1015.1,78,0,-1,8.8,5.2,50000,266,2.5,1.3
2019,9,14,21:30,UTC,0,1014.9,82,0,-1,8.4,5.5,50000,256,2.9,1.5
2019,9,14,21:40,UTC,0,1014.7,82,0,-1,8,5.2,50000,257,3.4,2.4
2019,9,14,21:50,UTC,0,1014.5,84,0,-1,7.9,5.3,50000,257,3.1,2.4
2019,9,14,22:00,UTC,0,1014.3,84,0,-1,7.7,5.2,50000,258,3.1,2
2019,9,14,22:10,UTC,0,1014,85,0,-1,7.5,5.2,50000,257,1.8,1.3
2019,9,14,22:20,UTC,0,1013.9,85,0,-1,7.5,5.2,50000,247,2.9,1.2
2019,9,14,22:30,UTC,0,1013.9,85,0,-1,7.5,5.2,50000,254,3,1.8
2019,9,14,22:40,UTC,0,1013.6,86,0,-1,7.3,5.1,50000,250,2.6,1.6
2019,9,14,22:50,UTC,0,1013.5,88,0,-1,7.1,5.3,50000,248,2.1,1.2
2019,9,14,23:00,UTC,0,1013.3,88,0,-1,7,5.2,50000,248,2.2,1.3
2019,9,14,23:10,UTC,0,1013,90,0,-1,6.8,5.3,50000,235,1.2,0.7
2019,9,14,23:20,UTC,0,1013.1,91,0,-1,6.7,5.4,50000,234,1.8,1.1
2019,9,14,23:30,UTC,3,1012.9,92,0,-1,6.6,5.4,50000,246,1.9,1.4
2019,9,14,23:40,UTC,3,1012.8,93,0,-1,6.7,5.6,47410,248,1.2,0.8
2019,9,14,23:50,UTC,3,1012.7,94,0,-1,6.7,5.7,50000,220,1.6,0.9
2019,9,15,00:00,UTC,1,1012.4,94,0,-1,6.8,5.9,46910,200,1.6,1
2019,9,15,00:10,UTC,3,1012,95,0,-1,6.9,6.2,50000,198,2.2,1.4
2019,9,15,00:20,UTC,3,1011.7,96,0,-1,7.2,6.6,46060,195,2.8,1.6
2019,9,15,00:30,UTC,3,1011.7,96,0,-1,7.7,7.2,50000,206,3.5,2.2
2019,9,15,00:40,UTC,5,1011.4,93,0,-1,8.5,7.5,49130,203,3.7,1.9
2019,9,15,00:50,UTC,5,1011.2,92,0,-1,8.9,7.6,50000,185,3,1.5
2019,9,15,01:00,UTC,7,1010.9,89,0,-1,9.4,7.7,50000,189,3.4,1.8
2019,9,15,01:10,UTC,7,1010.7,85,0,-1,10,7.6,50000,187,3.4,2.1
2019,9,15,01:20,UTC,8,1010.2,79,0,-1,10.8,7.3,50000,191,3.1,2
2019,9,15,01:30,UTC,8,1009.8,73,0,-1,11.5,6.8,50000,184,4.1,2.8
2019,9,15,01:40,UTC,8,1009.6,70,0,-1,11.8,6.4,50000,192,4.7,3.1
2019,9,15,01:50,UTC,8,1009.3,66,0,-1,12,5.8,50000,196,4.8,3
2019,9,15,02:00,UTC,7,1009,62,0,-1,12.5,5.5,50000,195,5.2,3.1
2019,9,15,02:10,UTC,7,1008.7,64,0,-1,12.4,5.7,32260,202,5.1,3.1
2019,9,15,02:20,UTC,7,1008.7,66,0,-1,12.1,5.9,16280,210,7.5,3.8
2019,9,15,02:30,UTC,7,1008.5,84,0.8,-1,11.2,8.6,9520,215,10.6,4.9
2019,9,15,02:40,UTC,7,1008,89,2.8,-1,10.7,9.1,4160,206,11.2,6.2
2019,9,15,02:50,UTC,7,1007.8,89,2.5,-1,10.7,8.9,10800,215,7,4.4
2019,9,15,03:00,UTC,7,1007.3,90,1,-1,10.5,8.9,9640,218,7.2,4.8
2019,9,15,03:10,UTC,7,1007,92,1.2,-1,10.6,9.3,8690,217,6.5,3.6
2019,9,15,03:20,UTC,7,1006.6,91,1.7,-1,10.6,9.2,9140,214,6.4,3.3
2019,9,15,03:30,UTC,7,1006.1,94,2.4,-1,10.4,9.5,5930,207,5.3,3.2
2019,9,15,03:40,UTC,7,1005.7,93,2.9,-1,10.5,9.5,6440,167,7.5,3.8
2019,9,15,03:50,UTC,7,1005.3,94,4.3,-1,10.5,9.5,4230,174,8.5,5
2019,9,15,04:00,UTC,7,1004.9,94,5.6,-1,10.8,10,3630,180,9.3,5.1
2019,9,15,04:10,UTC,7,1004.8,95,8,-1,11,10.3,2550,186,11.5,5.5
2019,9,15,04:20,UTC,7,1004.2,93,4,-1,11,10,6020,206,13,7.7
2019,9,15,04:30,UTC,7,1003.9,94,1.6,-1,10.8,9.8,8710,216,11,6.8
2019,9,15,04:40,UTC,7,1003.4,95,1.3,-1,10.9,10.1,8580,217,8.8,5.3
2019,9,15,04:50,UTC,7,1003.2,95,1.2,-1,10.9,10.1,9600,219,6,3.6
2019,9,15,05:00,UTC,7,1002.8,95,1,-1,11,10.2,8700,223,5.7,3.6
2019,9,15,05:10,UTC,7,1002.6,94,1.1,-1,11,10,9360,226,7.1,4.5
2019,9,15,05:20,UTC,7,1002.2,93,1.1,-1,11,10,8640,224,8.4,4.7
2019,9,15,05:30,UTC,7,1001.8,94,1.1,-1,10.9,10,9630,224,8.1,4.3
2019,9,15,05:40,UTC,7,1001.4,95,1,-1,10.9,10.1,7750,222,7.3,4.4
2019,9,15,05:50,UTC,7,1001.1,94,2,-1,10.9,10.1,7400,222,7,4.1
2019,9,15,06:00,UTC,7,1000.7,93,1.3,-1,10.9,9.9,8350,219,6.7,4.3
2019,9,15,06:10,UTC,7,1000.3,95,1.5,-1,10.8,10,9050,229,6.9,3.7
2019,9,15,06:20,UTC,7,1000,97,12.5,-1,10.8,10.3,840,218,5.7,3.2
2019,9,15,06:30,UTC,7,999.5,98,10.6,-1,11.1,10.7,1430,218,6.5,3.6
2019,9,15,06:40,UTC,7,999.5,97,18,-1,11.2,10.7,960,230,10.7,4.6
2019,9,15,06:50,UTC,7,999.2,95,12.1,-1,11,10.2,1780,229,11.1,5.4
2019,9,15,07:00,UTC,7,998.7,93,2,-1,11,9.9,8650,220,9.3,5.6
2019,9,15,07:10,UTC,7,998.4,95,1.4,-1,11,10.2,8860,222,8,4.7
2019,9,15,07:20,UTC,7,998,95,1.1,-1,11.1,10.3,10880,229,7.4,4.2
2019,9,15,07:30,UTC,7,997.5,95,0.7,-1,11.2,10.3,9940,231,6.3,3.6
2019,9,15,07:40,UTC,7,997,95,1,-1,11.2,10.5,9140,222,5.8,3.3
2019,9,15,07:50,UTC,8,996.5,96,1.1,-1,11.3,10.7,8840,216,7.1,4.1
2019,9,15,08:00,UTC,8,996.2,97,1.8,-1,11.5,11,7490,205,7.4,3.2
2019,9,15,08:10,UTC,7,995.8,96,0.5,-1,11.9,11.2,9740,215,8.8,4.4
2019,9,15,08:20,UTC,7,995.3,95,1.2,-1,12.1,11.4,5800,218,9.7,5.5
2019,9,15,08:30,UTC,7,995,95,2.7,-1,12.3,11.5,6830,225,8.5,4.4
2019,9,15,08:40,UTC,7,994.8,95,0.9,-1,12.3,11.6,11670,237,8.4,4.6
2019,9,15,08:50,UTC,7,994.4,94,0.2,-1,12.4,11.4,17260,241,9,4.8
2019,9,15,09:00,UTC,7,994.1,93,0.3,-1,12.4,11.3,19840,246,8.6,5.4
2019,9,15,09:10,UTC,7,993.8,94,0.2,-1,12.4,11.5,17580,239,8.5,5.1
2019,9,15,09:20,UTC,7,993.5,93,0,-1,12.5,11.5,33280,241,7.1,4.7
2019,9,15,09:30,UTC,7,993.2,93,0,-1,12.5,11.4,17550,243,7.8,4.6
2019,9,15,09:40,UTC,7,993,93,0,-1,12.5,11.4,19000,253,7.3,4.3
2019,9,15,09:50,UTC,7,992.8,91,0,-1,12.6,11.2,42710,251,9.1,4.3
2019,9,15,10:00,UTC,7,992.5,91,0,-1,12.6,11.2,42270,252,7.9,4.7
2019,9,15,10:10,UTC,7,992.3,91,0,-1,12.7,11.3,27960,247,7.2,4.1
2019,9,15,10:20,UTC,7,992.1,92,0.3,-1,12.6,11.3,19660,241,7,3.8
2019,9,15,10:30,UTC,7,991.8,92,0.1,-1,12.7,11.3,23420,240,7.3,3.7
2019,9,15,10:40,UTC,7,991.7,92,0.4,-1,12.7,11.4,19650,241,7.2,4.1
2019,9,15,10:50,UTC,7,991.5,91,0.1,-1,12.7,11.3,30670,248,6.7,4.1
2019,9,15,11:00,UTC,7,991.1,91,0,-1,12.8,11.4,27760,247,6.9,4
2019,9,15,11:10,UTC,7,990.8,91,0,-1,12.9,11.5,35030,237,5.8,3
2019,9,15,11:20,UTC,7,990.5,90,0,-1,13.1,11.5,37350,236,7.5,3.3
2019,9,15,11:30,UTC,7,990,89,0,-1,13.2,11.5,31030,242,8.6,4.3
2019,9,15,11:40,UTC,7,989.8,90,0,-1,13.2,11.5,32720,242,6.6,3.7
2019,9,15,11:50,UTC,8,989.6,90,0,-1,13.1,11.6,22840,239,8.7,4.2
2019,9,15,12:00,UTC,7,989.4,92,0.3,-1,13,11.7,20390,247,8.5,4.8
2019,9,15,12:10,UTC,7,989.2,94,1,-1,12.9,11.9,7090,255,8,4.1
2019,9,15,12:20,UTC,7,988.9,94,1,-1,12.7,11.8,7470,260,7,4.5
2019,9,15,12:30,UTC,7,989,94,1.6,-1,12.8,11.8,12460,261,6.7,3.4
2019,9,15,12:40,UTC,7,989,93,0,-1,13.1,12,33590,259,8.7,5.2
2019,9,15,12:50,UTC,7,989.2,89,0,-1,13.3,11.4,47750,268,8.6,5.3
2019,9,15,13:00,UTC,7,988.9,86,0,-1,13.5,11.1,45460,272,11.6,6.6
2019,9,15,13:10,UTC,5,989,84,0,-1,13.4,10.7,50000,280,9.8,5.2
2019,9,15,13:20,UTC,5,989.1,82,0,-1,13.3,10.3,46890,,,
2019,9,15,13:30,UTC,5,988.8,83,0,-1,13.1,10.2,50000,294,11.8,6.3
2019,9,15,13:40,UTC,7,989.4,84,1,-1,12.8,10.1,8960,296,10.2,6
2019,9,15,13:50,UTC,7,989.5,85,1.7,-1,11.3,8.9,9110,303,15.1,9.2
2019,9,15,14:00,UTC,7,989.1,87,1.9,-1,10.8,8.7,9090,303,13.9,8.6
2019,9,15,14:10,UTC,5,989.1,84,0.3,-1,11.2,8.6,32780,288,7.8,4.6
2019,9,15,14:20,UTC,3,989.3,80,0,-1,11.5,8.3,50000,274,7.5,4.8
2019,9,15,14:30,UTC,1,989.3,79,0,-1,11.7,8.2,50000,278,7.8,5.3
2019,9,15,14:40,UTC,0,989.3,80,0,-1,11.9,8.5,50000,269,7.7,4
2019,9,15,14:50,UTC,0,989.1,81,0,-1,12.1,9,50000,261,6.9,4.7
2019,9,15,15:00,UTC,0,989.2,81,0,-1,12.3,9.2,50000,259,7.6,4.3
2019,9,15,15:10,UTC,0,989.1,82,0,-1,12.7,9.7,49520,263,7.1,4.2
2019,9,15,15:20,UTC,0,989.3,81,0,-1,12.9,9.6,50000,264,8.6,5
2019,9,15,15:30,UTC,0,989.2,80,0,-1,12.7,9.4,49410,266,8.4,5.7
2019,9,15,15:40,UTC,1,989.2,80,0,-1,12.8,9.4,50000,270,9.2,6.2
2019,9,15,15:50,UTC,5,989.3,80,0,-1,12.8,9.5,50000,262,9.5,4.5
2019,9,15,16:00,UTC,5,989.4,80,0,-1,12.8,9.3,50000,258,7.9,5.5
2019,9,15,16:10,UTC,5,989.6,79,0,-1,12.8,9.1,50000,262,8.6,5.5
2019,9,15,16:20,UTC,3,989.6,80,0,-1,12.6,9.2,48590,259,10.2,5.5
2019,9,15,16:30,UTC,1,989.6,80,0,-1,12.5,9.1,50000,260,9.2,5.9
2019,9,15,16:40,UTC,0,989.7,80,0,-1,12.4,9.1,48530,258,10.1,5.8
2019,9,15,16:50,UTC,0,989.8,79,0,-1,12.3,8.9,50000,259,9.4,5.9
2019,9,15,17:00,UTC,0,989.9,79,0,-1,12.2,8.7,50000,257,8.8,5.5
2019,9,15,17:10,UTC,0,990,77,0,-1,12.2,8.3,50000,263,9.7,6
2019,9,15,17:20,UTC,0,990.1,76,0,-1,12.1,8.1,50000,268,10.5,6.8
2019,9,15,17:30,UTC,0,990.1,76,0,-1,12,8,50000,265,10.7,6.3
2019,9,15,17:40,UTC,0,990.2,76,0,-1,12,7.9,50000,268,9.7,5.9
2019,9,15,17:50,UTC,0,990.3,76,0,-1,11.9,7.8,50000,269,9.2,5.8
2019,9,15,18:00,UTC,0,990.3,76,0,-1,11.8,7.8,48550,265,9.2,5.9
2019,9,15,18:10,UTC,0,990.4,78,0,-1,11.6,7.9,50000,268,9.1,5.5
2019,9,15,18:20,UTC,0,990.4,78,0,-1,11.5,7.8,50000,273,8.3,4.6
2019,9,15,18:30,UTC,0,990.3,79,0,-1,11.4,7.8,50000,274,7.7,5.1
2019,9,15,18:40,UTC,0,990.4,78,0,-1,11.4,7.7,50000,273,7.9,4.8
2019,9,15,18:50,UTC,0,990.3,77,0,-1,11.4,7.6,50000,272,9.6,4.7
2019,9,15,19:00,UTC,0,990.3,78,0,-1,11.3,7.5,50000,273,7.5,4.2
2019,9,15,19:10,UTC,0,990.3,77,0,-1,11.3,7.4,49920,273,6.9,4.1
2019,9,15,19:20,UTC,1,990.1,76,0,-1,11.3,7.3,50000,277,7.5,4.7
2019,9,15,19:30,UTC,3,990.1,76,0,-1,11.3,7.1,50000,278,9.2,5.2
2019,9,15,19:40,UTC,5,990,75,0,-1,11.2,6.9,50000,270,8.3,4.8
2019,9,15,19:50,UTC,3,990.1,72,0,-1,11.1,6.3,50000,272,7.5,4.4
2019,9,15,20:00,UTC,1,990.3,72,0,-1,11.1,6.1,50000,273,7.3,4.3
2019,9,15,20:10,UTC,3,990.3,70,0,-1,11.1,5.9,50000,272,7.8,4.4
2019,9,15,20:20,UTC,5,990.4,72,0,-1,11,6.1,50000,272,9,5.8
2019,9,15,20:30,UTC,5,990.3,72,0,-1,10.8,6,50000,266,9.5,5.3
2019,9,15,20:40,UTC,3,990.3,72,0,-1,10.7,5.9,50000,262,9.5,5.2
2019,9,15,20:50,UTC,1,990.4,74,0,-1,10.5,6,50000,265,8.5,5.1
2019,9,15,21:00,UTC,0,990.3,74,0,-1,10.4,6,50000,260,8.8,5.1
2019,9,15,21:10,UTC,0,990.2,76,0,-1,10.2,6.1,50000,263,7.2,4.8
2019,9,15,21:20,UTC,0,990.1,76,0,-1,10.3,6.1,50000,254,6.5,3.8
2019,9,15,21:30,UTC,0,990,78,0,-1,10.2,6.5,50000,263,7,4.3
2019,9,15,21:40,UTC,0,989.9,78,0,-1,10.2,6.5,49160,264,8.8,5.2
2019,9,15,21:50,UTC,0,989.8,78,0,-1,10.1,6.4,50000,270,7.4,4.5
2019,9,15,22:00,UTC,0,989.7,78,0,-1,10,6.4,50000,279,7.9,4.3
2019,9,15,22:10,UTC,0,989.7,78,0,-1,10,6.3,50000,276,7.3,4.6
2019,9,15,22:20,UTC,0,989.7,77,0,-1,10.1,6.3,50000,278,8,5.2
2019,9,15,22:30,UTC,0,989.7,77,0,-1,10.1,6.2,50000,281,7.8,4.7
2019,9,15,22:40,UTC,0,989.7,77,0,-1,10.1,6.1,50000,279,7.4,5
2019,9,15,22:50,UTC,0,989.6,76,0,-1,10,6.1,50000,281,7.9,4.7
2019,9,15,23:00,UTC,0,989.7,75,0,-1,10.1,5.9,50000,277,7.9,5
2019,9,15,23:10,UTC,1,989.6,76,0,-1,10,6,50000,272,8.6,4.4
2019,9,15,23:20,UTC,1,989.6,74,0,-1,10.1,5.8,50000,264,7.7,4.7
2019,9,15,23:30,UTC,1,989.6,75,0,-1,10.1,5.8,50000,269,8.8,4.9
2019,9,15,23:40,UTC,0,989.6,76,0,-1,9.9,5.9,50000,273,8.9,5.3
2019,9,15,23:50,UTC,0,989.6,77,0,-1,9.8,6,50000,268,7.4,4.9
2019,9,16,00:00,UTC,0,989.6,78,0,-1,9.8,6,50000,267,8.4,5.4